{
"type": "FeatureCollection",
"name": "chm_removal_only",
"crs": { "type": "name", "properties": { "name": "urn:ogc:def:crs:EPSG::32617" } },
"features": [
{ "type": "Feature", "properties": { "class_id": 1, "class_name": "removal", "area_m2": 7.0 }, "geometry": { "type": "Polygon", "coordinates": [ [ [ 407915.0, 3284000.0 ], [ 407915.0, 3283999.0 ], [ 407914.0, 3283999.0 ], [ 407914.0, 3283998.0 ], [ 407913.0, 3283998.0 ], [ 407913.0, 3283997.0 ], [ 407916.0, 3283997.0 ], [ 407916.0, 3283999.0 ], [ 407917.0, 3283999.0 ], [ 407917.0, 3284000.0 ], [ 407915.0, 3284000.0 ] ] ] } },
{ "type": "Feature", "properties": { "class_id": 1, "class_name": "removal", "area_m2": 5.0 }, "geometry": { "type": "Polygon", "coordinates": [ [ [ 407866.0, 3283979.0 ], [ 407866.0, 3283978.0 ], [ 407867.0, 3283978.0 ], [ 407867.0, 3283977.0 ], [ 407869.0, 3283977.0 ], [ 407869.0, 3283979.0 ], [ 407866.0, 3283979.0 ] ] ] } },
{ "type": "Feature", "properties": { "class_id": 1, "class_name": "removal", "area_m2": 5.0 }, "geometry": { "type": "Polygon", "coordinates": [ [ [ 407705.0, 3283978.0 ], [ 407705.0, 3283977.0 ], [ 407707.0, 3283977.0 ], [ 407707.0, 3283976.0 ], [ 407709.0, 3283976.0 ], [ 407709.0, 3283977.0 ], [ 407708.0, 3283977.0 ], [ 407708.0, 3283978.0 ], [ 407705.0, 3283978.0 ] ] ] } },
{ "type": "Feature", "properties": { "class_id": 1, "class_name": "removal", "area_m2": 4.0 }, "geometry": { "type": "Polygon", "coordinates": [ [ [ 407825.0, 3283978.0 ], [ 407825.0, 3283975.0 ], [ 407827.0, 3283975.0 ], [ 407827.0, 3283976.0 ], [ 407826.0, 3283976.0 ], [ 407826.0, 3283978.0 ], [ 407825.0, 3283978.0 ] ] ] } },
{ "type": "Feature", "properties": { "class_id": 1, "class_name": "removal", "area_m2": 5.0 }, "geometry": { "type": "Polygon", "coordinates": [ [ [ 407825.0, 3283974.0 ], [ 407825.0, 3283973.0 ], [ 407823.0, 3283973.0 ], [ 407823.0, 3283971.0 ], [ 407824.0, 3283971.0 ], [ 407824.0, 3283972.0 ], [ 407826.0, 3283972.0 ], [ 407826.0, 3283974.0 ], [ 407825.0, 3283974.0 ] ] ] } },
{ "type": "Feature", "properties": { "class_id": 1, "class_name": "removal", "area_m2": 8.0 }, "geometry": { "type": "Polygon", "coordinates": [ [ [ 407717.0, 3283973.0 ], [ 407717.0, 3283970.0 ], [ 407718.0, 3283970.0 ], [ 407718.0, 3283969.0 ], [ 407719.0, 3283969.0 ], [ 407719.0, 3283970.0 ], [ 407720.0, 3283970.0 ], [ 407720.0, 3283971.0 ], [ 407719.0, 3283971.0 ], [ 407719.0, 3283973.0 ], [ 407717.0, 3283973.0 ] ] ] } },
{ "type": "Feature", "properties": { "class_id": 1, "class_name": "removal", "area_m2": 4.0 }, "geometry": { "type": "Polygon", "coordinates": [ [ [ 407815.0, 3283970.0 ], [ 407815.0, 3283967.0 ], [ 407816.0, 3283967.0 ], [ 407816.0, 3283969.0 ], [ 407817.0, 3283969.0 ], [ 407817.0, 3283970.0 ], [ 407815.0, 3283970.0 ] ] ] } },
{ "type": "Feature", "properties": { "class_id": 1, "class_name": "removal", "area_m2": 7.0 }, "geometry": { "type": "Polygon", "coordinates": [ [ [ 407708.0, 3283970.0 ], [ 407708.0, 3283969.0 ], [ 407709.0, 3283969.0 ], [ 407709.0, 3283968.0 ], [ 407708.0, 3283968.0 ], [ 407708.0, 3283967.0 ], [ 407710.0, 3283967.0 ], [ 407710.0, 3283968.0 ], [ 407712.0, 3283968.0 ], [ 407712.0, 3283969.0 ], [ 407710.0, 3283969.0 ], [ 407710.0, 3283970.0 ], [ 407708.0, 3283970.0 ] ] ] } },
{ "type": "Feature", "properties": { "class_id": 1, "class_name": "removal", "area_m2": 6.0 }, "geometry": { "type": "Polygon", "coordinates": [ [ [ 407701.0, 3283968.0 ], [ 407701.0, 3283967.0 ], [ 407700.0, 3283967.0 ], [ 407700.0, 3283965.0 ], [ 407701.0, 3283965.0 ], [ 407701.0, 3283966.0 ], [ 407702.0, 3283966.0 ], [ 407702.0, 3283967.0 ], [ 407704.0, 3283967.0 ], [ 407704.0, 3283968.0 ], [ 407701.0, 3283968.0 ] ] ] } },
{ "type": "Feature", "properties": { "class_id": 1, "class_name": "removal", "area_m2": 4.0 }, "geometry": { "type": "Polygon", "coordinates": [ [ [ 407826.0, 3283951.0 ], [ 407826.0, 3283950.0 ], [ 407828.0, 3283950.0 ], [ 407828.0, 3283949.0 ], [ 407829.0, 3283949.0 ], [ 407829.0, 3283951.0 ], [ 407826.0, 3283951.0 ] ] ] } },
{ "type": "Feature", "properties": { "class_id": 1, "class_name": "removal", "area_m2": 4.0 }, "geometry": { "type": "Polygon", "coordinates": [ [ [ 407786.0, 3283930.0 ], [ 407786.0, 3283929.0 ], [ 407785.0, 3283929.0 ], [ 407785.0, 3283928.0 ], [ 407788.0, 3283928.0 ], [ 407788.0, 3283929.0 ], [ 407787.0, 3283929.0 ], [ 407787.0, 3283930.0 ], [ 407786.0, 3283930.0 ] ] ] } },
{ "type": "Feature", "properties": { "class_id": 1, "class_name": "removal", "area_m2": 4.0 }, "geometry": { "type": "Polygon", "coordinates": [ [ [ 407762.0, 3283926.0 ], [ 407762.0, 3283923.0 ], [ 407764.0, 3283923.0 ], [ 407764.0, 3283924.0 ], [ 407763.0, 3283924.0 ], [ 407763.0, 3283926.0 ], [ 407762.0, 3283926.0 ] ] ] } },
{ "type": "Feature", "properties": { "class_id": 1, "class_name": "removal", "area_m2": 6.0 }, "geometry": { "type": "Polygon", "coordinates": [ [ [ 407748.0, 3283923.0 ], [ 407748.0, 3283922.0 ], [ 407749.0, 3283922.0 ], [ 407749.0, 3283919.0 ], [ 407750.0, 3283919.0 ], [ 407750.0, 3283922.0 ], [ 407751.0, 3283922.0 ], [ 407751.0, 3283923.0 ], [ 407748.0, 3283923.0 ] ] ] } },
{ "type": "Feature", "properties": { "class_id": 1, "class_name": "removal", "area_m2": 4.0 }, "geometry": { "type": "Polygon", "coordinates": [ [ [ 407833.0, 3283916.0 ], [ 407833.0, 3283914.0 ], [ 407836.0, 3283914.0 ], [ 407836.0, 3283915.0 ], [ 407834.0, 3283915.0 ], [ 407834.0, 3283916.0 ], [ 407833.0, 3283916.0 ] ] ] } },
{ "type": "Feature", "properties": { "class_id": 1, "class_name": "removal", "area_m2": 5.0 }, "geometry": { "type": "Polygon", "coordinates": [ [ [ 407829.0, 3283916.0 ], [ 407829.0, 3283915.0 ], [ 407831.0, 3283915.0 ], [ 407831.0, 3283913.0 ], [ 407832.0, 3283913.0 ], [ 407832.0, 3283916.0 ], [ 407829.0, 3283916.0 ] ] ] } },
{ "type": "Feature", "properties": { "class_id": 1, "class_name": "removal", "area_m2": 6.0 }, "geometry": { "type": "Polygon", "coordinates": [ [ [ 407801.0, 3283903.0 ], [ 407801.0, 3283899.0 ], [ 407803.0, 3283899.0 ], [ 407803.0, 3283901.0 ], [ 407802.0, 3283901.0 ], [ 407802.0, 3283903.0 ], [ 407801.0, 3283903.0 ] ] ] } },
{ "type": "Feature", "properties": { "class_id": 1, "class_name": "removal", "area_m2": 5.0 }, "geometry": { "type": "Polygon", "coordinates": [ [ [ 407710.0, 3283884.0 ], [ 407710.0, 3283883.0 ], [ 407709.0, 3283883.0 ], [ 407709.0, 3283881.0 ], [ 407710.0, 3283881.0 ], [ 407710.0, 3283882.0 ], [ 407711.0, 3283882.0 ], [ 407711.0, 3283883.0 ], [ 407712.0, 3283883.0 ], [ 407712.0, 3283884.0 ], [ 407710.0, 3283884.0 ] ] ] } },
{ "type": "Feature", "properties": { "class_id": 1, "class_name": "removal", "area_m2": 4.0 }, "geometry": { "type": "Polygon", "coordinates": [ [ [ 407805.0, 3283876.0 ], [ 407805.0, 3283873.0 ], [ 407807.0, 3283873.0 ], [ 407807.0, 3283874.0 ], [ 407806.0, 3283874.0 ], [ 407806.0, 3283876.0 ], [ 407805.0, 3283876.0 ] ] ] } },
{ "type": "Feature", "properties": { "class_id": 1, "class_name": "removal", "area_m2": 4.0 }, "geometry": { "type": "Polygon", "coordinates": [ [ [ 407831.0, 3283875.0 ], [ 407831.0, 3283872.0 ], [ 407832.0, 3283872.0 ], [ 407832.0, 3283874.0 ], [ 407833.0, 3283874.0 ], [ 407833.0, 3283875.0 ], [ 407831.0, 3283875.0 ] ] ] } },
{ "type": "Feature", "properties": { "class_id": 1, "class_name": "removal", "area_m2": 4.0 }, "geometry": { "type": "Polygon", "coordinates": [ [ [ 407719.0, 3283870.0 ], [ 407719.0, 3283869.0 ], [ 407718.0, 3283869.0 ], [ 407718.0, 3283868.0 ], [ 407720.0, 3283868.0 ], [ 407720.0, 3283869.0 ], [ 407721.0, 3283869.0 ], [ 407721.0, 3283870.0 ], [ 407719.0, 3283870.0 ] ] ] } },
{ "type": "Feature", "properties": { "class_id": 1, "class_name": "removal", "area_m2": 4.0 }, "geometry": { "type": "Polygon", "coordinates": [ [ [ 407819.0, 3283867.0 ], [ 407819.0, 3283866.0 ], [ 407818.0, 3283866.0 ], [ 407818.0, 3283865.0 ], [ 407819.0, 3283865.0 ], [ 407819.0, 3283864.0 ], [ 407820.0, 3283864.0 ], [ 407820.0, 3283867.0 ], [ 407819.0, 3283867.0 ] ] ] } },
{ "type": "Feature", "properties": { "class_id": 1, "class_name": "removal", "area_m2": 4.0 }, "geometry": { "type": "Polygon", "coordinates": [ [ [ 407800.0, 3283866.0 ], [ 407800.0, 3283863.0 ], [ 407801.0, 3283863.0 ], [ 407801.0, 3283865.0 ], [ 407802.0, 3283865.0 ], [ 407802.0, 3283866.0 ], [ 407800.0, 3283866.0 ] ] ] } },
{ "type": "Feature", "properties": { "class_id": 1, "class_name": "removal", "area_m2": 4.0 }, "geometry": { "type": "Polygon", "coordinates": [ [ [ 407831.0, 3283863.0 ], [ 407831.0, 3283862.0 ], [ 407830.0, 3283862.0 ], [ 407830.0, 3283861.0 ], [ 407832.0, 3283861.0 ], [ 407832.0, 3283862.0 ], [ 407833.0, 3283862.0 ], [ 407833.0, 3283863.0 ], [ 407831.0, 3283863.0 ] ] ] } },
{ "type": "Feature", "properties": { "class_id": 1, "class_name": "removal", "area_m2": 4.0 }, "geometry": { "type": "Polygon", "coordinates": [ [ [ 407733.0, 3283861.0 ], [ 407733.0, 3283860.0 ], [ 407732.0, 3283860.0 ], [ 407732.0, 3283859.0 ], [ 407735.0, 3283859.0 ], [ 407735.0, 3283860.0 ], [ 407734.0, 3283860.0 ], [ 407734.0, 3283861.0 ], [ 407733.0, 3283861.0 ] ] ] } },
{ "type": "Feature", "properties": { "class_id": 1, "class_name": "removal", "area_m2": 4.0 }, "geometry": { "type": "Polygon", "coordinates": [ [ [ 407835.0, 3283851.0 ], [ 407835.0, 3283850.0 ], [ 407836.0, 3283850.0 ], [ 407836.0, 3283849.0 ], [ 407837.0, 3283849.0 ], [ 407837.0, 3283850.0 ], [ 407838.0, 3283850.0 ], [ 407838.0, 3283851.0 ], [ 407835.0, 3283851.0 ] ] ] } },
{ "type": "Feature", "properties": { "class_id": 1, "class_name": "removal", "area_m2": 4.0 }, "geometry": { "type": "Polygon", "coordinates": [ [ [ 407742.0, 3283851.0 ], [ 407742.0, 3283850.0 ], [ 407741.0, 3283850.0 ], [ 407741.0, 3283849.0 ], [ 407743.0, 3283849.0 ], [ 407743.0, 3283850.0 ], [ 407744.0, 3283850.0 ], [ 407744.0, 3283851.0 ], [ 407742.0, 3283851.0 ] ] ] } },
{ "type": "Feature", "properties": { "class_id": 1, "class_name": "removal", "area_m2": 4.0 }, "geometry": { "type": "Polygon", "coordinates": [ [ [ 407734.0, 3283850.0 ], [ 407734.0, 3283847.0 ], [ 407735.0, 3283847.0 ], [ 407735.0, 3283849.0 ], [ 407736.0, 3283849.0 ], [ 407736.0, 3283850.0 ], [ 407734.0, 3283850.0 ] ] ] } },
{ "type": "Feature", "properties": { "class_id": 1, "class_name": "removal", "area_m2": 4.0 }, "geometry": { "type": "Polygon", "coordinates": [ [ [ 407828.0, 3283849.0 ], [ 407828.0, 3283848.0 ], [ 407827.0, 3283848.0 ], [ 407827.0, 3283847.0 ], [ 407828.0, 3283847.0 ], [ 407828.0, 3283846.0 ], [ 407829.0, 3283846.0 ], [ 407829.0, 3283849.0 ], [ 407828.0, 3283849.0 ] ] ] } },
{ "type": "Feature", "properties": { "class_id": 1, "class_name": "removal", "area_m2": 6.0 }, "geometry": { "type": "Polygon", "coordinates": [ [ [ 407720.0, 3283846.0 ], [ 407720.0, 3283845.0 ], [ 407722.0, 3283845.0 ], [ 407722.0, 3283844.0 ], [ 407724.0, 3283844.0 ], [ 407724.0, 3283846.0 ], [ 407720.0, 3283846.0 ] ] ] } },
{ "type": "Feature", "properties": { "class_id": 1, "class_name": "removal", "area_m2": 5.0 }, "geometry": { "type": "Polygon", "coordinates": [ [ [ 407831.0, 3283846.0 ], [ 407831.0, 3283845.0 ], [ 407833.0, 3283845.0 ], [ 407833.0, 3283844.0 ], [ 407834.0, 3283844.0 ], [ 407834.0, 3283845.0 ], [ 407835.0, 3283845.0 ], [ 407835.0, 3283846.0 ], [ 407831.0, 3283846.0 ] ] ] } },
{ "type": "Feature", "properties": { "class_id": 1, "class_name": "removal", "area_m2": 4.0 }, "geometry": { "type": "Polygon", "coordinates": [ [ [ 407741.0, 3283839.0 ], [ 407741.0, 3283838.0 ], [ 407740.0, 3283838.0 ], [ 407740.0, 3283837.0 ], [ 407742.0, 3283837.0 ], [ 407742.0, 3283838.0 ], [ 407743.0, 3283838.0 ], [ 407743.0, 3283839.0 ], [ 407741.0, 3283839.0 ] ] ] } },
{ "type": "Feature", "properties": { "class_id": 1, "class_name": "removal", "area_m2": 4.0 }, "geometry": { "type": "Polygon", "coordinates": [ [ [ 407807.0, 3283838.0 ], [ 407807.0, 3283836.0 ], [ 407810.0, 3283836.0 ], [ 407810.0, 3283837.0 ], [ 407808.0, 3283837.0 ], [ 407808.0, 3283838.0 ], [ 407807.0, 3283838.0 ] ] ] } },
{ "type": "Feature", "properties": { "class_id": 1, "class_name": "removal", "area_m2": 5.0 }, "geometry": { "type": "Polygon", "coordinates": [ [ [ 407820.0, 3283836.0 ], [ 407820.0, 3283835.0 ], [ 407819.0, 3283835.0 ], [ 407819.0, 3283834.0 ], [ 407823.0, 3283834.0 ], [ 407823.0, 3283835.0 ], [ 407821.0, 3283835.0 ], [ 407821.0, 3283836.0 ], [ 407820.0, 3283836.0 ] ] ] } },
{ "type": "Feature", "properties": { "class_id": 1, "class_name": "removal", "area_m2": 4.0 }, "geometry": { "type": "Polygon", "coordinates": [ [ [ 407747.0, 3283829.0 ], [ 407747.0, 3283825.0 ], [ 407748.0, 3283825.0 ], [ 407748.0, 3283829.0 ], [ 407747.0, 3283829.0 ] ] ] } },
{ "type": "Feature", "properties": { "class_id": 1, "class_name": "removal", "area_m2": 4.0 }, "geometry": { "type": "Polygon", "coordinates": [ [ [ 407842.0, 3283822.0 ], [ 407842.0, 3283821.0 ], [ 407846.0, 3283821.0 ], [ 407846.0, 3283822.0 ], [ 407842.0, 3283822.0 ] ] ] } },
{ "type": "Feature", "properties": { "class_id": 1, "class_name": "removal", "area_m2": 8.0 }, "geometry": { "type": "Polygon", "coordinates": [ [ [ 407851.0, 3283825.0 ], [ 407851.0, 3283822.0 ], [ 407850.0, 3283822.0 ], [ 407850.0, 3283821.0 ], [ 407851.0, 3283821.0 ], [ 407851.0, 3283820.0 ], [ 407852.0, 3283820.0 ], [ 407852.0, 3283824.0 ], [ 407854.0, 3283824.0 ], [ 407854.0, 3283825.0 ], [ 407851.0, 3283825.0 ] ] ] } },
{ "type": "Feature", "properties": { "class_id": 1, "class_name": "removal", "area_m2": 4.0 }, "geometry": { "type": "Polygon", "coordinates": [ [ [ 407737.0, 3283820.0 ], [ 407737.0, 3283819.0 ], [ 407739.0, 3283819.0 ], [ 407739.0, 3283818.0 ], [ 407740.0, 3283818.0 ], [ 407740.0, 3283820.0 ], [ 407737.0, 3283820.0 ] ] ] } },
{ "type": "Feature", "properties": { "class_id": 1, "class_name": "removal", "area_m2": 5.0 }, "geometry": { "type": "Polygon", "coordinates": [ [ [ 407748.0, 3283814.0 ], [ 407748.0, 3283813.0 ], [ 407750.0, 3283813.0 ], [ 407750.0, 3283812.0 ], [ 407752.0, 3283812.0 ], [ 407752.0, 3283813.0 ], [ 407751.0, 3283813.0 ], [ 407751.0, 3283814.0 ], [ 407748.0, 3283814.0 ] ] ] } },
{ "type": "Feature", "properties": { "class_id": 1, "class_name": "removal", "area_m2": 4.0 }, "geometry": { "type": "Polygon", "coordinates": [ [ [ 407746.0, 3283811.0 ], [ 407746.0, 3283810.0 ], [ 407750.0, 3283810.0 ], [ 407750.0, 3283811.0 ], [ 407746.0, 3283811.0 ] ] ] } },
{ "type": "Feature", "properties": { "class_id": 1, "class_name": "removal", "area_m2": 4.0 }, "geometry": { "type": "Polygon", "coordinates": [ [ [ 407743.0, 3283809.0 ], [ 407743.0, 3283807.0 ], [ 407745.0, 3283807.0 ], [ 407745.0, 3283809.0 ], [ 407743.0, 3283809.0 ] ] ] } },
{ "type": "Feature", "properties": { "class_id": 1, "class_name": "removal", "area_m2": 4.0 }, "geometry": { "type": "Polygon", "coordinates": [ [ [ 407843.0, 3283809.0 ], [ 407843.0, 3283807.0 ], [ 407844.0, 3283807.0 ], [ 407844.0, 3283806.0 ], [ 407845.0, 3283806.0 ], [ 407845.0, 3283808.0 ], [ 407844.0, 3283808.0 ], [ 407844.0, 3283809.0 ], [ 407843.0, 3283809.0 ] ] ] } },
{ "type": "Feature", "properties": { "class_id": 1, "class_name": "removal", "area_m2": 7.0 }, "geometry": { "type": "Polygon", "coordinates": [ [ [ 407942.0, 3283809.0 ], [ 407942.0, 3283807.0 ], [ 407943.0, 3283807.0 ], [ 407943.0, 3283806.0 ], [ 407942.0, 3283806.0 ], [ 407942.0, 3283804.0 ], [ 407943.0, 3283804.0 ], [ 407943.0, 3283805.0 ], [ 407944.0, 3283805.0 ], [ 407944.0, 3283808.0 ], [ 407943.0, 3283808.0 ], [ 407943.0, 3283809.0 ], [ 407942.0, 3283809.0 ] ] ] } },
{ "type": "Feature", "properties": { "class_id": 1, "class_name": "removal", "area_m2": 4.0 }, "geometry": { "type": "Polygon", "coordinates": [ [ [ 407857.0, 3283805.0 ], [ 407857.0, 3283804.0 ], [ 407858.0, 3283804.0 ], [ 407858.0, 3283803.0 ], [ 407860.0, 3283803.0 ], [ 407860.0, 3283804.0 ], [ 407859.0, 3283804.0 ], [ 407859.0, 3283805.0 ], [ 407857.0, 3283805.0 ] ] ] } },
{ "type": "Feature", "properties": { "class_id": 1, "class_name": "removal", "area_m2": 4.0 }, "geometry": { "type": "Polygon", "coordinates": [ [ [ 407707.0, 3283805.0 ], [ 407707.0, 3283801.0 ], [ 407708.0, 3283801.0 ], [ 407708.0, 3283805.0 ], [ 407707.0, 3283805.0 ] ] ] } },
{ "type": "Feature", "properties": { "class_id": 1, "class_name": "removal", "area_m2": 4.0 }, "geometry": { "type": "Polygon", "coordinates": [ [ [ 407837.0, 3283802.0 ], [ 407837.0, 3283799.0 ], [ 407839.0, 3283799.0 ], [ 407839.0, 3283800.0 ], [ 407838.0, 3283800.0 ], [ 407838.0, 3283802.0 ], [ 407837.0, 3283802.0 ] ] ] } },
{ "type": "Feature", "properties": { "class_id": 1, "class_name": "removal", "area_m2": 4.0 }, "geometry": { "type": "Polygon", "coordinates": [ [ [ 407929.0, 3283794.0 ], [ 407929.0, 3283793.0 ], [ 407933.0, 3283793.0 ], [ 407933.0, 3283794.0 ], [ 407929.0, 3283794.0 ] ] ] } },
{ "type": "Feature", "properties": { "class_id": 1, "class_name": "removal", "area_m2": 6.0 }, "geometry": { "type": "Polygon", "coordinates": [ [ [ 407926.0, 3283793.0 ], [ 407926.0, 3283790.0 ], [ 407927.0, 3283790.0 ], [ 407927.0, 3283789.0 ], [ 407928.0, 3283789.0 ], [ 407928.0, 3283792.0 ], [ 407927.0, 3283792.0 ], [ 407927.0, 3283793.0 ], [ 407926.0, 3283793.0 ] ] ] } },
{ "type": "Feature", "properties": { "class_id": 1, "class_name": "removal", "area_m2": 5.0 }, "geometry": { "type": "Polygon", "coordinates": [ [ [ 407888.0, 3283791.0 ], [ 407888.0, 3283789.0 ], [ 407890.0, 3283789.0 ], [ 407890.0, 3283788.0 ], [ 407891.0, 3283788.0 ], [ 407891.0, 3283790.0 ], [ 407889.0, 3283790.0 ], [ 407889.0, 3283791.0 ], [ 407888.0, 3283791.0 ] ] ] } },
{ "type": "Feature", "properties": { "class_id": 1, "class_name": "removal", "area_m2": 5.0 }, "geometry": { "type": "Polygon", "coordinates": [ [ [ 407922.0, 3283788.0 ], [ 407922.0, 3283787.0 ], [ 407923.0, 3283787.0 ], [ 407923.0, 3283785.0 ], [ 407924.0, 3283785.0 ], [ 407924.0, 3283787.0 ], [ 407925.0, 3283787.0 ], [ 407925.0, 3283788.0 ], [ 407922.0, 3283788.0 ] ] ] } },
{ "type": "Feature", "properties": { "class_id": 1, "class_name": "removal", "area_m2": 4.0 }, "geometry": { "type": "Polygon", "coordinates": [ [ [ 407924.0, 3283785.0 ], [ 407924.0, 3283783.0 ], [ 407923.0, 3283783.0 ], [ 407923.0, 3283782.0 ], [ 407925.0, 3283782.0 ], [ 407925.0, 3283785.0 ], [ 407924.0, 3283785.0 ] ] ] } },
{ "type": "Feature", "properties": { "class_id": 1, "class_name": "removal", "area_m2": 4.0 }, "geometry": { "type": "Polygon", "coordinates": [ [ [ 407716.0, 3283770.0 ], [ 407716.0, 3283769.0 ], [ 407720.0, 3283769.0 ], [ 407720.0, 3283770.0 ], [ 407716.0, 3283770.0 ] ] ] } },
{ "type": "Feature", "properties": { "class_id": 1, "class_name": "removal", "area_m2": 6.0 }, "geometry": { "type": "Polygon", "coordinates": [ [ [ 407883.0, 3283768.0 ], [ 407883.0, 3283767.0 ], [ 407889.0, 3283767.0 ], [ 407889.0, 3283768.0 ], [ 407883.0, 3283768.0 ] ] ] } },
{ "type": "Feature", "properties": { "class_id": 1, "class_name": "removal", "area_m2": 4.0 }, "geometry": { "type": "Polygon", "coordinates": [ [ [ 407858.0, 3283766.0 ], [ 407858.0, 3283765.0 ], [ 407859.0, 3283765.0 ], [ 407859.0, 3283764.0 ], [ 407860.0, 3283764.0 ], [ 407860.0, 3283765.0 ], [ 407861.0, 3283765.0 ], [ 407861.0, 3283766.0 ], [ 407858.0, 3283766.0 ] ] ] } },
{ "type": "Feature", "properties": { "class_id": 1, "class_name": "removal", "area_m2": 4.0 }, "geometry": { "type": "Polygon", "coordinates": [ [ [ 407700.0, 3283758.0 ], [ 407700.0, 3283755.0 ], [ 407701.0, 3283755.0 ], [ 407701.0, 3283756.0 ], [ 407702.0, 3283756.0 ], [ 407702.0, 3283757.0 ], [ 407701.0, 3283757.0 ], [ 407701.0, 3283758.0 ], [ 407700.0, 3283758.0 ] ] ] } },
{ "type": "Feature", "properties": { "class_id": 1, "class_name": "removal", "area_m2": 4.0 }, "geometry": { "type": "Polygon", "coordinates": [ [ [ 407870.0, 3283757.0 ], [ 407870.0, 3283755.0 ], [ 407872.0, 3283755.0 ], [ 407872.0, 3283757.0 ], [ 407870.0, 3283757.0 ] ] ] } },
{ "type": "Feature", "properties": { "class_id": 1, "class_name": "removal", "area_m2": 4.0 }, "geometry": { "type": "Polygon", "coordinates": [ [ [ 407907.0, 3283754.0 ], [ 407907.0, 3283752.0 ], [ 407909.0, 3283752.0 ], [ 407909.0, 3283754.0 ], [ 407907.0, 3283754.0 ] ] ] } },
{ "type": "Feature", "properties": { "class_id": 1, "class_name": "removal", "area_m2": 4.0 }, "geometry": { "type": "Polygon", "coordinates": [ [ [ 407867.0, 3283754.0 ], [ 407867.0, 3283753.0 ], [ 407866.0, 3283753.0 ], [ 407866.0, 3283751.0 ], [ 407867.0, 3283751.0 ], [ 407867.0, 3283752.0 ], [ 407868.0, 3283752.0 ], [ 407868.0, 3283754.0 ], [ 407867.0, 3283754.0 ] ] ] } },
{ "type": "Feature", "properties": { "class_id": 1, "class_name": "removal", "area_m2": 4.0 }, "geometry": { "type": "Polygon", "coordinates": [ [ [ 407848.0, 3283752.0 ], [ 407848.0, 3283751.0 ], [ 407849.0, 3283751.0 ], [ 407849.0, 3283750.0 ], [ 407850.0, 3283750.0 ], [ 407850.0, 3283751.0 ], [ 407851.0, 3283751.0 ], [ 407851.0, 3283752.0 ], [ 407848.0, 3283752.0 ] ] ] } }
]
}
