{
"type": "FeatureCollection",
"name": "fire_hotspots_osbs_live",
"crs": { "type": "name", "properties": { "name": "urn:ogc:def:crs:OGC:1.3:CRS84" } },
"features": [
{ "type": "Feature", "properties": { "hotspot_id": 1, "latitude": 29.27543, "longitude": -81.99432, "brightness_k": 335.41, "confidence": "n", "frp_mw": 2.37, "acq_date": "2026-08-18", "acq_time_utc": "1908", "satellite": "N", "daynight": "D" }, "geometry": { "type": "Point", "coordinates": [ -81.99432, 29.27543 ] } },
{ "type": "Feature", "properties": { "hotspot_id": 2, "latitude": 29.58222, "longitude": -81.5254, "brightness_k": 349.05, "confidence": "n", "frp_mw": 25.25, "acq_date": "2026-08-18", "acq_time_utc": "1908", "satellite": "N", "daynight": "D" }, "geometry": { "type": "Point", "coordinates": [ -81.5254, 29.58222 ] } },
{ "type": "Feature", "properties": { "hotspot_id": 3, "latitude": 29.5864, "longitude": -81.52597, "brightness_k": 349.26, "confidence": "n", "frp_mw": 25.25, "acq_date": "2026-08-18", "acq_time_utc": "1908", "satellite": "N", "daynight": "D" }, "geometry": { "type": "Point", "coordinates": [ -81.52597, 29.5864 ] } },
{ "type": "Feature", "properties": { "hotspot_id": 4, "latitude": 29.21601, "longitude": -82.18132, "brightness_k": 330.5, "confidence": "l", "frp_mw": 2.06, "acq_date": "2026-08-19", "acq_time_utc": "1847", "satellite": "N", "daynight": "D" }, "geometry": { "type": "Point", "coordinates": [ -82.18132, 29.21601 ] } },
{ "type": "Feature", "properties": { "hotspot_id": 5, "latitude": 29.32874, "longitude": -82.07999, "brightness_k": 335.71, "confidence": "n", "frp_mw": 2.92, "acq_date": "2026-08-19", "acq_time_utc": "1847", "satellite": "N", "daynight": "D" }, "geometry": { "type": "Point", "coordinates": [ -82.07999, 29.32874 ] } },
{ "type": "Feature", "properties": { "hotspot_id": 6, "latitude": 29.95791, "longitude": -82.37028, "brightness_k": 332.43, "confidence": "n", "frp_mw": 2.07, "acq_date": "2026-08-19", "acq_time_utc": "1847", "satellite": "N", "daynight": "D" }, "geometry": { "type": "Point", "coordinates": [ -82.37028, 29.95791 ] } },
{ "type": "Feature", "properties": { "hotspot_id": 7, "latitude": 29.27532, "longitude": -82.18404, "brightness_k": 309.3, "confidence": "n", "frp_mw": 1.59, "acq_date": "2026-08-20", "acq_time_utc": "0712", "satellite": "N", "daynight": "N" }, "geometry": { "type": "Point", "coordinates": [ -82.18404, 29.27532 ] } },
{ "type": "Feature", "properties": { "hotspot_id": 8, "latitude": 30.03199, "longitude": -82.486, "brightness_k": 303.37, "confidence": "n", "frp_mw": 0.52, "acq_date": "2026-08-20", "acq_time_utc": "0712", "satellite": "N", "daynight": "N" }, "geometry": { "type": "Point", "coordinates": [ -82.486, 30.03199 ] } },
{ "type": "Feature", "properties": { "hotspot_id": 9, "latitude": 29.23328, "longitude": -82.43666, "brightness_k": 330.63, "confidence": "n", "frp_mw": 4.65, "acq_date": "2026-08-20", "acq_time_utc": "1830", "satellite": "N", "daynight": "D" }, "geometry": { "type": "Point", "coordinates": [ -82.43666, 29.23328 ] } },
{ "type": "Feature", "properties": { "hotspot_id": 10, "latitude": 29.23358, "longitude": -82.4388, "brightness_k": 334.65, "confidence": "n", "frp_mw": 4.16, "acq_date": "2026-08-20", "acq_time_utc": "1830", "satellite": "N", "daynight": "D" }, "geometry": { "type": "Point", "coordinates": [ -82.4388, 29.23358 ] } },
{ "type": "Feature", "properties": { "hotspot_id": 11, "latitude": 29.3315, "longitude": -82.08031, "brightness_k": 333.14, "confidence": "n", "frp_mw": 2.64, "acq_date": "2026-08-20", "acq_time_utc": "1830", "satellite": "N", "daynight": "D" }, "geometry": { "type": "Point", "coordinates": [ -82.08031, 29.3315 ] } },
{ "type": "Feature", "properties": { "hotspot_id": 12, "latitude": 29.42959, "longitude": -82.35712, "brightness_k": 299.29, "confidence": "n", "frp_mw": 0.44, "acq_date": "2026-08-21", "acq_time_utc": "0654", "satellite": "N", "daynight": "N" }, "geometry": { "type": "Point", "coordinates": [ -82.35712, 29.42959 ] } },
{ "type": "Feature", "properties": { "hotspot_id": 13, "latitude": 29.77057, "longitude": -82.01516, "brightness_k": 333.44, "confidence": "n", "frp_mw": 6.48, "acq_date": "2026-08-21", "acq_time_utc": "1811", "satellite": "N", "daynight": "D" }, "geometry": { "type": "Point", "coordinates": [ -82.01516, 29.77057 ] } },
{ "type": "Feature", "properties": { "hotspot_id": 14, "latitude": 29.76806, "longitude": -82.01309, "brightness_k": 329.73, "confidence": "n", "frp_mw": 4.95, "acq_date": "2026-08-22", "acq_time_utc": "1932", "satellite": "N", "daynight": "D" }, "geometry": { "type": "Point", "coordinates": [ -82.01309, 29.76806 ] } },
{ "type": "Feature", "properties": { "hotspot_id": 15, "latitude": 29.771, "longitude": -82.0137, "brightness_k": 327.12, "confidence": "n", "frp_mw": 3.18, "acq_date": "2026-08-22", "acq_time_utc": "1932", "satellite": "N", "daynight": "D" }, "geometry": { "type": "Point", "coordinates": [ -82.0137, 29.771 ] } }
]
}
