{
"type": "FeatureCollection",
"name": "forest_health_grid",
"crs": { "type": "name", "properties": { "name": "urn:ogc:def:crs:EPSG::32617" } },
"features": [
{ "type": "Feature", "properties": { "cell_id": "r0c0", "health_score": 26.1, "grade": "D", "canopy_cover": 0.442, "height_std_m": 2.51, "loss_density": 0.008 }, "geometry": { "type": "Polygon", "coordinates": [ [ [ 407725.0, 3283975.0 ], [ 407725.0, 3284000.0 ], [ 407700.0, 3284000.0 ], [ 407700.0, 3283975.0 ], [ 407725.0, 3283975.0 ] ] ] } },
{ "type": "Feature", "properties": { "cell_id": "r0c1", "health_score": 67.2, "grade": "B", "canopy_cover": 0.848, "height_std_m": 2.7, "loss_density": 0.0016 }, "geometry": { "type": "Polygon", "coordinates": [ [ [ 407750.0, 3283975.0 ], [ 407750.0, 3284000.0 ], [ 407725.0, 3284000.0 ], [ 407725.0, 3283975.0 ], [ 407750.0, 3283975.0 ] ] ] } },
{ "type": "Feature", "properties": { "cell_id": "r0c2", "health_score": 67.3, "grade": "B", "canopy_cover": 0.867, "height_std_m": 3.12, "loss_density": 0.0032 }, "geometry": { "type": "Polygon", "coordinates": [ [ [ 407775.0, 3283975.0 ], [ 407775.0, 3284000.0 ], [ 407750.0, 3284000.0 ], [ 407750.0, 3283975.0 ], [ 407775.0, 3283975.0 ] ] ] } },
{ "type": "Feature", "properties": { "cell_id": "r0c3", "health_score": 67.0, "grade": "B", "canopy_cover": 0.925, "height_std_m": 2.82, "loss_density": 0.0032 }, "geometry": { "type": "Polygon", "coordinates": [ [ [ 407800.0, 3283975.0 ], [ 407800.0, 3284000.0 ], [ 407775.0, 3284000.0 ], [ 407775.0, 3283975.0 ], [ 407800.0, 3283975.0 ] ] ] } },
{ "type": "Feature", "properties": { "cell_id": "r0c4", "health_score": 87.6, "grade": "A", "canopy_cover": 0.982, "height_std_m": 3.61, "loss_density": 0.0 }, "geometry": { "type": "Polygon", "coordinates": [ [ [ 407825.0, 3283975.0 ], [ 407825.0, 3284000.0 ], [ 407800.0, 3284000.0 ], [ 407800.0, 3283975.0 ], [ 407825.0, 3283975.0 ] ] ] } },
{ "type": "Feature", "properties": { "cell_id": "r0c5", "health_score": 77.7, "grade": "B", "canopy_cover": 0.952, "height_std_m": 3.26, "loss_density": 0.0016 }, "geometry": { "type": "Polygon", "coordinates": [ [ [ 407850.0, 3283975.0 ], [ 407850.0, 3284000.0 ], [ 407825.0, 3284000.0 ], [ 407825.0, 3283975.0 ], [ 407850.0, 3283975.0 ] ] ] } },
{ "type": "Feature", "properties": { "cell_id": "r0c6", "health_score": 66.0, "grade": "B", "canopy_cover": 0.973, "height_std_m": 3.49, "loss_density": 0.0064 }, "geometry": { "type": "Polygon", "coordinates": [ [ [ 407875.0, 3283975.0 ], [ 407875.0, 3284000.0 ], [ 407850.0, 3284000.0 ], [ 407850.0, 3283975.0 ], [ 407875.0, 3283975.0 ] ] ] } },
{ "type": "Feature", "properties": { "cell_id": "r0c7", "health_score": 70.0, "grade": "B", "canopy_cover": 0.995, "height_std_m": 1.47, "loss_density": 0.0 }, "geometry": { "type": "Polygon", "coordinates": [ [ [ 407900.0, 3283975.0 ], [ 407900.0, 3284000.0 ], [ 407875.0, 3284000.0 ], [ 407875.0, 3283975.0 ], [ 407900.0, 3283975.0 ] ] ] } },
{ "type": "Feature", "properties": { "cell_id": "r0c8", "health_score": 47.2, "grade": "D", "canopy_cover": 0.44, "height_std_m": 3.62, "loss_density": 0.0048 }, "geometry": { "type": "Polygon", "coordinates": [ [ [ 407925.0, 3283975.0 ], [ 407925.0, 3284000.0 ], [ 407900.0, 3284000.0 ], [ 407900.0, 3283975.0 ], [ 407925.0, 3283975.0 ] ] ] } },
{ "type": "Feature", "properties": { "cell_id": "r0c9", "health_score": 40.0, "grade": "D", "canopy_cover": 0.032, "height_std_m": 1.07, "loss_density": 0.0 }, "geometry": { "type": "Polygon", "coordinates": [ [ [ 407950.0, 3283975.0 ], [ 407950.0, 3284000.0 ], [ 407925.0, 3284000.0 ], [ 407925.0, 3283975.0 ], [ 407950.0, 3283975.0 ] ] ] } },
{ "type": "Feature", "properties": { "cell_id": "r1c0", "health_score": 33.3, "grade": "D", "canopy_cover": 0.834, "height_std_m": 2.88, "loss_density": 0.0176 }, "geometry": { "type": "Polygon", "coordinates": [ [ [ 407725.0, 3283950.0 ], [ 407725.0, 3283975.0 ], [ 407700.0, 3283975.0 ], [ 407700.0, 3283950.0 ], [ 407725.0, 3283950.0 ] ] ] } },
{ "type": "Feature", "properties": { "cell_id": "r1c1", "health_score": 49.7, "grade": "D", "canopy_cover": 0.971, "height_std_m": 1.88, "loss_density": 0.0064 }, "geometry": { "type": "Polygon", "coordinates": [ [ [ 407750.0, 3283950.0 ], [ 407750.0, 3283975.0 ], [ 407725.0, 3283975.0 ], [ 407725.0, 3283950.0 ], [ 407750.0, 3283950.0 ] ] ] } },
{ "type": "Feature", "properties": { "cell_id": "r1c2", "health_score": 53.8, "grade": "C", "canopy_cover": 0.886, "height_std_m": 2.18, "loss_density": 0.0048 }, "geometry": { "type": "Polygon", "coordinates": [ [ [ 407775.0, 3283950.0 ], [ 407775.0, 3283975.0 ], [ 407750.0, 3283975.0 ], [ 407750.0, 3283950.0 ], [ 407775.0, 3283950.0 ] ] ] } },
{ "type": "Feature", "properties": { "cell_id": "r1c3", "health_score": 67.0, "grade": "B", "canopy_cover": 0.962, "height_std_m": 2.15, "loss_density": 0.0016 }, "geometry": { "type": "Polygon", "coordinates": [ [ [ 407800.0, 3283950.0 ], [ 407800.0, 3283975.0 ], [ 407775.0, 3283975.0 ], [ 407775.0, 3283950.0 ], [ 407800.0, 3283950.0 ] ] ] } },
{ "type": "Feature", "properties": { "cell_id": "r1c4", "health_score": 68.0, "grade": "B", "canopy_cover": 0.918, "height_std_m": 2.95, "loss_density": 0.0032 }, "geometry": { "type": "Polygon", "coordinates": [ [ [ 407825.0, 3283950.0 ], [ 407825.0, 3283975.0 ], [ 407800.0, 3283975.0 ], [ 407800.0, 3283950.0 ], [ 407825.0, 3283950.0 ] ] ] } },
{ "type": "Feature", "properties": { "cell_id": "r1c5", "health_score": 42.5, "grade": "D", "canopy_cover": 0.906, "height_std_m": 2.46, "loss_density": 0.0096 }, "geometry": { "type": "Polygon", "coordinates": [ [ [ 407850.0, 3283950.0 ], [ 407850.0, 3283975.0 ], [ 407825.0, 3283975.0 ], [ 407825.0, 3283950.0 ], [ 407850.0, 3283950.0 ] ] ] } },
{ "type": "Feature", "properties": { "cell_id": "r1c6", "health_score": 74.4, "grade": "B", "canopy_cover": 0.965, "height_std_m": 2.87, "loss_density": 0.0016 }, "geometry": { "type": "Polygon", "coordinates": [ [ [ 407875.0, 3283950.0 ], [ 407875.0, 3283975.0 ], [ 407850.0, 3283975.0 ], [ 407850.0, 3283950.0 ], [ 407875.0, 3283950.0 ] ] ] } },
{ "type": "Feature", "properties": { "cell_id": "r1c7", "health_score": 65.9, "grade": "B", "canopy_cover": 0.99, "height_std_m": 1.9, "loss_density": 0.0016 }, "geometry": { "type": "Polygon", "coordinates": [ [ [ 407900.0, 3283950.0 ], [ 407900.0, 3283975.0 ], [ 407875.0, 3283975.0 ], [ 407875.0, 3283950.0 ], [ 407900.0, 3283950.0 ] ] ] } },
{ "type": "Feature", "properties": { "cell_id": "r1c8", "health_score": 65.8, "grade": "B", "canopy_cover": 0.602, "height_std_m": 3.23, "loss_density": 0.0 }, "geometry": { "type": "Polygon", "coordinates": [ [ [ 407925.0, 3283950.0 ], [ 407925.0, 3283975.0 ], [ 407900.0, 3283975.0 ], [ 407900.0, 3283950.0 ], [ 407925.0, 3283950.0 ] ] ] } },
{ "type": "Feature", "properties": { "cell_id": "r1c9", "health_score": 40.0, "grade": "D", "canopy_cover": 0.0, "height_std_m": 0.0, "loss_density": 0.0 }, "geometry": { "type": "Polygon", "coordinates": [ [ [ 407950.0, 3283950.0 ], [ 407950.0, 3283975.0 ], [ 407925.0, 3283975.0 ], [ 407925.0, 3283950.0 ], [ 407950.0, 3283950.0 ] ] ] } },
{ "type": "Feature", "properties": { "cell_id": "r2c0", "health_score": 64.0, "grade": "C", "canopy_cover": 0.768, "height_std_m": 3.26, "loss_density": 0.0032 }, "geometry": { "type": "Polygon", "coordinates": [ [ [ 407725.0, 3283925.0 ], [ 407725.0, 3283950.0 ], [ 407700.0, 3283950.0 ], [ 407700.0, 3283925.0 ], [ 407725.0, 3283925.0 ] ] ] } },
{ "type": "Feature", "properties": { "cell_id": "r2c1", "health_score": 71.7, "grade": "B", "canopy_cover": 0.923, "height_std_m": 3.29, "loss_density": 0.0032 }, "geometry": { "type": "Polygon", "coordinates": [ [ [ 407750.0, 3283925.0 ], [ 407750.0, 3283950.0 ], [ 407725.0, 3283950.0 ], [ 407725.0, 3283925.0 ], [ 407750.0, 3283925.0 ] ] ] } },
{ "type": "Feature", "properties": { "cell_id": "r2c2", "health_score": 62.5, "grade": "C", "canopy_cover": 0.674, "height_std_m": 3.55, "loss_density": 0.0032 }, "geometry": { "type": "Polygon", "coordinates": [ [ [ 407775.0, 3283925.0 ], [ 407775.0, 3283950.0 ], [ 407750.0, 3283950.0 ], [ 407750.0, 3283925.0 ], [ 407775.0, 3283925.0 ] ] ] } },
{ "type": "Feature", "properties": { "cell_id": "r2c3", "health_score": 29.4, "grade": "D", "canopy_cover": 0.762, "height_std_m": 2.83, "loss_density": 0.0128 }, "geometry": { "type": "Polygon", "coordinates": [ [ [ 407800.0, 3283925.0 ], [ 407800.0, 3283950.0 ], [ 407775.0, 3283950.0 ], [ 407775.0, 3283925.0 ], [ 407800.0, 3283925.0 ] ] ] } },
{ "type": "Feature", "properties": { "cell_id": "r2c4", "health_score": 64.1, "grade": "C", "canopy_cover": 0.856, "height_std_m": 2.86, "loss_density": 0.0032 }, "geometry": { "type": "Polygon", "coordinates": [ [ [ 407825.0, 3283925.0 ], [ 407825.0, 3283950.0 ], [ 407800.0, 3283950.0 ], [ 407800.0, 3283925.0 ], [ 407825.0, 3283925.0 ] ] ] } },
{ "type": "Feature", "properties": { "cell_id": "r2c5", "health_score": 65.0, "grade": "B", "canopy_cover": 0.992, "height_std_m": 1.82, "loss_density": 0.0016 }, "geometry": { "type": "Polygon", "coordinates": [ [ [ 407850.0, 3283925.0 ], [ 407850.0, 3283950.0 ], [ 407825.0, 3283950.0 ], [ 407825.0, 3283925.0 ], [ 407850.0, 3283925.0 ] ] ] } },
{ "type": "Feature", "properties": { "cell_id": "r2c6", "health_score": 72.3, "grade": "B", "canopy_cover": 0.978, "height_std_m": 2.1, "loss_density": 0.0 }, "geometry": { "type": "Polygon", "coordinates": [ [ [ 407875.0, 3283925.0 ], [ 407875.0, 3283950.0 ], [ 407850.0, 3283950.0 ], [ 407850.0, 3283925.0 ], [ 407875.0, 3283925.0 ] ] ] } },
{ "type": "Feature", "properties": { "cell_id": "r2c7", "health_score": 73.3, "grade": "B", "canopy_cover": 0.974, "height_std_m": 2.72, "loss_density": 0.0016 }, "geometry": { "type": "Polygon", "coordinates": [ [ [ 407900.0, 3283925.0 ], [ 407900.0, 3283950.0 ], [ 407875.0, 3283950.0 ], [ 407875.0, 3283925.0 ], [ 407900.0, 3283925.0 ] ] ] } },
{ "type": "Feature", "properties": { "cell_id": "r2c8", "health_score": 75.7, "grade": "B", "canopy_cover": 0.685, "height_std_m": 3.81, "loss_density": 0.0 }, "geometry": { "type": "Polygon", "coordinates": [ [ [ 407925.0, 3283925.0 ], [ 407925.0, 3283950.0 ], [ 407900.0, 3283950.0 ], [ 407900.0, 3283925.0 ], [ 407925.0, 3283925.0 ] ] ] } },
{ "type": "Feature", "properties": { "cell_id": "r2c9", "health_score": 70.0, "grade": "B", "canopy_cover": 0.043, "height_std_m": 5.06, "loss_density": 0.0 }, "geometry": { "type": "Polygon", "coordinates": [ [ [ 407950.0, 3283925.0 ], [ 407950.0, 3283950.0 ], [ 407925.0, 3283950.0 ], [ 407925.0, 3283925.0 ], [ 407950.0, 3283925.0 ] ] ] } },
{ "type": "Feature", "properties": { "cell_id": "r3c0", "health_score": 52.0, "grade": "C", "canopy_cover": 0.794, "height_std_m": 3.44, "loss_density": 0.008 }, "geometry": { "type": "Polygon", "coordinates": [ [ [ 407725.0, 3283900.0 ], [ 407725.0, 3283925.0 ], [ 407700.0, 3283925.0 ], [ 407700.0, 3283900.0 ], [ 407725.0, 3283900.0 ] ] ] } },
{ "type": "Feature", "properties": { "cell_id": "r3c1", "health_score": 69.9, "grade": "B", "canopy_cover": 0.784, "height_std_m": 4.27, "loss_density": 0.0048 }, "geometry": { "type": "Polygon", "coordinates": [ [ [ 407750.0, 3283900.0 ], [ 407750.0, 3283925.0 ], [ 407725.0, 3283925.0 ], [ 407725.0, 3283900.0 ], [ 407750.0, 3283900.0 ] ] ] } },
{ "type": "Feature", "properties": { "cell_id": "r3c2", "health_score": 72.2, "grade": "B", "canopy_cover": 0.933, "height_std_m": 2.81, "loss_density": 0.0016 }, "geometry": { "type": "Polygon", "coordinates": [ [ [ 407775.0, 3283900.0 ], [ 407775.0, 3283925.0 ], [ 407750.0, 3283925.0 ], [ 407750.0, 3283900.0 ], [ 407775.0, 3283900.0 ] ] ] } },
{ "type": "Feature", "properties": { "cell_id": "r3c3", "health_score": 72.6, "grade": "B", "canopy_cover": 0.662, "height_std_m": 4.12, "loss_density": 0.0016 }, "geometry": { "type": "Polygon", "coordinates": [ [ [ 407800.0, 3283900.0 ], [ 407800.0, 3283925.0 ], [ 407775.0, 3283925.0 ], [ 407775.0, 3283900.0 ], [ 407800.0, 3283900.0 ] ] ] } },
{ "type": "Feature", "properties": { "cell_id": "r3c4", "health_score": 61.8, "grade": "C", "canopy_cover": 0.728, "height_std_m": 3.73, "loss_density": 0.0048 }, "geometry": { "type": "Polygon", "coordinates": [ [ [ 407825.0, 3283900.0 ], [ 407825.0, 3283925.0 ], [ 407800.0, 3283925.0 ], [ 407800.0, 3283900.0 ], [ 407825.0, 3283900.0 ] ] ] } },
{ "type": "Feature", "properties": { "cell_id": "r3c5", "health_score": 36.6, "grade": "D", "canopy_cover": 0.894, "height_std_m": 2.93, "loss_density": 0.0144 }, "geometry": { "type": "Polygon", "coordinates": [ [ [ 407850.0, 3283900.0 ], [ 407850.0, 3283925.0 ], [ 407825.0, 3283925.0 ], [ 407825.0, 3283900.0 ], [ 407850.0, 3283900.0 ] ] ] } },
{ "type": "Feature", "properties": { "cell_id": "r3c6", "health_score": 71.0, "grade": "B", "canopy_cover": 1.0, "height_std_m": 1.91, "loss_density": 0.0 }, "geometry": { "type": "Polygon", "coordinates": [ [ [ 407875.0, 3283900.0 ], [ 407875.0, 3283925.0 ], [ 407850.0, 3283925.0 ], [ 407850.0, 3283900.0 ], [ 407875.0, 3283900.0 ] ] ] } },
{ "type": "Feature", "properties": { "cell_id": "r3c7", "health_score": 65.8, "grade": "B", "canopy_cover": 0.997, "height_std_m": 1.89, "loss_density": 0.0016 }, "geometry": { "type": "Polygon", "coordinates": [ [ [ 407900.0, 3283900.0 ], [ 407900.0, 3283925.0 ], [ 407875.0, 3283925.0 ], [ 407875.0, 3283900.0 ], [ 407900.0, 3283900.0 ] ] ] } },
{ "type": "Feature", "properties": { "cell_id": "r3c8", "health_score": 76.0, "grade": "B", "canopy_cover": 0.834, "height_std_m": 3.15, "loss_density": 0.0 }, "geometry": { "type": "Polygon", "coordinates": [ [ [ 407925.0, 3283900.0 ], [ 407925.0, 3283925.0 ], [ 407900.0, 3283925.0 ], [ 407900.0, 3283900.0 ], [ 407925.0, 3283900.0 ] ] ] } },
{ "type": "Feature", "properties": { "cell_id": "r3c9", "health_score": 59.9, "grade": "C", "canopy_cover": 0.106, "height_std_m": 3.8, "loss_density": 0.0 }, "geometry": { "type": "Polygon", "coordinates": [ [ [ 407950.0, 3283900.0 ], [ 407950.0, 3283925.0 ], [ 407925.0, 3283925.0 ], [ 407925.0, 3283900.0 ], [ 407950.0, 3283900.0 ] ] ] } },
{ "type": "Feature", "properties": { "cell_id": "r4c0", "health_score": 36.3, "grade": "D", "canopy_cover": 0.75, "height_std_m": 3.57, "loss_density": 0.0128 }, "geometry": { "type": "Polygon", "coordinates": [ [ [ 407725.0, 3283875.0 ], [ 407725.0, 3283900.0 ], [ 407700.0, 3283900.0 ], [ 407700.0, 3283875.0 ], [ 407725.0, 3283875.0 ] ] ] } },
{ "type": "Feature", "properties": { "cell_id": "r4c1", "health_score": 59.7, "grade": "C", "canopy_cover": 0.867, "height_std_m": 3.36, "loss_density": 0.0064 }, "geometry": { "type": "Polygon", "coordinates": [ [ [ 407750.0, 3283875.0 ], [ 407750.0, 3283900.0 ], [ 407725.0, 3283900.0 ], [ 407725.0, 3283875.0 ], [ 407750.0, 3283875.0 ] ] ] } },
{ "type": "Feature", "properties": { "cell_id": "r4c2", "health_score": 75.2, "grade": "B", "canopy_cover": 0.942, "height_std_m": 3.06, "loss_density": 0.0016 }, "geometry": { "type": "Polygon", "coordinates": [ [ [ 407775.0, 3283875.0 ], [ 407775.0, 3283900.0 ], [ 407750.0, 3283900.0 ], [ 407750.0, 3283875.0 ], [ 407775.0, 3283875.0 ] ] ] } },
{ "type": "Feature", "properties": { "cell_id": "r4c3", "health_score": 65.0, "grade": "B", "canopy_cover": 0.354, "height_std_m": 6.6, "loss_density": 0.0016 }, "geometry": { "type": "Polygon", "coordinates": [ [ [ 407800.0, 3283875.0 ], [ 407800.0, 3283900.0 ], [ 407775.0, 3283900.0 ], [ 407775.0, 3283875.0 ], [ 407800.0, 3283875.0 ] ] ] } },
{ "type": "Feature", "properties": { "cell_id": "r4c4", "health_score": 75.2, "grade": "B", "canopy_cover": 0.803, "height_std_m": 4.21, "loss_density": 0.0032 }, "geometry": { "type": "Polygon", "coordinates": [ [ [ 407825.0, 3283875.0 ], [ 407825.0, 3283900.0 ], [ 407800.0, 3283900.0 ], [ 407800.0, 3283875.0 ], [ 407825.0, 3283875.0 ] ] ] } },
{ "type": "Feature", "properties": { "cell_id": "r4c5", "health_score": 61.7, "grade": "C", "canopy_cover": 0.989, "height_std_m": 2.49, "loss_density": 0.0048 }, "geometry": { "type": "Polygon", "coordinates": [ [ [ 407850.0, 3283875.0 ], [ 407850.0, 3283900.0 ], [ 407825.0, 3283900.0 ], [ 407825.0, 3283875.0 ], [ 407850.0, 3283875.0 ] ] ] } },
{ "type": "Feature", "properties": { "cell_id": "r4c6", "health_score": 71.2, "grade": "B", "canopy_cover": 0.973, "height_std_m": 2.52, "loss_density": 0.0016 }, "geometry": { "type": "Polygon", "coordinates": [ [ [ 407875.0, 3283875.0 ], [ 407875.0, 3283900.0 ], [ 407850.0, 3283900.0 ], [ 407850.0, 3283875.0 ], [ 407875.0, 3283875.0 ] ] ] } },
{ "type": "Feature", "properties": { "cell_id": "r4c7", "health_score": 80.2, "grade": "A", "canopy_cover": 0.958, "height_std_m": 2.98, "loss_density": 0.0 }, "geometry": { "type": "Polygon", "coordinates": [ [ [ 407900.0, 3283875.0 ], [ 407900.0, 3283900.0 ], [ 407875.0, 3283900.0 ], [ 407875.0, 3283875.0 ], [ 407900.0, 3283875.0 ] ] ] } },
{ "type": "Feature", "properties": { "cell_id": "r4c8", "health_score": 70.3, "grade": "B", "canopy_cover": 0.778, "height_std_m": 2.84, "loss_density": 0.0 }, "geometry": { "type": "Polygon", "coordinates": [ [ [ 407925.0, 3283875.0 ], [ 407925.0, 3283900.0 ], [ 407900.0, 3283900.0 ], [ 407900.0, 3283875.0 ], [ 407925.0, 3283875.0 ] ] ] } },
{ "type": "Feature", "properties": { "cell_id": "r4c9", "health_score": 51.8, "grade": "C", "canopy_cover": 0.354, "height_std_m": 2.99, "loss_density": 0.0 }, "geometry": { "type": "Polygon", "coordinates": [ [ [ 407950.0, 3283875.0 ], [ 407950.0, 3283900.0 ], [ 407925.0, 3283900.0 ], [ 407925.0, 3283875.0 ], [ 407950.0, 3283875.0 ] ] ] } },
{ "type": "Feature", "properties": { "cell_id": "r5c0", "health_score": 68.5, "grade": "B", "canopy_cover": 0.581, "height_std_m": 4.59, "loss_density": 0.0032 }, "geometry": { "type": "Polygon", "coordinates": [ [ [ 407725.0, 3283850.0 ], [ 407725.0, 3283875.0 ], [ 407700.0, 3283875.0 ], [ 407700.0, 3283850.0 ], [ 407725.0, 3283850.0 ] ] ] } },
{ "type": "Feature", "properties": { "cell_id": "r5c1", "health_score": 48.7, "grade": "D", "canopy_cover": 0.933, "height_std_m": 2.46, "loss_density": 0.008 }, "geometry": { "type": "Polygon", "coordinates": [ [ [ 407750.0, 3283850.0 ], [ 407750.0, 3283875.0 ], [ 407725.0, 3283875.0 ], [ 407725.0, 3283850.0 ], [ 407750.0, 3283850.0 ] ] ] } },
{ "type": "Feature", "properties": { "cell_id": "r5c2", "health_score": 74.4, "grade": "B", "canopy_cover": 0.962, "height_std_m": 2.89, "loss_density": 0.0016 }, "geometry": { "type": "Polygon", "coordinates": [ [ [ 407775.0, 3283850.0 ], [ 407775.0, 3283875.0 ], [ 407750.0, 3283875.0 ], [ 407750.0, 3283850.0 ], [ 407775.0, 3283850.0 ] ] ] } },
{ "type": "Feature", "properties": { "cell_id": "r5c3", "health_score": 81.7, "grade": "A", "canopy_cover": 0.71, "height_std_m": 4.79, "loss_density": 0.0016 }, "geometry": { "type": "Polygon", "coordinates": [ [ [ 407800.0, 3283850.0 ], [ 407800.0, 3283875.0 ], [ 407775.0, 3283875.0 ], [ 407775.0, 3283850.0 ], [ 407800.0, 3283850.0 ] ] ] } },
{ "type": "Feature", "properties": { "cell_id": "r5c4", "health_score": 47.9, "grade": "D", "canopy_cover": 0.627, "height_std_m": 5.23, "loss_density": 0.0112 }, "geometry": { "type": "Polygon", "coordinates": [ [ [ 407825.0, 3283850.0 ], [ 407825.0, 3283875.0 ], [ 407800.0, 3283875.0 ], [ 407800.0, 3283850.0 ], [ 407825.0, 3283850.0 ] ] ] } },
{ "type": "Feature", "properties": { "cell_id": "r5c5", "health_score": 60.8, "grade": "C", "canopy_cover": 0.901, "height_std_m": 5.67, "loss_density": 0.0112 }, "geometry": { "type": "Polygon", "coordinates": [ [ [ 407850.0, 3283850.0 ], [ 407850.0, 3283875.0 ], [ 407825.0, 3283875.0 ], [ 407825.0, 3283850.0 ], [ 407850.0, 3283850.0 ] ] ] } },
{ "type": "Feature", "properties": { "cell_id": "r5c6", "health_score": 82.7, "grade": "A", "canopy_cover": 0.918, "height_std_m": 4.42, "loss_density": 0.0032 }, "geometry": { "type": "Polygon", "coordinates": [ [ [ 407875.0, 3283850.0 ], [ 407875.0, 3283875.0 ], [ 407850.0, 3283875.0 ], [ 407850.0, 3283850.0 ], [ 407875.0, 3283850.0 ] ] ] } },
{ "type": "Feature", "properties": { "cell_id": "r5c7", "health_score": 82.3, "grade": "A", "canopy_cover": 0.986, "height_std_m": 3.07, "loss_density": 0.0 }, "geometry": { "type": "Polygon", "coordinates": [ [ [ 407900.0, 3283850.0 ], [ 407900.0, 3283875.0 ], [ 407875.0, 3283875.0 ], [ 407875.0, 3283850.0 ], [ 407900.0, 3283850.0 ] ] ] } },
{ "type": "Feature", "properties": { "cell_id": "r5c8", "health_score": 68.0, "grade": "B", "canopy_cover": 0.922, "height_std_m": 2.43, "loss_density": 0.0016 }, "geometry": { "type": "Polygon", "coordinates": [ [ [ 407925.0, 3283850.0 ], [ 407925.0, 3283875.0 ], [ 407900.0, 3283875.0 ], [ 407900.0, 3283850.0 ], [ 407925.0, 3283850.0 ] ] ] } },
{ "type": "Feature", "properties": { "cell_id": "r5c9", "health_score": 53.8, "grade": "C", "canopy_cover": 0.531, "height_std_m": 2.35, "loss_density": 0.0 }, "geometry": { "type": "Polygon", "coordinates": [ [ [ 407950.0, 3283850.0 ], [ 407950.0, 3283875.0 ], [ 407925.0, 3283875.0 ], [ 407925.0, 3283850.0 ], [ 407950.0, 3283850.0 ] ] ] } },
{ "type": "Feature", "properties": { "cell_id": "r6c0", "health_score": 68.3, "grade": "B", "canopy_cover": 0.541, "height_std_m": 4.75, "loss_density": 0.0032 }, "geometry": { "type": "Polygon", "coordinates": [ [ [ 407725.0, 3283825.0 ], [ 407725.0, 3283850.0 ], [ 407700.0, 3283850.0 ], [ 407700.0, 3283825.0 ], [ 407725.0, 3283825.0 ] ] ] } },
{ "type": "Feature", "properties": { "cell_id": "r6c1", "health_score": 26.9, "grade": "D", "canopy_cover": 0.746, "height_std_m": 2.66, "loss_density": 0.0256 }, "geometry": { "type": "Polygon", "coordinates": [ [ [ 407750.0, 3283825.0 ], [ 407750.0, 3283850.0 ], [ 407725.0, 3283850.0 ], [ 407725.0, 3283825.0 ], [ 407750.0, 3283825.0 ] ] ] } },
{ "type": "Feature", "properties": { "cell_id": "r6c2", "health_score": 34.3, "grade": "D", "canopy_cover": 0.934, "height_std_m": 2.01, "loss_density": 0.0112 }, "geometry": { "type": "Polygon", "coordinates": [ [ [ 407775.0, 3283825.0 ], [ 407775.0, 3283850.0 ], [ 407750.0, 3283850.0 ], [ 407750.0, 3283825.0 ], [ 407775.0, 3283825.0 ] ] ] } },
{ "type": "Feature", "properties": { "cell_id": "r6c3", "health_score": 96.9, "grade": "A", "canopy_cover": 0.933, "height_std_m": 4.76, "loss_density": 0.0 }, "geometry": { "type": "Polygon", "coordinates": [ [ [ 407800.0, 3283825.0 ], [ 407800.0, 3283850.0 ], [ 407775.0, 3283850.0 ], [ 407775.0, 3283825.0 ], [ 407800.0, 3283825.0 ] ] ] } },
{ "type": "Feature", "properties": { "cell_id": "r6c4", "health_score": 84.1, "grade": "A", "canopy_cover": 0.653, "height_std_m": 5.22, "loss_density": 0.0 }, "geometry": { "type": "Polygon", "coordinates": [ [ [ 407825.0, 3283825.0 ], [ 407825.0, 3283850.0 ], [ 407800.0, 3283850.0 ], [ 407800.0, 3283825.0 ], [ 407825.0, 3283825.0 ] ] ] } },
{ "type": "Feature", "properties": { "cell_id": "r6c5", "health_score": 65.9, "grade": "B", "canopy_cover": 0.698, "height_std_m": 4.28, "loss_density": 0.0048 }, "geometry": { "type": "Polygon", "coordinates": [ [ [ 407850.0, 3283825.0 ], [ 407850.0, 3283850.0 ], [ 407825.0, 3283850.0 ], [ 407825.0, 3283825.0 ], [ 407850.0, 3283825.0 ] ] ] } },
{ "type": "Feature", "properties": { "cell_id": "r6c6", "health_score": 66.4, "grade": "B", "canopy_cover": 0.867, "height_std_m": 3.53, "loss_density": 0.0048 }, "geometry": { "type": "Polygon", "coordinates": [ [ [ 407875.0, 3283825.0 ], [ 407875.0, 3283850.0 ], [ 407850.0, 3283850.0 ], [ 407850.0, 3283825.0 ], [ 407875.0, 3283825.0 ] ] ] } },
{ "type": "Feature", "properties": { "cell_id": "r6c7", "health_score": 75.4, "grade": "B", "canopy_cover": 0.978, "height_std_m": 2.41, "loss_density": 0.0 }, "geometry": { "type": "Polygon", "coordinates": [ [ [ 407900.0, 3283825.0 ], [ 407900.0, 3283850.0 ], [ 407875.0, 3283850.0 ], [ 407875.0, 3283825.0 ], [ 407900.0, 3283825.0 ] ] ] } },
{ "type": "Feature", "properties": { "cell_id": "r6c8", "health_score": 70.0, "grade": "B", "canopy_cover": 1.0, "height_std_m": 1.14, "loss_density": 0.0 }, "geometry": { "type": "Polygon", "coordinates": [ [ [ 407925.0, 3283825.0 ], [ 407925.0, 3283850.0 ], [ 407900.0, 3283850.0 ], [ 407900.0, 3283825.0 ], [ 407925.0, 3283825.0 ] ] ] } },
{ "type": "Feature", "properties": { "cell_id": "r6c9", "health_score": 65.2, "grade": "B", "canopy_cover": 0.818, "height_std_m": 2.15, "loss_density": 0.0 }, "geometry": { "type": "Polygon", "coordinates": [ [ [ 407950.0, 3283825.0 ], [ 407950.0, 3283850.0 ], [ 407925.0, 3283850.0 ], [ 407925.0, 3283825.0 ], [ 407950.0, 3283825.0 ] ] ] } },
{ "type": "Feature", "properties": { "cell_id": "r7c0", "health_score": 43.8, "grade": "D", "canopy_cover": 0.576, "height_std_m": 3.65, "loss_density": 0.008 }, "geometry": { "type": "Polygon", "coordinates": [ [ [ 407725.0, 3283800.0 ], [ 407725.0, 3283825.0 ], [ 407700.0, 3283825.0 ], [ 407700.0, 3283800.0 ], [ 407725.0, 3283800.0 ] ] ] } },
{ "type": "Feature", "properties": { "cell_id": "r7c1", "health_score": 61.0, "grade": "C", "canopy_cover": 0.573, "height_std_m": 3.87, "loss_density": 0.0032 }, "geometry": { "type": "Polygon", "coordinates": [ [ [ 407750.0, 3283800.0 ], [ 407750.0, 3283825.0 ], [ 407725.0, 3283825.0 ], [ 407725.0, 3283800.0 ], [ 407750.0, 3283800.0 ] ] ] } },
{ "type": "Feature", "properties": { "cell_id": "r7c2", "health_score": 50.8, "grade": "C", "canopy_cover": 0.454, "height_std_m": 3.42, "loss_density": 0.0032 }, "geometry": { "type": "Polygon", "coordinates": [ [ [ 407775.0, 3283800.0 ], [ 407775.0, 3283825.0 ], [ 407750.0, 3283825.0 ], [ 407750.0, 3283800.0 ], [ 407775.0, 3283800.0 ] ] ] } },
{ "type": "Feature", "properties": { "cell_id": "r7c3", "health_score": 40.9, "grade": "D", "canopy_cover": 0.571, "height_std_m": 2.38, "loss_density": 0.0048 }, "geometry": { "type": "Polygon", "coordinates": [ [ [ 407800.0, 3283800.0 ], [ 407800.0, 3283825.0 ], [ 407775.0, 3283825.0 ], [ 407775.0, 3283800.0 ], [ 407800.0, 3283800.0 ] ] ] } },
{ "type": "Feature", "properties": { "cell_id": "r7c4", "health_score": 43.3, "grade": "D", "canopy_cover": 0.606, "height_std_m": 3.45, "loss_density": 0.008 }, "geometry": { "type": "Polygon", "coordinates": [ [ [ 407825.0, 3283800.0 ], [ 407825.0, 3283825.0 ], [ 407800.0, 3283825.0 ], [ 407800.0, 3283800.0 ], [ 407825.0, 3283800.0 ] ] ] } },
{ "type": "Feature", "properties": { "cell_id": "r7c5", "health_score": 35.0, "grade": "D", "canopy_cover": 0.566, "height_std_m": 3.31, "loss_density": 0.0096 }, "geometry": { "type": "Polygon", "coordinates": [ [ [ 407850.0, 3283800.0 ], [ 407850.0, 3283825.0 ], [ 407825.0, 3283825.0 ], [ 407825.0, 3283800.0 ], [ 407850.0, 3283800.0 ] ] ] } },
{ "type": "Feature", "properties": { "cell_id": "r7c6", "health_score": 44.5, "grade": "D", "canopy_cover": 0.891, "height_std_m": 2.73, "loss_density": 0.0096 }, "geometry": { "type": "Polygon", "coordinates": [ [ [ 407875.0, 3283800.0 ], [ 407875.0, 3283825.0 ], [ 407850.0, 3283825.0 ], [ 407850.0, 3283800.0 ], [ 407875.0, 3283800.0 ] ] ] } },
{ "type": "Feature", "properties": { "cell_id": "r7c7", "health_score": 77.5, "grade": "B", "canopy_cover": 0.99, "height_std_m": 2.57, "loss_density": 0.0 }, "geometry": { "type": "Polygon", "coordinates": [ [ [ 407900.0, 3283800.0 ], [ 407900.0, 3283825.0 ], [ 407875.0, 3283825.0 ], [ 407875.0, 3283800.0 ], [ 407900.0, 3283800.0 ] ] ] } },
{ "type": "Feature", "properties": { "cell_id": "r7c8", "health_score": 72.1, "grade": "B", "canopy_cover": 0.93, "height_std_m": 2.31, "loss_density": 0.0 }, "geometry": { "type": "Polygon", "coordinates": [ [ [ 407925.0, 3283800.0 ], [ 407925.0, 3283825.0 ], [ 407900.0, 3283825.0 ], [ 407900.0, 3283800.0 ], [ 407925.0, 3283800.0 ] ] ] } },
{ "type": "Feature", "properties": { "cell_id": "r7c9", "health_score": 52.0, "grade": "C", "canopy_cover": 0.675, "height_std_m": 3.0, "loss_density": 0.0048 }, "geometry": { "type": "Polygon", "coordinates": [ [ [ 407950.0, 3283800.0 ], [ 407950.0, 3283825.0 ], [ 407925.0, 3283825.0 ], [ 407925.0, 3283800.0 ], [ 407950.0, 3283800.0 ] ] ] } },
{ "type": "Feature", "properties": { "cell_id": "r8c0", "health_score": 49.5, "grade": "D", "canopy_cover": 0.395, "height_std_m": 3.06, "loss_density": 0.0016 }, "geometry": { "type": "Polygon", "coordinates": [ [ [ 407725.0, 3283775.0 ], [ 407725.0, 3283800.0 ], [ 407700.0, 3283800.0 ], [ 407700.0, 3283775.0 ], [ 407725.0, 3283775.0 ] ] ] } },
{ "type": "Feature", "properties": { "cell_id": "r8c1", "health_score": 62.2, "grade": "C", "canopy_cover": 0.485, "height_std_m": 3.91, "loss_density": 0.0016 }, "geometry": { "type": "Polygon", "coordinates": [ [ [ 407750.0, 3283775.0 ], [ 407750.0, 3283800.0 ], [ 407725.0, 3283800.0 ], [ 407725.0, 3283775.0 ], [ 407750.0, 3283775.0 ] ] ] } },
{ "type": "Feature", "properties": { "cell_id": "r8c2", "health_score": 65.1, "grade": "B", "canopy_cover": 0.418, "height_std_m": 4.02, "loss_density": 0.0 }, "geometry": { "type": "Polygon", "coordinates": [ [ [ 407775.0, 3283775.0 ], [ 407775.0, 3283800.0 ], [ 407750.0, 3283800.0 ], [ 407750.0, 3283775.0 ], [ 407775.0, 3283775.0 ] ] ] } },
{ "type": "Feature", "properties": { "cell_id": "r8c3", "health_score": 48.9, "grade": "D", "canopy_cover": 0.44, "height_std_m": 3.29, "loss_density": 0.0032 }, "geometry": { "type": "Polygon", "coordinates": [ [ [ 407800.0, 3283775.0 ], [ 407800.0, 3283800.0 ], [ 407775.0, 3283800.0 ], [ 407775.0, 3283775.0 ], [ 407800.0, 3283775.0 ] ] ] } },
{ "type": "Feature", "properties": { "cell_id": "r8c4", "health_score": 62.5, "grade": "C", "canopy_cover": 0.499, "height_std_m": 3.88, "loss_density": 0.0016 }, "geometry": { "type": "Polygon", "coordinates": [ [ [ 407825.0, 3283775.0 ], [ 407825.0, 3283800.0 ], [ 407800.0, 3283800.0 ], [ 407800.0, 3283775.0 ], [ 407825.0, 3283775.0 ] ] ] } },
{ "type": "Feature", "properties": { "cell_id": "r8c5", "health_score": 60.1, "grade": "C", "canopy_cover": 0.414, "height_std_m": 4.03, "loss_density": 0.0016 }, "geometry": { "type": "Polygon", "coordinates": [ [ [ 407850.0, 3283775.0 ], [ 407850.0, 3283800.0 ], [ 407825.0, 3283800.0 ], [ 407825.0, 3283775.0 ], [ 407850.0, 3283775.0 ] ] ] } },
{ "type": "Feature", "properties": { "cell_id": "r8c6", "health_score": 53.6, "grade": "C", "canopy_cover": 0.622, "height_std_m": 2.91, "loss_density": 0.0032 }, "geometry": { "type": "Polygon", "coordinates": [ [ [ 407875.0, 3283775.0 ], [ 407875.0, 3283800.0 ], [ 407850.0, 3283800.0 ], [ 407850.0, 3283775.0 ], [ 407875.0, 3283775.0 ] ] ] } },
{ "type": "Feature", "properties": { "cell_id": "r8c7", "health_score": 56.3, "grade": "C", "canopy_cover": 0.779, "height_std_m": 3.44, "loss_density": 0.0064 }, "geometry": { "type": "Polygon", "coordinates": [ [ [ 407900.0, 3283775.0 ], [ 407900.0, 3283800.0 ], [ 407875.0, 3283800.0 ], [ 407875.0, 3283775.0 ], [ 407900.0, 3283775.0 ] ] ] } },
{ "type": "Feature", "properties": { "cell_id": "r8c8", "health_score": 59.2, "grade": "C", "canopy_cover": 0.838, "height_std_m": 1.95, "loss_density": 0.0016 }, "geometry": { "type": "Polygon", "coordinates": [ [ [ 407925.0, 3283775.0 ], [ 407925.0, 3283800.0 ], [ 407900.0, 3283800.0 ], [ 407900.0, 3283775.0 ], [ 407925.0, 3283775.0 ] ] ] } },
{ "type": "Feature", "properties": { "cell_id": "r8c9", "health_score": 74.3, "grade": "B", "canopy_cover": 0.819, "height_std_m": 3.04, "loss_density": 0.0 }, "geometry": { "type": "Polygon", "coordinates": [ [ [ 407950.0, 3283775.0 ], [ 407950.0, 3283800.0 ], [ 407925.0, 3283800.0 ], [ 407925.0, 3283775.0 ], [ 407950.0, 3283775.0 ] ] ] } },
{ "type": "Feature", "properties": { "cell_id": "r9c0", "health_score": 19.1, "grade": "D", "canopy_cover": 0.55, "height_std_m": 2.29, "loss_density": 0.0112 }, "geometry": { "type": "Polygon", "coordinates": [ [ [ 407725.0, 3283750.0 ], [ 407725.0, 3283775.0 ], [ 407700.0, 3283775.0 ], [ 407700.0, 3283750.0 ], [ 407725.0, 3283750.0 ] ] ] } },
{ "type": "Feature", "properties": { "cell_id": "r9c1", "health_score": 36.9, "grade": "D", "canopy_cover": 0.437, "height_std_m": 3.61, "loss_density": 0.008 }, "geometry": { "type": "Polygon", "coordinates": [ [ [ 407750.0, 3283750.0 ], [ 407750.0, 3283775.0 ], [ 407725.0, 3283775.0 ], [ 407725.0, 3283750.0 ], [ 407750.0, 3283750.0 ] ] ] } },
{ "type": "Feature", "properties": { "cell_id": "r9c2", "health_score": 58.7, "grade": "C", "canopy_cover": 0.469, "height_std_m": 3.64, "loss_density": 0.0016 }, "geometry": { "type": "Polygon", "coordinates": [ [ [ 407775.0, 3283750.0 ], [ 407775.0, 3283775.0 ], [ 407750.0, 3283775.0 ], [ 407750.0, 3283750.0 ], [ 407775.0, 3283750.0 ] ] ] } },
{ "type": "Feature", "properties": { "cell_id": "r9c3", "health_score": 63.9, "grade": "C", "canopy_cover": 0.36, "height_std_m": 4.66, "loss_density": 0.0016 }, "geometry": { "type": "Polygon", "coordinates": [ [ [ 407800.0, 3283750.0 ], [ 407800.0, 3283775.0 ], [ 407775.0, 3283775.0 ], [ 407775.0, 3283750.0 ], [ 407800.0, 3283750.0 ] ] ] } },
{ "type": "Feature", "properties": { "cell_id": "r9c4", "health_score": 69.8, "grade": "B", "canopy_cover": 0.504, "height_std_m": 4.08, "loss_density": 0.0 }, "geometry": { "type": "Polygon", "coordinates": [ [ [ 407825.0, 3283750.0 ], [ 407825.0, 3283775.0 ], [ 407800.0, 3283775.0 ], [ 407800.0, 3283750.0 ], [ 407825.0, 3283750.0 ] ] ] } },
{ "type": "Feature", "properties": { "cell_id": "r9c5", "health_score": 62.8, "grade": "C", "canopy_cover": 0.674, "height_std_m": 3.58, "loss_density": 0.0032 }, "geometry": { "type": "Polygon", "coordinates": [ [ [ 407850.0, 3283750.0 ], [ 407850.0, 3283775.0 ], [ 407825.0, 3283775.0 ], [ 407825.0, 3283750.0 ], [ 407850.0, 3283750.0 ] ] ] } },
{ "type": "Feature", "properties": { "cell_id": "r9c6", "health_score": 20.4, "grade": "D", "canopy_cover": 0.491, "height_std_m": 3.2, "loss_density": 0.0224 }, "geometry": { "type": "Polygon", "coordinates": [ [ [ 407875.0, 3283750.0 ], [ 407875.0, 3283775.0 ], [ 407850.0, 3283775.0 ], [ 407850.0, 3283750.0 ], [ 407875.0, 3283750.0 ] ] ] } },
{ "type": "Feature", "properties": { "cell_id": "r9c7", "health_score": 53.2, "grade": "C", "canopy_cover": 0.77, "height_std_m": 3.17, "loss_density": 0.0064 }, "geometry": { "type": "Polygon", "coordinates": [ [ [ 407900.0, 3283750.0 ], [ 407900.0, 3283775.0 ], [ 407875.0, 3283775.0 ], [ 407875.0, 3283750.0 ], [ 407900.0, 3283750.0 ] ] ] } },
{ "type": "Feature", "properties": { "cell_id": "r9c8", "health_score": 35.0, "grade": "D", "canopy_cover": 0.779, "height_std_m": 1.77, "loss_density": 0.008 }, "geometry": { "type": "Polygon", "coordinates": [ [ [ 407925.0, 3283750.0 ], [ 407925.0, 3283775.0 ], [ 407900.0, 3283775.0 ], [ 407900.0, 3283750.0 ], [ 407925.0, 3283750.0 ] ] ] } },
{ "type": "Feature", "properties": { "cell_id": "r9c9", "health_score": 70.7, "grade": "B", "canopy_cover": 0.448, "height_std_m": 4.44, "loss_density": 0.0 }, "geometry": { "type": "Polygon", "coordinates": [ [ [ 407950.0, 3283750.0 ], [ 407950.0, 3283775.0 ], [ 407925.0, 3283775.0 ], [ 407925.0, 3283750.0 ], [ 407950.0, 3283750.0 ] ] ] } }
]
}
