{
"type": "FeatureCollection",
"name": "OSBS_022_2019_field_route_lcp",
"crs": { "type": "name", "properties": { "name": "urn:ogc:def:crs:EPSG::32617" } },
"features": [
{ "type": "Feature", "properties": { "route_name": "OSBS_022 Terrain-Aware Dijkstra Least-Cost Path", "total_physical_distance_meters": 59.39, "total_least_cost_score": 111.35, "straight_line_baseline_distance_meters": 54.8, "detour_increase_pct": 8.38, "stops_count": 3, "visiting_sequence": "Ranger Base / Entry Point -> Tree #1 -> Tree #5 -> Tree #4", "cost_surface_model": "Excess Green Index (ExG = 2G - R - B) scaled to [1.0, 5.0]", "grid_resolution_meters": 0.2, "grid_dimensions": "200x200", "methodology_notes": "8-connected grid graph over 200x200 ExG vegetation impedance surface. Calculates least-cost path avoiding high-density canopy barriers." }, "geometry": { "type": "LineString", "coordinates": [ [ 407034.200000000011642, 3284744.300000000279397 ], [ 407034.400000000023283, 3284744.5 ], [ 407034.600000000034925, 3284744.5 ], [ 407034.800000000046566, 3284744.700000000186265 ], [ 407035.000000000058208, 3284744.700000000186265 ], [ 407035.200000000011642, 3284744.700000000186265 ], [ 407035.400000000023283, 3284744.900000000372529 ], [ 407035.600000000034925, 3284744.900000000372529 ], [ 407035.800000000046566, 3284744.900000000372529 ], [ 407036.000000000058208, 3284745.1 ], [ 407036.200000000011642, 3284745.300000000279397 ], [ 407036.400000000023283, 3284745.5 ], [ 407036.600000000034925, 3284745.700000000186265 ], [ 407036.800000000046566, 3284745.900000000372529 ], [ 407037.000000000058208, 3284745.900000000372529 ], [ 407037.200000000011642, 3284746.1 ], [ 407037.400000000023283, 3284746.1 ], [ 407037.600000000034925, 3284746.300000000279397 ], [ 407037.800000000046566, 3284746.5 ], [ 407038.000000000058208, 3284746.700000000186265 ], [ 407038.200000000011642, 3284746.700000000186265 ], [ 407038.400000000023283, 3284746.900000000372529 ], [ 407038.600000000034925, 3284747.1 ], [ 407038.800000000046566, 3284747.1 ], [ 407039.000000000058208, 3284747.300000000279397 ], [ 407039.200000000011642, 3284747.300000000279397 ], [ 407039.400000000023283, 3284747.300000000279397 ], [ 407039.600000000034925, 3284747.5 ], [ 407039.800000000046566, 3284747.700000000186265 ], [ 407040.000000000058208, 3284747.900000000372529 ], [ 407040.000000000058208, 3284748.1 ], [ 407040.000000000058208, 3284748.300000000279397 ], [ 407040.000000000058208, 3284748.5 ], [ 407040.200000000011642, 3284748.700000000186265 ], [ 407040.400000000023283, 3284748.900000000372529 ], [ 407040.600000000034925, 3284749.1 ], [ 407040.600000000034925, 3284749.300000000279397 ], [ 407040.800000000046566, 3284749.5 ], [ 407041.000000000058208, 3284749.700000000186265 ], [ 407041.200000000011642, 3284749.700000000186265 ], [ 407041.400000000023283, 3284749.900000000372529 ], [ 407041.600000000034925, 3284749.900000000372529 ], [ 407041.800000000046566, 3284750.1 ], [ 407042.000000000058208, 3284750.1 ], [ 407042.200000000011642, 3284750.300000000279397 ], [ 407042.400000000023283, 3284750.5 ], [ 407042.600000000034925, 3284750.5 ], [ 407042.800000000046566, 3284750.700000000186265 ], [ 407043.000000000058208, 3284750.900000000372529 ], [ 407043.200000000011642, 3284751.1 ], [ 407043.400000000023283, 3284751.300000000279397 ], [ 407043.600000000034925, 3284751.300000000279397 ], [ 407043.800000000046566, 3284751.5 ], [ 407044.000000000058208, 3284751.700000000186265 ], [ 407044.000000000058208, 3284751.900000000372529 ], [ 407044.200000000011642, 3284752.1 ], [ 407044.200000000011642, 3284752.300000000279397 ], [ 407044.400000000023283, 3284752.5 ], [ 407044.400000000023283, 3284752.700000000186265 ], [ 407044.600000000034925, 3284752.900000000372529 ], [ 407044.800000000046566, 3284753.1 ], [ 407044.800000000046566, 3284753.300000000279397 ], [ 407045.000000000058208, 3284753.5 ], [ 407045.200000000011642, 3284753.700000000186265 ], [ 407045.400000000023283, 3284753.900000000372529 ], [ 407045.600000000034925, 3284754.1 ], [ 407045.800000000046566, 3284754.1 ], [ 407046.000000000058208, 3284754.300000000279397 ], [ 407046.200000000011642, 3284754.300000000279397 ], [ 407046.400000000023283, 3284754.5 ], [ 407046.600000000034925, 3284754.700000000186265 ], [ 407046.800000000046566, 3284754.900000000372529 ], [ 407047.000000000058208, 3284755.1 ], [ 407047.000000000058208, 3284755.300000000279397 ], [ 407047.200000000011642, 3284755.5 ], [ 407047.400000000023283, 3284755.700000000186265 ], [ 407047.600000000034925, 3284755.900000000372529 ], [ 407047.600000000034925, 3284756.1 ], [ 407047.800000000046566, 3284756.300000000279397 ], [ 407047.800000000046566, 3284756.5 ], [ 407048.000000000058208, 3284756.700000000186265 ], [ 407048.200000000011642, 3284756.900000000372529 ], [ 407048.200000000011642, 3284757.1 ], [ 407048.200000000011642, 3284757.300000000279397 ], [ 407048.400000000023283, 3284757.5 ], [ 407048.600000000034925, 3284757.700000000186265 ], [ 407048.800000000046566, 3284757.900000000372529 ], [ 407048.800000000046566, 3284758.1 ], [ 407048.800000000046566, 3284758.300000000279397 ], [ 407048.800000000046566, 3284758.5 ], [ 407048.800000000046566, 3284758.700000000186265 ], [ 407049.000000000058208, 3284758.900000000372529 ], [ 407049.200000000011642, 3284759.1 ], [ 407049.400000000023283, 3284759.300000000279397 ], [ 407049.600000000034925, 3284759.5 ], [ 407049.800000000046566, 3284759.700000000186265 ], [ 407050.000000000058208, 3284759.900000000372529 ], [ 407050.200000000011642, 3284760.1 ], [ 407050.200000000011642, 3284760.300000000279397 ], [ 407050.400000000023283, 3284760.5 ], [ 407050.400000000023283, 3284760.700000000186265 ], [ 407050.600000000034925, 3284760.900000000372529 ], [ 407050.800000000046566, 3284761.1 ], [ 407051.000000000058208, 3284761.300000000279397 ], [ 407051.200000000011642, 3284761.5 ], [ 407051.200000000011642, 3284761.700000000186265 ], [ 407051.400000000023283, 3284761.900000000372529 ], [ 407051.600000000034925, 3284762.1 ], [ 407051.800000000046566, 3284762.300000000279397 ], [ 407052.000000000058208, 3284762.5 ], [ 407052.200000000011642, 3284762.700000000186265 ], [ 407052.400000000023283, 3284762.900000000372529 ], [ 407052.600000000034925, 3284763.1 ], [ 407052.800000000046566, 3284763.1 ], [ 407053.000000000058208, 3284763.1 ], [ 407053.200000000011642, 3284763.1 ], [ 407053.400000000023283, 3284763.300000000279397 ], [ 407053.600000000034925, 3284763.5 ], [ 407053.800000000046566, 3284763.700000000186265 ], [ 407054.000000000058208, 3284763.900000000372529 ], [ 407054.200000000011642, 3284764.1 ], [ 407054.400000000023283, 3284764.300000000279397 ], [ 407054.600000000034925, 3284764.5 ], [ 407054.800000000046566, 3284764.700000000186265 ], [ 407055.000000000058208, 3284764.900000000372529 ], [ 407055.200000000011642, 3284765.1 ], [ 407055.400000000023283, 3284765.300000000279397 ], [ 407055.600000000034925, 3284765.5 ], [ 407055.800000000046566, 3284765.700000000186265 ], [ 407056.000000000058208, 3284765.700000000186265 ], [ 407056.200000000011642, 3284765.700000000186265 ], [ 407056.400000000023283, 3284765.700000000186265 ], [ 407056.600000000034925, 3284765.900000000372529 ], [ 407056.800000000046566, 3284766.1 ], [ 407057.000000000058208, 3284766.300000000279397 ], [ 407057.200000000011642, 3284766.5 ], [ 407057.400000000023283, 3284766.5 ], [ 407057.600000000034925, 3284766.700000000186265 ], [ 407057.800000000046566, 3284766.900000000372529 ], [ 407058.000000000058208, 3284767.1 ], [ 407058.200000000011642, 3284767.300000000279397 ], [ 407058.400000000023283, 3284767.300000000279397 ], [ 407058.600000000034925, 3284767.5 ], [ 407058.800000000046566, 3284767.5 ], [ 407059.000000000058208, 3284767.5 ], [ 407059.200000000011642, 3284767.700000000186265 ], [ 407059.400000000023283, 3284767.700000000186265 ], [ 407059.600000000034925, 3284767.700000000186265 ], [ 407059.800000000046566, 3284767.700000000186265 ], [ 407060.000000000058208, 3284767.900000000372529 ], [ 407060.200000000011642, 3284768.1 ], [ 407060.400000000023283, 3284768.1 ], [ 407060.600000000034925, 3284768.1 ], [ 407060.800000000046566, 3284768.1 ], [ 407061.000000000058208, 3284768.1 ], [ 407061.200000000011642, 3284768.1 ], [ 407061.400000000023283, 3284768.1 ], [ 407061.600000000034925, 3284768.1 ], [ 407061.800000000046566, 3284768.1 ], [ 407062.000000000058208, 3284768.1 ], [ 407062.200000000011642, 3284768.300000000279397 ], [ 407062.400000000023283, 3284768.300000000279397 ], [ 407062.600000000034925, 3284768.5 ], [ 407062.800000000046566, 3284768.5 ], [ 407063.000000000058208, 3284768.700000000186265 ], [ 407063.200000000011642, 3284768.700000000186265 ], [ 407063.400000000023283, 3284768.700000000186265 ], [ 407063.200000000011642, 3284768.5 ], [ 407063.000000000058208, 3284768.300000000279397 ], [ 407062.800000000046566, 3284768.1 ], [ 407062.800000000046566, 3284767.900000000372529 ], [ 407062.800000000046566, 3284767.700000000186265 ], [ 407062.800000000046566, 3284767.5 ], [ 407062.800000000046566, 3284767.300000000279397 ], [ 407062.800000000046566, 3284767.1 ], [ 407062.800000000046566, 3284766.900000000372529 ], [ 407062.800000000046566, 3284766.700000000186265 ], [ 407062.800000000046566, 3284766.5 ], [ 407062.800000000046566, 3284766.300000000279397 ], [ 407062.800000000046566, 3284766.1 ], [ 407062.800000000046566, 3284765.900000000372529 ], [ 407062.800000000046566, 3284765.700000000186265 ], [ 407062.800000000046566, 3284765.5 ], [ 407062.800000000046566, 3284765.300000000279397 ], [ 407062.800000000046566, 3284765.1 ], [ 407062.800000000046566, 3284764.900000000372529 ], [ 407062.800000000046566, 3284764.700000000186265 ], [ 407062.800000000046566, 3284764.5 ], [ 407063.000000000058208, 3284764.300000000279397 ], [ 407063.000000000058208, 3284764.1 ], [ 407063.000000000058208, 3284763.900000000372529 ], [ 407063.000000000058208, 3284763.700000000186265 ], [ 407063.200000000011642, 3284763.5 ], [ 407063.400000000023283, 3284763.300000000279397 ], [ 407063.400000000023283, 3284763.1 ], [ 407063.400000000023283, 3284762.900000000372529 ], [ 407063.400000000023283, 3284762.700000000186265 ], [ 407063.400000000023283, 3284762.5 ], [ 407063.400000000023283, 3284762.300000000279397 ], [ 407063.400000000023283, 3284762.1 ], [ 407063.400000000023283, 3284761.900000000372529 ], [ 407063.600000000034925, 3284761.700000000186265 ], [ 407063.600000000034925, 3284761.5 ], [ 407063.600000000034925, 3284761.300000000279397 ], [ 407063.800000000046566, 3284761.1 ], [ 407063.800000000046566, 3284760.900000000372529 ], [ 407063.800000000046566, 3284760.700000000186265 ], [ 407063.800000000046566, 3284760.5 ], [ 407063.800000000046566, 3284760.300000000279397 ], [ 407064.000000000058208, 3284760.1 ], [ 407064.200000000011642, 3284759.900000000372529 ], [ 407064.200000000011642, 3284759.700000000186265 ], [ 407064.200000000011642, 3284759.5 ], [ 407064.200000000011642, 3284759.300000000279397 ], [ 407064.400000000023283, 3284759.1 ], [ 407064.400000000023283, 3284758.900000000372529 ], [ 407064.400000000023283, 3284758.700000000186265 ], [ 407064.400000000023283, 3284758.5 ], [ 407064.400000000023283, 3284758.300000000279397 ], [ 407064.400000000023283, 3284758.1 ], [ 407064.400000000023283, 3284757.900000000372529 ], [ 407064.400000000023283, 3284757.700000000186265 ], [ 407064.400000000023283, 3284757.5 ], [ 407064.400000000023283, 3284757.300000000279397 ], [ 407064.400000000023283, 3284757.1 ], [ 407064.400000000023283, 3284756.900000000372529 ], [ 407064.400000000023283, 3284756.700000000186265 ], [ 407064.600000000034925, 3284756.5 ], [ 407064.800000000046566, 3284756.300000000279397 ], [ 407065.000000000058208, 3284756.1 ], [ 407065.200000000011642, 3284756.1 ], [ 407065.400000000023283, 3284755.900000000372529 ], [ 407065.600000000034925, 3284755.900000000372529 ], [ 407065.800000000046566, 3284755.700000000186265 ], [ 407066.000000000058208, 3284755.5 ], [ 407066.200000000011642, 3284755.300000000279397 ], [ 407066.400000000023283, 3284755.1 ], [ 407066.600000000034925, 3284754.900000000372529 ], [ 407066.800000000046566, 3284754.700000000186265 ], [ 407066.800000000046566, 3284754.5 ], [ 407066.800000000046566, 3284754.300000000279397 ], [ 407066.800000000046566, 3284754.1 ], [ 407066.800000000046566, 3284753.900000000372529 ], [ 407066.800000000046566, 3284753.700000000186265 ], [ 407066.800000000046566, 3284753.5 ], [ 407066.800000000046566, 3284753.300000000279397 ], [ 407066.800000000046566, 3284753.1 ] ] } }
]
}
