{
"type": "FeatureCollection",
"name": "route_terrain",
"crs": { "type": "name", "properties": { "name": "urn:ogc:def:crs:EPSG::32617" } },
"features": [
{ "type": "Feature", "properties": { "route_name": "OSBS_large_2019 Terrain-Aware TSP-Optimized Field Route", "cost_model": "Tobler's Hiking Function (DTM Slope) + Normalized Canopy Height Model (CHM p95)", "optimization_metric": "Travel Time Minimization (minutes)", "study_area": "250m x 250m (6.25 ha)", "total_physical_distance_meters": 488.9, "total_travel_time_minutes": 14.96, "nn_baseline_distance_meters": 480.2, "nn_baseline_time_minutes": 15.81, "time_saved_minutes": 0.85, "time_improvement_pct": 5.36, "stops_count": 13, "visiting_sequence": "Ranger Base / Entry Point -> Tree #666 -> Tree #646 -> Tree #625 -> Tree #627 -> Tree #634 -> Tree #643 -> Tree #644 -> Tree #661 -> Tree #683 -> Tree #624 -> Tree #668 -> Tree #645 -> Tree #682", "grid_resolution_meters": 1.0, "grid_dimensions": "250x250" }, "geometry": { "type": "LineString", "coordinates": [ [ 407700.5, 3283750.5 ], [ 407700.5, 3283751.5 ], [ 407700.5, 3283752.5 ], [ 407700.5, 3283753.5 ], [ 407700.5, 3283754.5 ], [ 407700.5, 3283755.5 ], [ 407700.5, 3283756.5 ], [ 407700.5, 3283757.5 ], [ 407700.5, 3283758.5 ], [ 407701.5, 3283759.5 ], [ 407701.5, 3283760.5 ], [ 407702.5, 3283761.5 ], [ 407703.5, 3283762.5 ], [ 407703.5, 3283763.5 ], [ 407704.5, 3283764.5 ], [ 407704.5, 3283765.5 ], [ 407704.5, 3283766.5 ], [ 407704.5, 3283767.5 ], [ 407704.5, 3283768.5 ], [ 407704.5, 3283769.5 ], [ 407704.5, 3283770.5 ], [ 407704.5, 3283771.5 ], [ 407704.5, 3283772.5 ], [ 407704.5, 3283773.5 ], [ 407704.5, 3283774.5 ], [ 407704.5, 3283775.5 ], [ 407704.5, 3283776.5 ], [ 407704.5, 3283777.5 ], [ 407704.5, 3283778.5 ], [ 407704.5, 3283779.5 ], [ 407704.5, 3283780.5 ], [ 407704.5, 3283781.5 ], [ 407704.5, 3283782.5 ], [ 407704.5, 3283783.5 ], [ 407704.5, 3283784.5 ], [ 407704.5, 3283785.5 ], [ 407705.5, 3283786.5 ], [ 407705.5, 3283787.5 ], [ 407705.5, 3283788.5 ], [ 407705.5, 3283789.5 ], [ 407705.5, 3283790.5 ], [ 407705.5, 3283791.5 ], [ 407706.5, 3283792.5 ], [ 407707.5, 3283793.5 ], [ 407707.5, 3283794.5 ], [ 407708.5, 3283795.5 ], [ 407709.5, 3283796.5 ], [ 407710.5, 3283797.5 ], [ 407711.5, 3283798.5 ], [ 407712.5, 3283799.5 ], [ 407713.5, 3283800.5 ], [ 407714.5, 3283801.5 ], [ 407715.5, 3283802.5 ], [ 407716.5, 3283803.5 ], [ 407717.5, 3283804.5 ], [ 407718.5, 3283805.5 ], [ 407719.5, 3283806.5 ], [ 407720.5, 3283807.5 ], [ 407721.5, 3283808.5 ], [ 407722.5, 3283808.5 ], [ 407723.5, 3283809.5 ], [ 407724.5, 3283810.5 ], [ 407724.5, 3283811.5 ], [ 407724.5, 3283812.5 ], [ 407724.5, 3283813.5 ], [ 407724.5, 3283814.5 ], [ 407723.5, 3283815.5 ], [ 407723.5, 3283816.5 ], [ 407723.5, 3283817.5 ], [ 407723.5, 3283818.5 ], [ 407724.5, 3283819.5 ], [ 407724.5, 3283820.5 ], [ 407723.5, 3283821.5 ], [ 407723.5, 3283822.5 ], [ 407723.5, 3283823.5 ], [ 407723.5, 3283824.5 ], [ 407723.5, 3283825.5 ], [ 407723.5, 3283826.5 ], [ 407723.5, 3283827.5 ], [ 407723.5, 3283828.5 ], [ 407723.5, 3283829.5 ], [ 407723.5, 3283830.5 ], [ 407724.5, 3283831.5 ], [ 407725.5, 3283832.5 ], [ 407725.5, 3283833.5 ], [ 407726.5, 3283834.5 ], [ 407726.5, 3283835.5 ], [ 407727.5, 3283836.5 ], [ 407728.5, 3283836.5 ], [ 407729.5, 3283836.5 ], [ 407730.5, 3283836.5 ], [ 407731.5, 3283835.5 ], [ 407732.5, 3283835.5 ], [ 407733.5, 3283835.5 ], [ 407734.5, 3283835.5 ], [ 407735.5, 3283835.5 ], [ 407736.5, 3283836.5 ], [ 407736.5, 3283837.5 ], [ 407736.5, 3283838.5 ], [ 407736.5, 3283839.5 ], [ 407736.5, 3283840.5 ], [ 407737.5, 3283841.5 ], [ 407737.5, 3283842.5 ], [ 407738.5, 3283843.5 ], [ 407739.5, 3283844.5 ], [ 407740.5, 3283844.5 ], [ 407741.5, 3283843.5 ], [ 407740.5, 3283844.5 ], [ 407740.5, 3283845.5 ], [ 407740.5, 3283846.5 ], [ 407740.5, 3283847.5 ], [ 407740.5, 3283848.5 ], [ 407741.5, 3283849.5 ], [ 407742.5, 3283850.5 ], [ 407742.5, 3283851.5 ], [ 407742.5, 3283852.5 ], [ 407742.5, 3283853.5 ], [ 407742.5, 3283854.5 ], [ 407742.5, 3283855.5 ], [ 407742.5, 3283856.5 ], [ 407742.5, 3283857.5 ], [ 407742.5, 3283858.5 ], [ 407741.5, 3283859.5 ], [ 407740.5, 3283860.5 ], [ 407740.5, 3283861.5 ], [ 407739.5, 3283862.5 ], [ 407739.5, 3283863.5 ], [ 407738.5, 3283864.5 ], [ 407737.5, 3283865.5 ], [ 407737.5, 3283866.5 ], [ 407737.5, 3283867.5 ], [ 407737.5, 3283868.5 ], [ 407737.5, 3283869.5 ], [ 407736.5, 3283870.5 ], [ 407736.5, 3283871.5 ], [ 407736.5, 3283872.5 ], [ 407736.5, 3283873.5 ], [ 407736.5, 3283874.5 ], [ 407737.5, 3283875.5 ], [ 407737.5, 3283876.5 ], [ 407738.5, 3283877.5 ], [ 407739.5, 3283878.5 ], [ 407740.5, 3283879.5 ], [ 407741.5, 3283880.5 ], [ 407742.5, 3283881.5 ], [ 407743.5, 3283882.5 ], [ 407744.5, 3283882.5 ], [ 407745.5, 3283882.5 ], [ 407746.5, 3283882.5 ], [ 407747.5, 3283882.5 ], [ 407748.5, 3283882.5 ], [ 407749.5, 3283882.5 ], [ 407750.5, 3283882.5 ], [ 407751.5, 3283882.5 ], [ 407752.5, 3283881.5 ], [ 407753.5, 3283880.5 ], [ 407754.5, 3283879.5 ], [ 407755.5, 3283878.5 ], [ 407756.5, 3283877.5 ], [ 407756.5, 3283876.5 ], [ 407757.5, 3283875.5 ], [ 407757.5, 3283874.5 ], [ 407757.5, 3283873.5 ], [ 407757.5, 3283872.5 ], [ 407757.5, 3283871.5 ], [ 407758.5, 3283870.5 ], [ 407758.5, 3283869.5 ], [ 407758.5, 3283868.5 ], [ 407758.5, 3283867.5 ], [ 407758.5, 3283866.5 ], [ 407757.5, 3283865.5 ], [ 407756.5, 3283865.5 ], [ 407757.5, 3283865.5 ], [ 407758.5, 3283866.5 ], [ 407759.5, 3283866.5 ], [ 407760.5, 3283865.5 ], [ 407761.5, 3283864.5 ], [ 407762.5, 3283863.5 ], [ 407763.5, 3283862.5 ], [ 407763.5, 3283861.5 ], [ 407763.5, 3283860.5 ], [ 407763.5, 3283859.5 ], [ 407762.5, 3283858.5 ], [ 407761.5, 3283857.5 ], [ 407760.5, 3283856.5 ], [ 407760.5, 3283855.5 ], [ 407760.5, 3283854.5 ], [ 407761.5, 3283853.5 ], [ 407762.5, 3283852.5 ], [ 407763.5, 3283852.5 ], [ 407764.5, 3283852.5 ], [ 407765.5, 3283852.5 ], [ 407766.5, 3283853.5 ], [ 407767.5, 3283853.5 ], [ 407768.5, 3283853.5 ], [ 407769.5, 3283852.5 ], [ 407770.5, 3283852.5 ], [ 407771.5, 3283851.5 ], [ 407772.5, 3283851.5 ], [ 407773.5, 3283851.5 ], [ 407774.5, 3283852.5 ], [ 407774.5, 3283853.5 ], [ 407774.5, 3283854.5 ], [ 407775.5, 3283855.5 ], [ 407776.5, 3283856.5 ], [ 407777.5, 3283857.5 ], [ 407778.5, 3283858.5 ], [ 407779.5, 3283858.5 ], [ 407780.5, 3283859.5 ], [ 407781.5, 3283860.5 ], [ 407781.5, 3283861.5 ], [ 407781.5, 3283862.5 ], [ 407781.5, 3283863.5 ], [ 407781.5, 3283864.5 ], [ 407781.5, 3283865.5 ], [ 407781.5, 3283866.5 ], [ 407781.5, 3283867.5 ], [ 407781.5, 3283868.5 ], [ 407781.5, 3283869.5 ], [ 407781.5, 3283870.5 ], [ 407781.5, 3283871.5 ], [ 407781.5, 3283872.5 ], [ 407780.5, 3283873.5 ], [ 407780.5, 3283874.5 ], [ 407781.5, 3283875.5 ], [ 407782.5, 3283876.5 ], [ 407783.5, 3283876.5 ], [ 407784.5, 3283877.5 ], [ 407785.5, 3283878.5 ], [ 407785.5, 3283879.5 ], [ 407785.5, 3283880.5 ], [ 407786.5, 3283881.5 ], [ 407787.5, 3283882.5 ], [ 407787.5, 3283883.5 ], [ 407787.5, 3283884.5 ], [ 407788.5, 3283885.5 ], [ 407789.5, 3283886.5 ], [ 407790.5, 3283887.5 ], [ 407790.5, 3283888.5 ], [ 407790.5, 3283889.5 ], [ 407790.5, 3283890.5 ], [ 407790.5, 3283891.5 ], [ 407790.5, 3283892.5 ], [ 407790.5, 3283893.5 ], [ 407791.5, 3283894.5 ], [ 407792.5, 3283895.5 ], [ 407793.5, 3283896.5 ], [ 407794.5, 3283897.5 ], [ 407795.5, 3283898.5 ], [ 407796.5, 3283899.5 ], [ 407796.5, 3283900.5 ], [ 407796.5, 3283901.5 ], [ 407796.5, 3283902.5 ], [ 407795.5, 3283903.5 ], [ 407794.5, 3283904.5 ], [ 407794.5, 3283905.5 ], [ 407793.5, 3283906.5 ], [ 407793.5, 3283907.5 ], [ 407793.5, 3283908.5 ], [ 407794.5, 3283909.5 ], [ 407795.5, 3283910.5 ], [ 407796.5, 3283911.5 ], [ 407797.5, 3283912.5 ], [ 407798.5, 3283913.5 ], [ 407799.5, 3283914.5 ], [ 407800.5, 3283915.5 ], [ 407801.5, 3283916.5 ], [ 407802.5, 3283917.5 ], [ 407803.5, 3283918.5 ], [ 407804.5, 3283918.5 ], [ 407805.5, 3283918.5 ], [ 407806.5, 3283918.5 ], [ 407807.5, 3283919.5 ], [ 407808.5, 3283919.5 ], [ 407809.5, 3283920.5 ], [ 407810.5, 3283920.5 ], [ 407811.5, 3283920.5 ], [ 407812.5, 3283920.5 ], [ 407813.5, 3283919.5 ], [ 407814.5, 3283918.5 ], [ 407815.5, 3283918.5 ], [ 407816.5, 3283917.5 ], [ 407817.5, 3283917.5 ], [ 407818.5, 3283917.5 ], [ 407819.5, 3283917.5 ], [ 407820.5, 3283917.5 ], [ 407821.5, 3283916.5 ], [ 407822.5, 3283917.5 ], [ 407823.5, 3283917.5 ], [ 407824.5, 3283916.5 ], [ 407825.5, 3283915.5 ], [ 407826.5, 3283915.5 ], [ 407827.5, 3283915.5 ], [ 407828.5, 3283915.5 ], [ 407829.5, 3283915.5 ], [ 407830.5, 3283914.5 ], [ 407831.5, 3283913.5 ], [ 407832.5, 3283912.5 ], [ 407833.5, 3283912.5 ], [ 407834.5, 3283912.5 ], [ 407835.5, 3283911.5 ], [ 407836.5, 3283910.5 ], [ 407837.5, 3283909.5 ], [ 407838.5, 3283908.5 ], [ 407839.5, 3283907.5 ], [ 407839.5, 3283906.5 ], [ 407839.5, 3283905.5 ], [ 407840.5, 3283904.5 ], [ 407840.5, 3283903.5 ], [ 407841.5, 3283902.5 ], [ 407842.5, 3283901.5 ], [ 407843.5, 3283900.5 ], [ 407843.5, 3283899.5 ], [ 407844.5, 3283898.5 ], [ 407845.5, 3283897.5 ], [ 407846.5, 3283896.5 ], [ 407847.5, 3283895.5 ], [ 407847.5, 3283894.5 ], [ 407848.5, 3283893.5 ], [ 407849.5, 3283892.5 ], [ 407849.5, 3283891.5 ], [ 407849.5, 3283890.5 ], [ 407850.5, 3283889.5 ], [ 407850.5, 3283888.5 ], [ 407850.5, 3283887.5 ], [ 407850.5, 3283886.5 ], [ 407850.5, 3283885.5 ], [ 407850.5, 3283884.5 ], [ 407850.5, 3283883.5 ], [ 407850.5, 3283882.5 ], [ 407849.5, 3283881.5 ], [ 407848.5, 3283880.5 ], [ 407847.5, 3283879.5 ], [ 407846.5, 3283878.5 ], [ 407845.5, 3283878.5 ], [ 407844.5, 3283877.5 ], [ 407845.5, 3283877.5 ], [ 407846.5, 3283877.5 ], [ 407847.5, 3283877.5 ], [ 407848.5, 3283876.5 ], [ 407849.5, 3283875.5 ], [ 407850.5, 3283875.5 ], [ 407851.5, 3283875.5 ], [ 407852.5, 3283875.5 ], [ 407853.5, 3283874.5 ], [ 407854.5, 3283873.5 ], [ 407855.5, 3283872.5 ], [ 407856.5, 3283871.5 ], [ 407857.5, 3283870.5 ], [ 407858.5, 3283869.5 ], [ 407859.5, 3283868.5 ], [ 407860.5, 3283868.5 ], [ 407861.5, 3283868.5 ], [ 407862.5, 3283868.5 ], [ 407863.5, 3283869.5 ], [ 407864.5, 3283869.5 ], [ 407864.5, 3283870.5 ], [ 407864.5, 3283871.5 ], [ 407864.5, 3283872.5 ], [ 407864.5, 3283873.5 ], [ 407864.5, 3283874.5 ], [ 407864.5, 3283875.5 ], [ 407864.5, 3283876.5 ], [ 407864.5, 3283877.5 ], [ 407864.5, 3283878.5 ], [ 407864.5, 3283879.5 ], [ 407865.5, 3283880.5 ], [ 407865.5, 3283881.5 ], [ 407865.5, 3283882.5 ], [ 407865.5, 3283883.5 ], [ 407866.5, 3283884.5 ], [ 407867.5, 3283885.5 ], [ 407868.5, 3283886.5 ], [ 407869.5, 3283887.5 ], [ 407869.5, 3283888.5 ], [ 407869.5, 3283889.5 ], [ 407869.5, 3283890.5 ], [ 407869.5, 3283891.5 ], [ 407870.5, 3283892.5 ], [ 407871.5, 3283893.5 ], [ 407872.5, 3283894.5 ], [ 407873.5, 3283895.5 ], [ 407873.5, 3283896.5 ], [ 407874.5, 3283897.5 ], [ 407875.5, 3283898.5 ], [ 407876.5, 3283899.5 ], [ 407876.5, 3283900.5 ], [ 407876.5, 3283901.5 ], [ 407876.5, 3283902.5 ], [ 407876.5, 3283903.5 ], [ 407877.5, 3283904.5 ], [ 407877.5, 3283905.5 ], [ 407877.5, 3283906.5 ], [ 407877.5, 3283907.5 ], [ 407878.5, 3283908.5 ], [ 407878.5, 3283909.5 ], [ 407878.5, 3283908.5 ], [ 407879.5, 3283907.5 ], [ 407880.5, 3283906.5 ], [ 407880.5, 3283905.5 ], [ 407881.5, 3283904.5 ], [ 407882.5, 3283903.5 ], [ 407883.5, 3283902.5 ], [ 407883.5, 3283901.5 ], [ 407884.5, 3283900.5 ], [ 407884.5, 3283899.5 ], [ 407885.5, 3283898.5 ], [ 407886.5, 3283898.5 ], [ 407887.5, 3283898.5 ], [ 407888.5, 3283898.5 ], [ 407889.5, 3283898.5 ], [ 407890.5, 3283898.5 ], [ 407891.5, 3283898.5 ], [ 407892.5, 3283898.5 ], [ 407893.5, 3283897.5 ], [ 407894.5, 3283896.5 ], [ 407895.5, 3283895.5 ] ] } }
]
}
