{
"type": "FeatureCollection",
"name": "TEAK_043_2018_field_route_lcp",
"crs": { "type": "name", "properties": { "name": "urn:ogc:def:crs:EPSG::32611" } },
"features": [
{ "type": "Feature", "properties": { "route_name": "TEAK_043_2018 Dijkstra Least-Cost Path", "study_area": "40m x 40m (0.16 ha)", "total_physical_distance_meters": 62.84, "total_least_cost_score": 140.67, "stops_count": 7, "visiting_sequence": "Ranger Base / Entry Point -> Tree #7 -> Tree #18 -> Tree #2 -> Tree #11 -> Tree #24 -> Tree #16 -> Tree #5", "grid_resolution_meters": 1.0, "grid_dimensions": "40x40", "cost_surface_model": "ExG (2G-R-B) canopy impedance scaled to [1.0, 5.0]" }, "geometry": { "type": "LineString", "coordinates": [ [ 321035.0, 4096711.6 ], [ 321036.0, 4096712.6 ], [ 321037.0, 4096712.6 ], [ 321038.0, 4096712.6 ], [ 321039.0, 4096712.6 ], [ 321040.0, 4096713.6 ], [ 321040.0, 4096714.6 ], [ 321041.0, 4096715.6 ], [ 321042.0, 4096716.6 ], [ 321043.0, 4096717.6 ], [ 321044.0, 4096718.6 ], [ 321044.0, 4096719.6 ], [ 321044.0, 4096720.6 ], [ 321045.0, 4096721.6 ], [ 321045.0, 4096722.6 ], [ 321046.0, 4096723.6 ], [ 321047.0, 4096723.6 ], [ 321048.0, 4096722.6 ], [ 321049.0, 4096721.6 ], [ 321050.0, 4096720.6 ], [ 321051.0, 4096719.6 ], [ 321051.0, 4096720.6 ], [ 321051.0, 4096721.6 ], [ 321051.0, 4096722.6 ], [ 321052.0, 4096723.6 ], [ 321053.0, 4096724.6 ], [ 321054.0, 4096725.6 ], [ 321055.0, 4096726.6 ], [ 321056.0, 4096727.6 ], [ 321057.0, 4096728.6 ], [ 321058.0, 4096729.6 ], [ 321058.0, 4096730.6 ], [ 321058.0, 4096731.6 ], [ 321059.0, 4096732.6 ], [ 321060.0, 4096733.6 ], [ 321061.0, 4096734.6 ], [ 321061.0, 4096735.6 ], [ 321062.0, 4096736.6 ], [ 321062.0, 4096737.6 ], [ 321063.0, 4096738.6 ], [ 321063.0, 4096739.6 ], [ 321063.0, 4096740.6 ], [ 321064.0, 4096741.6 ], [ 321065.0, 4096742.6 ], [ 321066.0, 4096743.6 ], [ 321067.0, 4096744.6 ], [ 321068.0, 4096744.6 ], [ 321069.0, 4096744.6 ], [ 321070.0, 4096745.6 ], [ 321071.0, 4096746.6 ], [ 321072.0, 4096747.6 ] ] } }
]
}
