{
  "type": "FeatureCollection",
  "name": "chm_removal_only",
  "crs": {
    "type": "name",
    "properties": {
      "name": "urn:ogc:def:crs:OGC:1.3:CRS84"
    }
  },
  "features": [
    {
      "type": "Feature",
      "properties": {
        "class_id": 1,
        "class_name": "removal",
        "area_m2": 7.0
      },
      "geometry": {
        "type": "Polygon",
        "coordinates": [
          [
            [
              -81.9517302,
              29.68265
            ],
            [
              -81.9517301,
              29.682641
            ],
            [
              -81.9517405,
              29.6826409
            ],
            [
              -81.9517404,
              29.6826319
            ],
            [
              -81.9517507,
              29.6826318
            ],
            [
              -81.9517506,
              29.6826228
            ],
            [
              -81.9517196,
              29.682623
            ],
            [
              -81.9517198,
              29.6826411
            ],
            [
              -81.9517095,
              29.6826411
            ],
            [
              -81.9517095,
              29.6826502
            ],
            [
              -81.9517302,
              29.68265
            ]
          ]
        ]
      }
    },
    {
      "type": "Feature",
      "properties": {
        "class_id": 1,
        "class_name": "removal",
        "area_m2": 5.0
      },
      "geometry": {
        "type": "Polygon",
        "coordinates": [
          [
            [
              -81.9522348,
              29.6824569
            ],
            [
              -81.9522347,
              29.6824479
            ],
            [
              -81.9522244,
              29.6824479
            ],
            [
              -81.9522243,
              29.6824389
            ],
            [
              -81.9522036,
              29.6824391
            ],
            [
              -81.9522038,
              29.6824571
            ],
            [
              -81.9522348,
              29.6824569
            ]
          ]
        ]
      }
    },
    {
      "type": "Feature",
      "properties": {
        "class_id": 1,
        "class_name": "removal",
        "area_m2": 5.0
      },
      "geometry": {
        "type": "Polygon",
        "coordinates": [
          [
            [
              -81.9538985,
              29.6824359
            ],
            [
              -81.9538984,
              29.6824269
            ],
            [
              -81.9538778,
              29.682427
            ],
            [
              -81.9538777,
              29.682418
            ],
            [
              -81.953857,
              29.6824181
            ],
            [
              -81.9538571,
              29.6824272
            ],
            [
              -81.9538674,
              29.6824271
            ],
            [
              -81.9538675,
              29.6824361
            ],
            [
              -81.9538985,
              29.6824359
            ]
          ]
        ]
      }
    },
    {
      "type": "Feature",
      "properties": {
        "class_id": 1,
        "class_name": "removal",
        "area_m2": 4.0
      },
      "geometry": {
        "type": "Polygon",
        "coordinates": [
          [
            [
              -81.9526584,
              29.6824448
            ],
            [
              -81.9526582,
              29.6824177
            ],
            [
              -81.9526375,
              29.6824179
            ],
            [
              -81.9526376,
              29.6824269
            ],
            [
              -81.9526479,
              29.6824268
            ],
            [
              -81.9526481,
              29.6824449
            ],
            [
              -81.9526584,
              29.6824448
            ]
          ]
        ]
      }
    },
    {
      "type": "Feature",
      "properties": {
        "class_id": 1,
        "class_name": "removal",
        "area_m2": 5.0
      },
      "geometry": {
        "type": "Polygon",
        "coordinates": [
          [
            [
              -81.9526581,
              29.6824087
            ],
            [
              -81.952658,
              29.6823997
            ],
            [
              -81.9526787,
              29.6823995
            ],
            [
              -81.9526785,
              29.6823815
            ],
            [
              -81.9526681,
              29.6823816
            ],
            [
              -81.9526682,
              29.6823906
            ],
            [
              -81.9526476,
              29.6823907
            ],
            [
              -81.9526477,
              29.6824088
            ],
            [
              -81.9526581,
              29.6824087
            ]
          ]
        ]
      }
    },
    {
      "type": "Feature",
      "properties": {
        "class_id": 1,
        "class_name": "removal",
        "area_m2": 8.0
      },
      "geometry": {
        "type": "Polygon",
        "coordinates": [
          [
            [
              -81.9537741,
              29.6823917
            ],
            [
              -81.9537738,
              29.6823646
            ],
            [
              -81.9537635,
              29.6823647
            ],
            [
              -81.9537634,
              29.6823556
            ],
            [
              -81.9537531,
              29.6823557
            ],
            [
              -81.9537531,
              29.6823647
            ],
            [
              -81.9537428,
              29.6823648
            ],
            [
              -81.9537429,
              29.6823738
            ],
            [
              -81.9537532,
              29.6823738
            ],
            [
              -81.9537534,
              29.6823918
            ],
            [
              -81.9537741,
              29.6823917
            ]
          ]
        ]
      }
    },
    {
      "type": "Feature",
      "properties": {
        "class_id": 1,
        "class_name": "removal",
        "area_m2": 4.0
      },
      "geometry": {
        "type": "Polygon",
        "coordinates": [
          [
            [
              -81.9527611,
              29.6823719
            ],
            [
              -81.9527608,
              29.6823448
            ],
            [
              -81.9527505,
              29.6823449
            ],
            [
              -81.9527507,
              29.6823629
            ],
            [
              -81.9527403,
              29.682363
            ],
            [
              -81.9527404,
              29.682372
            ],
            [
              -81.9527611,
              29.6823719
            ]
          ]
        ]
      }
    },
    {
      "type": "Feature",
      "properties": {
        "class_id": 1,
        "class_name": "removal",
        "area_m2": 7.0
      },
      "geometry": {
        "type": "Polygon",
        "coordinates": [
          [
            [
              -81.9538668,
              29.6823639
            ],
            [
              -81.9538667,
              29.6823549
            ],
            [
              -81.9538564,
              29.682355
            ],
            [
              -81.9538563,
              29.682346
            ],
            [
              -81.9538667,
              29.6823459
            ],
            [
              -81.9538666,
              29.6823369
            ],
            [
              -81.9538459,
              29.682337
            ],
            [
              -81.953846,
              29.682346
            ],
            [
              -81.9538253,
              29.6823462
            ],
            [
              -81.9538254,
              29.6823552
            ],
            [
              -81.9538461,
              29.682355
            ],
            [
              -81.9538462,
              29.6823641
            ],
            [
              -81.9538668,
              29.6823639
            ]
          ]
        ]
      }
    },
    {
      "type": "Feature",
      "properties": {
        "class_id": 1,
        "class_name": "removal",
        "area_m2": 6.0
      },
      "geometry": {
        "type": "Polygon",
        "coordinates": [
          [
            [
              -81.953939,
              29.6823454
            ],
            [
              -81.9539389,
              29.6823363
            ],
            [
              -81.9539492,
              29.6823363
            ],
            [
              -81.9539491,
              29.6823182
            ],
            [
              -81.9539387,
              29.6823183
            ],
            [
              -81.9539388,
              29.6823273
            ],
            [
              -81.9539285,
              29.6823274
            ],
            [
              -81.9539286,
              29.6823364
            ],
            [
              -81.9539079,
              29.6823366
            ],
            [
              -81.953908,
              29.6823456
            ],
            [
              -81.953939,
              29.6823454
            ]
          ]
        ]
      }
    },
    {
      "type": "Feature",
      "properties": {
        "class_id": 1,
        "class_name": "removal",
        "area_m2": 4.0
      },
      "geometry": {
        "type": "Polygon",
        "coordinates": [
          [
            [
              -81.9526458,
              29.6822012
            ],
            [
              -81.9526457,
              29.6821922
            ],
            [
              -81.952625,
              29.6821924
            ],
            [
              -81.9526249,
              29.6821833
            ],
            [
              -81.9526146,
              29.6821834
            ],
            [
              -81.9526148,
              29.6822015
            ],
            [
              -81.9526458,
              29.6822012
            ]
          ]
        ]
      }
    },
    {
      "type": "Feature",
      "properties": {
        "class_id": 1,
        "class_name": "removal",
        "area_m2": 4.0
      },
      "geometry": {
        "type": "Polygon",
        "coordinates": [
          [
            [
              -81.9530574,
              29.6820088
            ],
            [
              -81.9530573,
              29.6819997
            ],
            [
              -81.9530676,
              29.6819997
            ],
            [
              -81.9530675,
              29.6819907
            ],
            [
              -81.9530365,
              29.6819909
            ],
            [
              -81.9530366,
              29.6819999
            ],
            [
              -81.9530469,
              29.6819998
            ],
            [
              -81.953047,
              29.6820088
            ],
            [
              -81.9530574,
              29.6820088
            ]
          ]
        ]
      }
    },
    {
      "type": "Feature",
      "properties": {
        "class_id": 1,
        "class_name": "removal",
        "area_m2": 4.0
      },
      "geometry": {
        "type": "Polygon",
        "coordinates": [
          [
            [
              -81.953305,
              29.6819709
            ],
            [
              -81.9533048,
              29.6819438
            ],
            [
              -81.9532841,
              29.681944
            ],
            [
              -81.9532842,
              29.681953
            ],
            [
              -81.9532945,
              29.6819529
            ],
            [
              -81.9532947,
              29.681971
            ],
            [
              -81.953305,
              29.6819709
            ]
          ]
        ]
      }
    },
    {
      "type": "Feature",
      "properties": {
        "class_id": 1,
        "class_name": "removal",
        "area_m2": 6.0
      },
      "geometry": {
        "type": "Polygon",
        "coordinates": [
          [
            [
              -81.9534495,
              29.6819428
            ],
            [
              -81.9534494,
              29.6819338
            ],
            [
              -81.953439,
              29.6819338
            ],
            [
              -81.9534388,
              29.6819068
            ],
            [
              -81.9534284,
              29.6819068
            ],
            [
              -81.9534287,
              29.6819339
            ],
            [
              -81.9534184,
              29.681934
            ],
            [
              -81.9534185,
              29.681943
            ],
            [
              -81.9534495,
              29.6819428
            ]
          ]
        ]
      }
    },
    {
      "type": "Feature",
      "properties": {
        "class_id": 1,
        "class_name": "removal",
        "area_m2": 4.0
      },
      "geometry": {
        "type": "Polygon",
        "coordinates": [
          [
            [
              -81.9525705,
              29.6818859
            ],
            [
              -81.9525703,
              29.6818679
            ],
            [
              -81.9525393,
              29.6818681
            ],
            [
              -81.9525394,
              29.6818771
            ],
            [
              -81.95256,
              29.681877
            ],
            [
              -81.9525601,
              29.681886
            ],
            [
              -81.9525705,
              29.6818859
            ]
          ]
        ]
      }
    },
    {
      "type": "Feature",
      "properties": {
        "class_id": 1,
        "class_name": "removal",
        "area_m2": 5.0
      },
      "geometry": {
        "type": "Polygon",
        "coordinates": [
          [
            [
              -81.9526118,
              29.6818856
            ],
            [
              -81.9526117,
              29.6818766
            ],
            [
              -81.952591,
              29.6818768
            ],
            [
              -81.9525909,
              29.6818587
            ],
            [
              -81.9525805,
              29.6818588
            ],
            [
              -81.9525808,
              29.6818859
            ],
            [
              -81.9526118,
              29.6818856
            ]
          ]
        ]
      }
    },
    {
      "type": "Feature",
      "properties": {
        "class_id": 1,
        "class_name": "removal",
        "area_m2": 6.0
      },
      "geometry": {
        "type": "Polygon",
        "coordinates": [
          [
            [
              -81.9529,
              29.6817662
            ],
            [
              -81.9528997,
              29.6817302
            ],
            [
              -81.952879,
              29.6817303
            ],
            [
              -81.9528792,
              29.6817483
            ],
            [
              -81.9528895,
              29.6817483
            ],
            [
              -81.9528897,
              29.6817663
            ],
            [
              -81.9529,
              29.6817662
            ]
          ]
        ]
      }
    },
    {
      "type": "Feature",
      "properties": {
        "class_id": 1,
        "class_name": "removal",
        "area_m2": 5.0
      },
      "geometry": {
        "type": "Polygon",
        "coordinates": [
          [
            [
              -81.9538388,
              29.681588
            ],
            [
              -81.9538387,
              29.681579
            ],
            [
              -81.9538491,
              29.6815789
            ],
            [
              -81.9538489,
              29.6815609
            ],
            [
              -81.9538386,
              29.681561
            ],
            [
              -81.9538387,
              29.68157
            ],
            [
              -81.9538283,
              29.6815701
            ],
            [
              -81.9538284,
              29.6815791
            ],
            [
              -81.9538181,
              29.6815792
            ],
            [
              -81.9538182,
              29.6815882
            ],
            [
              -81.9538388,
              29.681588
            ]
          ]
        ]
      }
    },
    {
      "type": "Feature",
      "properties": {
        "class_id": 1,
        "class_name": "removal",
        "area_m2": 4.0
      },
      "geometry": {
        "type": "Polygon",
        "coordinates": [
          [
            [
              -81.9528564,
              29.6815229
            ],
            [
              -81.9528562,
              29.6814958
            ],
            [
              -81.9528355,
              29.681496
            ],
            [
              -81.9528356,
              29.681505
            ],
            [
              -81.9528459,
              29.6815049
            ],
            [
              -81.9528461,
              29.681523
            ],
            [
              -81.9528564,
              29.6815229
            ]
          ]
        ]
      }
    },
    {
      "type": "Feature",
      "properties": {
        "class_id": 1,
        "class_name": "removal",
        "area_m2": 4.0
      },
      "geometry": {
        "type": "Polygon",
        "coordinates": [
          [
            [
              -81.9525876,
              29.6815158
            ],
            [
              -81.9525874,
              29.6814887
            ],
            [
              -81.9525771,
              29.6814888
            ],
            [
              -81.9525772,
              29.6815069
            ],
            [
              -81.9525669,
              29.6815069
            ],
            [
              -81.952567,
              29.681516
            ],
            [
              -81.9525876,
              29.6815158
            ]
          ]
        ]
      }
    },
    {
      "type": "Feature",
      "properties": {
        "class_id": 1,
        "class_name": "removal",
        "area_m2": 4.0
      },
      "geometry": {
        "type": "Polygon",
        "coordinates": [
          [
            [
              -81.9537446,
              29.6814624
            ],
            [
              -81.9537445,
              29.6814533
            ],
            [
              -81.9537549,
              29.6814533
            ],
            [
              -81.9537548,
              29.6814442
            ],
            [
              -81.9537341,
              29.6814444
            ],
            [
              -81.9537342,
              29.6814534
            ],
            [
              -81.9537239,
              29.6814535
            ],
            [
              -81.953724,
              29.6814625
            ],
            [
              -81.9537446,
              29.6814624
            ]
          ]
        ]
      }
    },
    {
      "type": "Feature",
      "properties": {
        "class_id": 1,
        "class_name": "removal",
        "area_m2": 4.0
      },
      "geometry": {
        "type": "Polygon",
        "coordinates": [
          [
            [
              -81.952711,
              29.6814427
            ],
            [
              -81.9527109,
              29.6814337
            ],
            [
              -81.9527212,
              29.6814336
            ],
            [
              -81.9527211,
              29.6814246
            ],
            [
              -81.9527108,
              29.6814247
            ],
            [
              -81.9527107,
              29.6814157
            ],
            [
              -81.9527004,
              29.6814157
            ],
            [
              -81.9527006,
              29.6814428
            ],
            [
              -81.952711,
              29.6814427
            ]
          ]
        ]
      }
    },
    {
      "type": "Feature",
      "properties": {
        "class_id": 1,
        "class_name": "removal",
        "area_m2": 4.0
      },
      "geometry": {
        "type": "Polygon",
        "coordinates": [
          [
            [
              -81.9529072,
              29.6814323
            ],
            [
              -81.952907,
              29.6814052
            ],
            [
              -81.9528966,
              29.6814053
            ],
            [
              -81.9528968,
              29.6814233
            ],
            [
              -81.9528865,
              29.6814234
            ],
            [
              -81.9528866,
              29.6814324
            ],
            [
              -81.9529072,
              29.6814323
            ]
          ]
        ]
      }
    },
    {
      "type": "Feature",
      "properties": {
        "class_id": 1,
        "class_name": "removal",
        "area_m2": 4.0
      },
      "geometry": {
        "type": "Polygon",
        "coordinates": [
          [
            [
              -81.9525866,
              29.6814075
            ],
            [
              -81.9525865,
              29.6813985
            ],
            [
              -81.9525969,
              29.6813984
            ],
            [
              -81.9525968,
              29.6813894
            ],
            [
              -81.9525761,
              29.6813895
            ],
            [
              -81.9525762,
              29.6813986
            ],
            [
              -81.9525659,
              29.6813986
            ],
            [
              -81.952566,
              29.6814077
            ],
            [
              -81.9525866,
              29.6814075
            ]
          ]
        ]
      }
    },
    {
      "type": "Feature",
      "properties": {
        "class_id": 1,
        "class_name": "removal",
        "area_m2": 4.0
      },
      "geometry": {
        "type": "Polygon",
        "coordinates": [
          [
            [
              -81.9535992,
              29.6813822
            ],
            [
              -81.9535991,
              29.6813732
            ],
            [
              -81.9536094,
              29.6813731
            ],
            [
              -81.9536093,
              29.6813641
            ],
            [
              -81.9535783,
              29.6813643
            ],
            [
              -81.9535784,
              29.6813733
            ],
            [
              -81.9535888,
              29.6813732
            ],
            [
              -81.9535888,
              29.6813823
            ],
            [
              -81.9535992,
              29.6813822
            ]
          ]
        ]
      }
    },
    {
      "type": "Feature",
      "properties": {
        "class_id": 1,
        "class_name": "removal",
        "area_m2": 4.0
      },
      "geometry": {
        "type": "Polygon",
        "coordinates": [
          [
            [
              -81.9525443,
              29.6812995
            ],
            [
              -81.9525442,
              29.6812905
            ],
            [
              -81.9525338,
              29.6812906
            ],
            [
              -81.9525338,
              29.6812816
            ],
            [
              -81.9525234,
              29.6812816
            ],
            [
              -81.9525235,
              29.6812907
            ],
            [
              -81.9525132,
              29.6812907
            ],
            [
              -81.9525133,
              29.6812998
            ],
            [
              -81.9525443,
              29.6812995
            ]
          ]
        ]
      }
    },
    {
      "type": "Feature",
      "properties": {
        "class_id": 1,
        "class_name": "removal",
        "area_m2": 4.0
      },
      "geometry": {
        "type": "Polygon",
        "coordinates": [
          [
            [
              -81.9535053,
              29.6812926
            ],
            [
              -81.9535052,
              29.6812836
            ],
            [
              -81.9535156,
              29.6812835
            ],
            [
              -81.9535155,
              29.6812745
            ],
            [
              -81.9534948,
              29.6812746
            ],
            [
              -81.9534949,
              29.6812837
            ],
            [
              -81.9534846,
              29.6812837
            ],
            [
              -81.9534847,
              29.6812928
            ],
            [
              -81.9535053,
              29.6812926
            ]
          ]
        ]
      }
    },
    {
      "type": "Feature",
      "properties": {
        "class_id": 1,
        "class_name": "removal",
        "area_m2": 4.0
      },
      "geometry": {
        "type": "Polygon",
        "coordinates": [
          [
            [
              -81.9535879,
              29.681283
            ],
            [
              -81.9535877,
              29.6812559
            ],
            [
              -81.9535773,
              29.681256
            ],
            [
              -81.9535775,
              29.6812741
            ],
            [
              -81.9535672,
              29.6812741
            ],
            [
              -81.9535672,
              29.6812832
            ],
            [
              -81.9535879,
              29.681283
            ]
          ]
        ]
      }
    },
    {
      "type": "Feature",
      "properties": {
        "class_id": 1,
        "class_name": "removal",
        "area_m2": 4.0
      },
      "geometry": {
        "type": "Polygon",
        "coordinates": [
          [
            [
              -81.9526164,
              29.681281
            ],
            [
              -81.9526163,
              29.6812719
            ],
            [
              -81.9526267,
              29.6812719
            ],
            [
              -81.9526266,
              29.6812628
            ],
            [
              -81.9526163,
              29.6812629
            ],
            [
              -81.9526162,
              29.6812539
            ],
            [
              -81.9526058,
              29.681254
            ],
            [
              -81.9526061,
              29.681281
            ],
            [
              -81.9526164,
              29.681281
            ]
          ]
        ]
      }
    },
    {
      "type": "Feature",
      "properties": {
        "class_id": 1,
        "class_name": "removal",
        "area_m2": 6.0
      },
      "geometry": {
        "type": "Polygon",
        "coordinates": [
          [
            [
              -81.9537322,
              29.6812459
            ],
            [
              -81.9537322,
              29.6812368
            ],
            [
              -81.9537115,
              29.681237
            ],
            [
              -81.9537114,
              29.681228
            ],
            [
              -81.9536907,
              29.6812281
            ],
            [
              -81.9536909,
              29.6812462
            ],
            [
              -81.9537322,
              29.6812459
            ]
          ]
        ]
      }
    },
    {
      "type": "Feature",
      "properties": {
        "class_id": 1,
        "class_name": "removal",
        "area_m2": 5.0
      },
      "geometry": {
        "type": "Polygon",
        "coordinates": [
          [
            [
              -81.9525852,
              29.6812541
            ],
            [
              -81.9525851,
              29.6812451
            ],
            [
              -81.9525644,
              29.6812452
            ],
            [
              -81.9525643,
              29.6812362
            ],
            [
              -81.952554,
              29.6812363
            ],
            [
              -81.9525541,
              29.6812453
            ],
            [
              -81.9525438,
              29.6812454
            ],
            [
              -81.9525438,
              29.6812544
            ],
            [
              -81.9525852,
              29.6812541
            ]
          ]
        ]
      }
    },
    {
      "type": "Feature",
      "properties": {
        "class_id": 1,
        "class_name": "removal",
        "area_m2": 4.0
      },
      "geometry": {
        "type": "Polygon",
        "coordinates": [
          [
            [
              -81.9535146,
              29.6811843
            ],
            [
              -81.9535146,
              29.6811752
            ],
            [
              -81.9535249,
              29.6811752
            ],
            [
              -81.9535248,
              29.6811661
            ],
            [
              -81.9535041,
              29.6811663
            ],
            [
              -81.9535042,
              29.6811753
            ],
            [
              -81.9534939,
              29.6811754
            ],
            [
              -81.953494,
              29.6811844
            ],
            [
              -81.9535146,
              29.6811843
            ]
          ]
        ]
      }
    },
    {
      "type": "Feature",
      "properties": {
        "class_id": 1,
        "class_name": "removal",
        "area_m2": 4.0
      },
      "geometry": {
        "type": "Polygon",
        "coordinates": [
          [
            [
              -81.9528325,
              29.6811801
            ],
            [
              -81.9528323,
              29.6811621
            ],
            [
              -81.9528013,
              29.6811623
            ],
            [
              -81.9528014,
              29.6811713
            ],
            [
              -81.9528221,
              29.6811712
            ],
            [
              -81.9528222,
              29.6811802
            ],
            [
              -81.9528325,
              29.6811801
            ]
          ]
        ]
      }
    },
    {
      "type": "Feature",
      "properties": {
        "class_id": 1,
        "class_name": "removal",
        "area_m2": 5.0
      },
      "geometry": {
        "type": "Polygon",
        "coordinates": [
          [
            [
              -81.952698,
              29.6811631
            ],
            [
              -81.9526979,
              29.681154
            ],
            [
              -81.9527082,
              29.681154
            ],
            [
              -81.9527082,
              29.6811449
            ],
            [
              -81.9526668,
              29.6811452
            ],
            [
              -81.9526669,
              29.6811543
            ],
            [
              -81.9526876,
              29.6811541
            ],
            [
              -81.9526877,
              29.6811631
            ],
            [
              -81.952698,
              29.6811631
            ]
          ]
        ]
      }
    },
    {
      "type": "Feature",
      "properties": {
        "class_id": 1,
        "class_name": "removal",
        "area_m2": 4.0
      },
      "geometry": {
        "type": "Polygon",
        "coordinates": [
          [
            [
              -81.9534518,
              29.6810945
            ],
            [
              -81.9534514,
              29.6810584
            ],
            [
              -81.9534411,
              29.6810584
            ],
            [
              -81.9534414,
              29.6810945
            ],
            [
              -81.9534518,
              29.6810945
            ]
          ]
        ]
      }
    },
    {
      "type": "Feature",
      "properties": {
        "class_id": 1,
        "class_name": "removal",
        "area_m2": 4.0
      },
      "geometry": {
        "type": "Polygon",
        "coordinates": [
          [
            [
              -81.9524695,
              29.6810384
            ],
            [
              -81.9524694,
              29.6810293
            ],
            [
              -81.952428,
              29.6810296
            ],
            [
              -81.9524281,
              29.6810387
            ],
            [
              -81.9524695,
              29.6810384
            ]
          ]
        ]
      }
    },
    {
      "type": "Feature",
      "properties": {
        "class_id": 1,
        "class_name": "removal",
        "area_m2": 8.0
      },
      "geometry": {
        "type": "Polygon",
        "coordinates": [
          [
            [
              -81.9523767,
              29.6810661
            ],
            [
              -81.9523765,
              29.681039
            ],
            [
              -81.9523868,
              29.681039
            ],
            [
              -81.9523867,
              29.6810299
            ],
            [
              -81.9523764,
              29.68103
            ],
            [
              -81.9523763,
              29.681021
            ],
            [
              -81.9523659,
              29.6810211
            ],
            [
              -81.9523663,
              29.6810572
            ],
            [
              -81.9523456,
              29.6810573
            ],
            [
              -81.9523457,
              29.6810663
            ],
            [
              -81.9523767,
              29.6810661
            ]
          ]
        ]
      }
    },
    {
      "type": "Feature",
      "properties": {
        "class_id": 1,
        "class_name": "removal",
        "area_m2": 4.0
      },
      "geometry": {
        "type": "Polygon",
        "coordinates": [
          [
            [
              -81.9535544,
              29.6810125
            ],
            [
              -81.9535543,
              29.6810035
            ],
            [
              -81.9535336,
              29.6810036
            ],
            [
              -81.9535335,
              29.6809946
            ],
            [
              -81.9535232,
              29.6809947
            ],
            [
              -81.9535234,
              29.6810127
            ],
            [
              -81.9535544,
              29.6810125
            ]
          ]
        ]
      }
    },
    {
      "type": "Feature",
      "properties": {
        "class_id": 1,
        "class_name": "removal",
        "area_m2": 5.0
      },
      "geometry": {
        "type": "Polygon",
        "coordinates": [
          [
            [
              -81.9534402,
              29.6809592
            ],
            [
              -81.9534401,
              29.6809502
            ],
            [
              -81.9534194,
              29.6809503
            ],
            [
              -81.9534193,
              29.6809413
            ],
            [
              -81.9533987,
              29.6809414
            ],
            [
              -81.9533987,
              29.6809505
            ],
            [
              -81.9534091,
              29.6809504
            ],
            [
              -81.9534092,
              29.6809594
            ],
            [
              -81.9534402,
              29.6809592
            ]
          ]
        ]
      }
    },
    {
      "type": "Feature",
      "properties": {
        "class_id": 1,
        "class_name": "removal",
        "area_m2": 4.0
      },
      "geometry": {
        "type": "Polygon",
        "coordinates": [
          [
            [
              -81.9534606,
              29.680932
            ],
            [
              -81.9534605,
              29.6809229
            ],
            [
              -81.9534192,
              29.6809232
            ],
            [
              -81.9534192,
              29.6809323
            ],
            [
              -81.9534606,
              29.680932
            ]
          ]
        ]
      }
    },
    {
      "type": "Feature",
      "properties": {
        "class_id": 1,
        "class_name": "removal",
        "area_m2": 4.0
      },
      "geometry": {
        "type": "Polygon",
        "coordinates": [
          [
            [
              -81.9534914,
              29.6809137
            ],
            [
              -81.9534912,
              29.6808956
            ],
            [
              -81.9534706,
              29.6808958
            ],
            [
              -81.9534707,
              29.6809138
            ],
            [
              -81.9534914,
              29.6809137
            ]
          ]
        ]
      }
    },
    {
      "type": "Feature",
      "properties": {
        "class_id": 1,
        "class_name": "removal",
        "area_m2": 4.0
      },
      "geometry": {
        "type": "Polygon",
        "coordinates": [
          [
            [
              -81.952458,
              29.6809211
            ],
            [
              -81.9524578,
              29.6809031
            ],
            [
              -81.9524475,
              29.6809032
            ],
            [
              -81.9524474,
              29.6808941
            ],
            [
              -81.9524371,
              29.6808942
            ],
            [
              -81.9524373,
              29.6809123
            ],
            [
              -81.9524476,
              29.6809122
            ],
            [
              -81.9524477,
              29.6809212
            ],
            [
              -81.952458,
              29.6809211
            ]
          ]
        ]
      }
    },
    {
      "type": "Feature",
      "properties": {
        "class_id": 1,
        "class_name": "removal",
        "area_m2": 7.0
      },
      "geometry": {
        "type": "Polygon",
        "coordinates": [
          [
            [
              -81.951435,
              29.6809285
            ],
            [
              -81.9514348,
              29.6809104
            ],
            [
              -81.9514244,
              29.6809105
            ],
            [
              -81.9514244,
              29.6809015
            ],
            [
              -81.9514347,
              29.6809014
            ],
            [
              -81.9514345,
              29.6808834
            ],
            [
              -81.9514242,
              29.6808834
            ],
            [
              -81.9514243,
              29.6808925
            ],
            [
              -81.9514139,
              29.6808925
            ],
            [
              -81.9514142,
              29.6809196
            ],
            [
              -81.9514245,
              29.6809195
            ],
            [
              -81.9514246,
              29.6809286
            ],
            [
              -81.951435,
              29.6809285
            ]
          ]
        ]
      }
    },
    {
      "type": "Feature",
      "properties": {
        "class_id": 1,
        "class_name": "removal",
        "area_m2": 4.0
      },
      "geometry": {
        "type": "Polygon",
        "coordinates": [
          [
            [
              -81.952313,
              29.6808861
            ],
            [
              -81.9523129,
              29.6808771
            ],
            [
              -81.9523026,
              29.6808771
            ],
            [
              -81.9523025,
              29.6808681
            ],
            [
              -81.9522818,
              29.6808682
            ],
            [
              -81.9522819,
              29.6808773
            ],
            [
              -81.9522922,
              29.6808772
            ],
            [
              -81.9522923,
              29.6808862
            ],
            [
              -81.952313,
              29.6808861
            ]
          ]
        ]
      }
    },
    {
      "type": "Feature",
      "properties": {
        "class_id": 1,
        "class_name": "removal",
        "area_m2": 4.0
      },
      "geometry": {
        "type": "Polygon",
        "coordinates": [
          [
            [
              -81.9538631,
              29.6808749
            ],
            [
              -81.9538628,
              29.6808388
            ],
            [
              -81.9538524,
              29.6808389
            ],
            [
              -81.9538528,
              29.680875
            ],
            [
              -81.9538631,
              29.6808749
            ]
          ]
        ]
      }
    },
    {
      "type": "Feature",
      "properties": {
        "class_id": 1,
        "class_name": "removal",
        "area_m2": 4.0
      },
      "geometry": {
        "type": "Polygon",
        "coordinates": [
          [
            [
              -81.9525194,
              29.6808575
            ],
            [
              -81.9525192,
              29.6808304
            ],
            [
              -81.9524985,
              29.6808306
            ],
            [
              -81.9524986,
              29.6808396
            ],
            [
              -81.9525089,
              29.6808395
            ],
            [
              -81.9525091,
              29.6808576
            ],
            [
              -81.9525194,
              29.6808575
            ]
          ]
        ]
      }
    },
    {
      "type": "Feature",
      "properties": {
        "class_id": 1,
        "class_name": "removal",
        "area_m2": 4.0
      },
      "geometry": {
        "type": "Polygon",
        "coordinates": [
          [
            [
              -81.951568,
              29.6807922
            ],
            [
              -81.9515679,
              29.6807831
            ],
            [
              -81.9515266,
              29.6807834
            ],
            [
              -81.9515267,
              29.6807925
            ],
            [
              -81.951568,
              29.6807922
            ]
          ]
        ]
      }
    },
    {
      "type": "Feature",
      "properties": {
        "class_id": 1,
        "class_name": "removal",
        "area_m2": 6.0
      },
      "geometry": {
        "type": "Polygon",
        "coordinates": [
          [
            [
              -81.9515989,
              29.6807829
            ],
            [
              -81.9515987,
              29.6807558
            ],
            [
              -81.9515883,
              29.6807559
            ],
            [
              -81.9515883,
              29.6807469
            ],
            [
              -81.9515779,
              29.680747
            ],
            [
              -81.9515782,
              29.680774
            ],
            [
              -81.9515885,
              29.680774
            ],
            [
              -81.9515886,
              29.680783
            ],
            [
              -81.9515989,
              29.6807829
            ]
          ]
        ]
      }
    },
    {
      "type": "Feature",
      "properties": {
        "class_id": 1,
        "class_name": "removal",
        "area_m2": 5.0
      },
      "geometry": {
        "type": "Polygon",
        "coordinates": [
          [
            [
              -81.9519915,
              29.680762
            ],
            [
              -81.9519913,
              29.680744
            ],
            [
              -81.9519706,
              29.6807441
            ],
            [
              -81.9519705,
              29.6807351
            ],
            [
              -81.9519602,
              29.6807352
            ],
            [
              -81.9519604,
              29.6807532
            ],
            [
              -81.951981,
              29.6807531
            ],
            [
              -81.9519811,
              29.6807621
            ],
            [
              -81.9519915,
              29.680762
            ]
          ]
        ]
      }
    },
    {
      "type": "Feature",
      "properties": {
        "class_id": 1,
        "class_name": "removal",
        "area_m2": 5.0
      },
      "geometry": {
        "type": "Polygon",
        "coordinates": [
          [
            [
              -81.9516398,
              29.6807375
            ],
            [
              -81.9516398,
              29.6807285
            ],
            [
              -81.9516294,
              29.6807285
            ],
            [
              -81.9516293,
              29.6807105
            ],
            [
              -81.9516189,
              29.6807106
            ],
            [
              -81.9516191,
              29.6807286
            ],
            [
              -81.9516088,
              29.6807287
            ],
            [
              -81.9516088,
              29.6807377
            ],
            [
              -81.9516398,
              29.6807375
            ]
          ]
        ]
      }
    },
    {
      "type": "Feature",
      "properties": {
        "class_id": 1,
        "class_name": "removal",
        "area_m2": 4.0
      },
      "geometry": {
        "type": "Polygon",
        "coordinates": [
          [
            [
              -81.9516189,
              29.6807106
            ],
            [
              -81.9516188,
              29.6806925
            ],
            [
              -81.9516291,
              29.6806925
            ],
            [
              -81.951629,
              29.6806834
            ],
            [
              -81.9516083,
              29.6806836
            ],
            [
              -81.9516086,
              29.6807106
            ],
            [
              -81.9516189,
              29.6807106
            ]
          ]
        ]
      }
    },
    {
      "type": "Feature",
      "properties": {
        "class_id": 1,
        "class_name": "removal",
        "area_m2": 4.0
      },
      "geometry": {
        "type": "Polygon",
        "coordinates": [
          [
            [
              -81.9537671,
              29.6805598
            ],
            [
              -81.953767,
              29.6805507
            ],
            [
              -81.9537257,
              29.680551
            ],
            [
              -81.9537258,
              29.6805601
            ],
            [
              -81.9537671,
              29.6805598
            ]
          ]
        ]
      }
    },
    {
      "type": "Feature",
      "properties": {
        "class_id": 1,
        "class_name": "removal",
        "area_m2": 6.0
      },
      "geometry": {
        "type": "Polygon",
        "coordinates": [
          [
            [
              -81.9520412,
              29.6805541
            ],
            [
              -81.9520411,
              29.6805451
            ],
            [
              -81.9519791,
              29.6805455
            ],
            [
              -81.9519792,
              29.6805546
            ],
            [
              -81.9520412,
              29.6805541
            ]
          ]
        ]
      }
    },
    {
      "type": "Feature",
      "properties": {
        "class_id": 1,
        "class_name": "removal",
        "area_m2": 4.0
      },
      "geometry": {
        "type": "Polygon",
        "coordinates": [
          [
            [
              -81.9522994,
              29.6805342
            ],
            [
              -81.9522993,
              29.6805252
            ],
            [
              -81.9522889,
              29.6805253
            ],
            [
              -81.9522888,
              29.6805162
            ],
            [
              -81.9522785,
              29.6805163
            ],
            [
              -81.9522786,
              29.6805253
            ],
            [
              -81.9522683,
              29.6805254
            ],
            [
              -81.9522683,
              29.6805344
            ],
            [
              -81.9522994,
              29.6805342
            ]
          ]
        ]
      }
    },
    {
      "type": "Feature",
      "properties": {
        "class_id": 1,
        "class_name": "removal",
        "area_m2": 4.0
      },
      "geometry": {
        "type": "Polygon",
        "coordinates": [
          [
            [
              -81.9539314,
              29.6804503
            ],
            [
              -81.9539312,
              29.6804232
            ],
            [
              -81.9539208,
              29.6804233
            ],
            [
              -81.9539209,
              29.6804323
            ],
            [
              -81.9539106,
              29.6804324
            ],
            [
              -81.9539107,
              29.6804414
            ],
            [
              -81.953921,
              29.6804413
            ],
            [
              -81.9539211,
              29.6804504
            ],
            [
              -81.9539314,
              29.6804503
            ]
          ]
        ]
      }
    },
    {
      "type": "Feature",
      "properties": {
        "class_id": 1,
        "class_name": "removal",
        "area_m2": 4.0
      },
      "geometry": {
        "type": "Polygon",
        "coordinates": [
          [
            [
              -81.9521746,
              29.6804539
            ],
            [
              -81.9521744,
              29.6804358
            ],
            [
              -81.9521537,
              29.680436
            ],
            [
              -81.9521539,
              29.680454
            ],
            [
              -81.9521746,
              29.6804539
            ]
          ]
        ]
      }
    },
    {
      "type": "Feature",
      "properties": {
        "class_id": 1,
        "class_name": "removal",
        "area_m2": 4.0
      },
      "geometry": {
        "type": "Polygon",
        "coordinates": [
          [
            [
              -81.951792,
              29.6804296
            ],
            [
              -81.9517918,
              29.6804115
            ],
            [
              -81.9517711,
              29.6804117
            ],
            [
              -81.9517713,
              29.6804297
            ],
            [
              -81.951792,
              29.6804296
            ]
          ]
        ]
      }
    },
    {
      "type": "Feature",
      "properties": {
        "class_id": 1,
        "class_name": "removal",
        "area_m2": 4.0
      },
      "geometry": {
        "type": "Polygon",
        "coordinates": [
          [
            [
              -81.9522053,
              29.6804266
            ],
            [
              -81.9522052,
              29.6804176
            ],
            [
              -81.9522156,
              29.6804175
            ],
            [
              -81.9522154,
              29.6803995
            ],
            [
              -81.9522051,
              29.6803995
            ],
            [
              -81.9522052,
              29.6804086
            ],
            [
              -81.9521948,
              29.6804086
            ],
            [
              -81.952195,
              29.6804267
            ],
            [
              -81.9522053,
              29.6804266
            ]
          ]
        ]
      }
    },
    {
      "type": "Feature",
      "properties": {
        "class_id": 1,
        "class_name": "removal",
        "area_m2": 4.0
      },
      "geometry": {
        "type": "Polygon",
        "coordinates": [
          [
            [
              -81.9524015,
              29.6804071
            ],
            [
              -81.9524014,
              29.6803981
            ],
            [
              -81.9523911,
              29.6803982
            ],
            [
              -81.952391,
              29.6803892
            ],
            [
              -81.9523807,
              29.6803892
            ],
            [
              -81.9523807,
              29.6803983
            ],
            [
              -81.9523704,
              29.6803983
            ],
            [
              -81.9523705,
              29.6804074
            ],
            [
              -81.9524015,
              29.6804071
            ]
          ]
        ]
      }
    }
  ]
}