{
  "type": "FeatureCollection",
  "name": "forest_health_grid",
  "crs": {
    "type": "name",
    "properties": {
      "name": "urn:ogc:def:crs:OGC:1.3:CRS84"
    }
  },
  "features": [
    {
      "type": "Feature",
      "properties": {
        "cell_id": "0_0",
        "score": 26.1,
        "grade": "D",
        "canopy_cover": 0.442,
        "structural_diversity": 2.51,
        "loss_density": 0.008
      },
      "geometry": {
        "type": "Polygon",
        "coordinates": [
          [
            [
              -81.9536916,
              29.6824103
            ],
            [
              -81.9536937,
              29.6826359
            ],
            [
              -81.9539521,
              29.682634
            ],
            [
              -81.9539499,
              29.6824084
            ],
            [
              -81.9536916,
              29.6824103
            ]
          ]
        ]
      }
    },
    {
      "type": "Feature",
      "properties": {
        "cell_id": "0_1",
        "score": 67.2,
        "grade": "B",
        "canopy_cover": 0.848,
        "structural_diversity": 2.7,
        "loss_density": 0.0016
      },
      "geometry": {
        "type": "Polygon",
        "coordinates": [
          [
            [
              -81.9534332,
              29.6824122
            ],
            [
              -81.9534353,
              29.6826378
            ],
            [
              -81.9536937,
              29.6826359
            ],
            [
              -81.9536916,
              29.6824103
            ],
            [
              -81.9534332,
              29.6824122
            ]
          ]
        ]
      }
    },
    {
      "type": "Feature",
      "properties": {
        "cell_id": "0_2",
        "score": 67.3,
        "grade": "B",
        "canopy_cover": 0.867,
        "structural_diversity": 3.12,
        "loss_density": 0.0032
      },
      "geometry": {
        "type": "Polygon",
        "coordinates": [
          [
            [
              -81.9531749,
              29.682414
            ],
            [
              -81.953177,
              29.6826396
            ],
            [
              -81.9534353,
              29.6826378
            ],
            [
              -81.9534332,
              29.6824122
            ],
            [
              -81.9531749,
              29.682414
            ]
          ]
        ]
      }
    },
    {
      "type": "Feature",
      "properties": {
        "cell_id": "0_3",
        "score": 67.0,
        "grade": "B",
        "canopy_cover": 0.925,
        "structural_diversity": 2.82,
        "loss_density": 0.0032
      },
      "geometry": {
        "type": "Polygon",
        "coordinates": [
          [
            [
              -81.9529165,
              29.6824159
            ],
            [
              -81.9529186,
              29.6826415
            ],
            [
              -81.953177,
              29.6826396
            ],
            [
              -81.9531749,
              29.682414
            ],
            [
              -81.9529165,
              29.6824159
            ]
          ]
        ]
      }
    },
    {
      "type": "Feature",
      "properties": {
        "cell_id": "0_4",
        "score": 87.6,
        "grade": "A",
        "canopy_cover": 0.982,
        "structural_diversity": 3.61,
        "loss_density": 0.0
      },
      "geometry": {
        "type": "Polygon",
        "coordinates": [
          [
            [
              -81.9526582,
              29.6824177
            ],
            [
              -81.9526603,
              29.6826433
            ],
            [
              -81.9529186,
              29.6826415
            ],
            [
              -81.9529165,
              29.6824159
            ],
            [
              -81.9526582,
              29.6824177
            ]
          ]
        ]
      }
    },
    {
      "type": "Feature",
      "properties": {
        "cell_id": "0_5",
        "score": 77.7,
        "grade": "B",
        "canopy_cover": 0.952,
        "structural_diversity": 3.26,
        "loss_density": 0.0016
      },
      "geometry": {
        "type": "Polygon",
        "coordinates": [
          [
            [
              -81.9523998,
              29.6824196
            ],
            [
              -81.9524019,
              29.6826452
            ],
            [
              -81.9526603,
              29.6826433
            ],
            [
              -81.9526582,
              29.6824177
            ],
            [
              -81.9523998,
              29.6824196
            ]
          ]
        ]
      }
    },
    {
      "type": "Feature",
      "properties": {
        "cell_id": "0_6",
        "score": 66.0,
        "grade": "B",
        "canopy_cover": 0.973,
        "structural_diversity": 3.49,
        "loss_density": 0.0064
      },
      "geometry": {
        "type": "Polygon",
        "coordinates": [
          [
            [
              -81.9521414,
              29.6824215
            ],
            [
              -81.9521436,
              29.6826471
            ],
            [
              -81.9524019,
              29.6826452
            ],
            [
              -81.9523998,
              29.6824196
            ],
            [
              -81.9521414,
              29.6824215
            ]
          ]
        ]
      }
    },
    {
      "type": "Feature",
      "properties": {
        "cell_id": "0_7",
        "score": 70.0,
        "grade": "B",
        "canopy_cover": 0.995,
        "structural_diversity": 1.47,
        "loss_density": 0.0
      },
      "geometry": {
        "type": "Polygon",
        "coordinates": [
          [
            [
              -81.9518831,
              29.6824233
            ],
            [
              -81.9518852,
              29.6826489
            ],
            [
              -81.9521436,
              29.6826471
            ],
            [
              -81.9521414,
              29.6824215
            ],
            [
              -81.9518831,
              29.6824233
            ]
          ]
        ]
      }
    },
    {
      "type": "Feature",
      "properties": {
        "cell_id": "0_8",
        "score": 47.2,
        "grade": "D",
        "canopy_cover": 0.44,
        "structural_diversity": 3.62,
        "loss_density": 0.0048
      },
      "geometry": {
        "type": "Polygon",
        "coordinates": [
          [
            [
              -81.9516247,
              29.6824252
            ],
            [
              -81.9516269,
              29.6826508
            ],
            [
              -81.9518852,
              29.6826489
            ],
            [
              -81.9518831,
              29.6824233
            ],
            [
              -81.9516247,
              29.6824252
            ]
          ]
        ]
      }
    },
    {
      "type": "Feature",
      "properties": {
        "cell_id": "0_9",
        "score": 40.0,
        "grade": "D",
        "canopy_cover": 0.032,
        "structural_diversity": 1.07,
        "loss_density": 0.0
      },
      "geometry": {
        "type": "Polygon",
        "coordinates": [
          [
            [
              -81.9513664,
              29.682427
            ],
            [
              -81.9513685,
              29.6826526
            ],
            [
              -81.9516269,
              29.6826508
            ],
            [
              -81.9516247,
              29.6824252
            ],
            [
              -81.9513664,
              29.682427
            ]
          ]
        ]
      }
    },
    {
      "type": "Feature",
      "properties": {
        "cell_id": "1_0",
        "score": 33.3,
        "grade": "D",
        "canopy_cover": 0.834,
        "structural_diversity": 2.88,
        "loss_density": 0.0176
      },
      "geometry": {
        "type": "Polygon",
        "coordinates": [
          [
            [
              -81.9536894,
              29.6821847
            ],
            [
              -81.9536916,
              29.6824103
            ],
            [
              -81.9539499,
              29.6824084
            ],
            [
              -81.9539478,
              29.6821829
            ],
            [
              -81.9536894,
              29.6821847
            ]
          ]
        ]
      }
    },
    {
      "type": "Feature",
      "properties": {
        "cell_id": "1_1",
        "score": 49.7,
        "grade": "D",
        "canopy_cover": 0.971,
        "structural_diversity": 1.88,
        "loss_density": 0.0064
      },
      "geometry": {
        "type": "Polygon",
        "coordinates": [
          [
            [
              -81.9534311,
              29.6821866
            ],
            [
              -81.9534332,
              29.6824122
            ],
            [
              -81.9536916,
              29.6824103
            ],
            [
              -81.9536894,
              29.6821847
            ],
            [
              -81.9534311,
              29.6821866
            ]
          ]
        ]
      }
    },
    {
      "type": "Feature",
      "properties": {
        "cell_id": "1_2",
        "score": 53.8,
        "grade": "C",
        "canopy_cover": 0.886,
        "structural_diversity": 2.18,
        "loss_density": 0.0048
      },
      "geometry": {
        "type": "Polygon",
        "coordinates": [
          [
            [
              -81.9531727,
              29.6821884
            ],
            [
              -81.9531749,
              29.682414
            ],
            [
              -81.9534332,
              29.6824122
            ],
            [
              -81.9534311,
              29.6821866
            ],
            [
              -81.9531727,
              29.6821884
            ]
          ]
        ]
      }
    },
    {
      "type": "Feature",
      "properties": {
        "cell_id": "1_3",
        "score": 67.0,
        "grade": "B",
        "canopy_cover": 0.962,
        "structural_diversity": 2.15,
        "loss_density": 0.0016
      },
      "geometry": {
        "type": "Polygon",
        "coordinates": [
          [
            [
              -81.9529144,
              29.6821903
            ],
            [
              -81.9529165,
              29.6824159
            ],
            [
              -81.9531749,
              29.682414
            ],
            [
              -81.9531727,
              29.6821884
            ],
            [
              -81.9529144,
              29.6821903
            ]
          ]
        ]
      }
    },
    {
      "type": "Feature",
      "properties": {
        "cell_id": "1_4",
        "score": 68.0,
        "grade": "B",
        "canopy_cover": 0.918,
        "structural_diversity": 2.95,
        "loss_density": 0.0032
      },
      "geometry": {
        "type": "Polygon",
        "coordinates": [
          [
            [
              -81.952656,
              29.6821921
            ],
            [
              -81.9526582,
              29.6824177
            ],
            [
              -81.9529165,
              29.6824159
            ],
            [
              -81.9529144,
              29.6821903
            ],
            [
              -81.952656,
              29.6821921
            ]
          ]
        ]
      }
    },
    {
      "type": "Feature",
      "properties": {
        "cell_id": "1_5",
        "score": 42.5,
        "grade": "D",
        "canopy_cover": 0.906,
        "structural_diversity": 2.46,
        "loss_density": 0.0096
      },
      "geometry": {
        "type": "Polygon",
        "coordinates": [
          [
            [
              -81.9523977,
              29.682194
            ],
            [
              -81.9523998,
              29.6824196
            ],
            [
              -81.9526582,
              29.6824177
            ],
            [
              -81.952656,
              29.6821921
            ],
            [
              -81.9523977,
              29.682194
            ]
          ]
        ]
      }
    },
    {
      "type": "Feature",
      "properties": {
        "cell_id": "1_6",
        "score": 74.4,
        "grade": "B",
        "canopy_cover": 0.965,
        "structural_diversity": 2.87,
        "loss_density": 0.0016
      },
      "geometry": {
        "type": "Polygon",
        "coordinates": [
          [
            [
              -81.9521393,
              29.6821959
            ],
            [
              -81.9521414,
              29.6824215
            ],
            [
              -81.9523998,
              29.6824196
            ],
            [
              -81.9523977,
              29.682194
            ],
            [
              -81.9521393,
              29.6821959
            ]
          ]
        ]
      }
    },
    {
      "type": "Feature",
      "properties": {
        "cell_id": "1_7",
        "score": 65.9,
        "grade": "B",
        "canopy_cover": 0.99,
        "structural_diversity": 1.9,
        "loss_density": 0.0016
      },
      "geometry": {
        "type": "Polygon",
        "coordinates": [
          [
            [
              -81.951881,
              29.6821977
            ],
            [
              -81.9518831,
              29.6824233
            ],
            [
              -81.9521414,
              29.6824215
            ],
            [
              -81.9521393,
              29.6821959
            ],
            [
              -81.951881,
              29.6821977
            ]
          ]
        ]
      }
    },
    {
      "type": "Feature",
      "properties": {
        "cell_id": "1_8",
        "score": 65.8,
        "grade": "B",
        "canopy_cover": 0.602,
        "structural_diversity": 3.23,
        "loss_density": 0.0
      },
      "geometry": {
        "type": "Polygon",
        "coordinates": [
          [
            [
              -81.9516226,
              29.6821996
            ],
            [
              -81.9516247,
              29.6824252
            ],
            [
              -81.9518831,
              29.6824233
            ],
            [
              -81.951881,
              29.6821977
            ],
            [
              -81.9516226,
              29.6821996
            ]
          ]
        ]
      }
    },
    {
      "type": "Feature",
      "properties": {
        "cell_id": "1_9",
        "score": 40.0,
        "grade": "D",
        "canopy_cover": 0.0,
        "structural_diversity": 0.0,
        "loss_density": 0.0
      },
      "geometry": {
        "type": "Polygon",
        "coordinates": [
          [
            [
              -81.9513643,
              29.6822014
            ],
            [
              -81.9513664,
              29.682427
            ],
            [
              -81.9516247,
              29.6824252
            ],
            [
              -81.9516226,
              29.6821996
            ],
            [
              -81.9513643,
              29.6822014
            ]
          ]
        ]
      }
    },
    {
      "type": "Feature",
      "properties": {
        "cell_id": "2_0",
        "score": 64.0,
        "grade": "C",
        "canopy_cover": 0.768,
        "structural_diversity": 3.26,
        "loss_density": 0.0032
      },
      "geometry": {
        "type": "Polygon",
        "coordinates": [
          [
            [
              -81.9536873,
              29.6819591
            ],
            [
              -81.9536894,
              29.6821847
            ],
            [
              -81.9539478,
              29.6821829
            ],
            [
              -81.9539457,
              29.6819573
            ],
            [
              -81.9536873,
              29.6819591
            ]
          ]
        ]
      }
    },
    {
      "type": "Feature",
      "properties": {
        "cell_id": "2_1",
        "score": 71.7,
        "grade": "B",
        "canopy_cover": 0.923,
        "structural_diversity": 3.29,
        "loss_density": 0.0032
      },
      "geometry": {
        "type": "Polygon",
        "coordinates": [
          [
            [
              -81.953429,
              29.681961
            ],
            [
              -81.9534311,
              29.6821866
            ],
            [
              -81.9536894,
              29.6821847
            ],
            [
              -81.9536873,
              29.6819591
            ],
            [
              -81.953429,
              29.681961
            ]
          ]
        ]
      }
    },
    {
      "type": "Feature",
      "properties": {
        "cell_id": "2_2",
        "score": 62.5,
        "grade": "C",
        "canopy_cover": 0.674,
        "structural_diversity": 3.55,
        "loss_density": 0.0032
      },
      "geometry": {
        "type": "Polygon",
        "coordinates": [
          [
            [
              -81.9531706,
              29.6819628
            ],
            [
              -81.9531727,
              29.6821884
            ],
            [
              -81.9534311,
              29.6821866
            ],
            [
              -81.953429,
              29.681961
            ],
            [
              -81.9531706,
              29.6819628
            ]
          ]
        ]
      }
    },
    {
      "type": "Feature",
      "properties": {
        "cell_id": "2_3",
        "score": 29.4,
        "grade": "D",
        "canopy_cover": 0.762,
        "structural_diversity": 2.83,
        "loss_density": 0.0128
      },
      "geometry": {
        "type": "Polygon",
        "coordinates": [
          [
            [
              -81.9529123,
              29.6819647
            ],
            [
              -81.9529144,
              29.6821903
            ],
            [
              -81.9531727,
              29.6821884
            ],
            [
              -81.9531706,
              29.6819628
            ],
            [
              -81.9529123,
              29.6819647
            ]
          ]
        ]
      }
    },
    {
      "type": "Feature",
      "properties": {
        "cell_id": "2_4",
        "score": 64.1,
        "grade": "C",
        "canopy_cover": 0.856,
        "structural_diversity": 2.86,
        "loss_density": 0.0032
      },
      "geometry": {
        "type": "Polygon",
        "coordinates": [
          [
            [
              -81.9526539,
              29.6819666
            ],
            [
              -81.952656,
              29.6821921
            ],
            [
              -81.9529144,
              29.6821903
            ],
            [
              -81.9529123,
              29.6819647
            ],
            [
              -81.9526539,
              29.6819666
            ]
          ]
        ]
      }
    },
    {
      "type": "Feature",
      "properties": {
        "cell_id": "2_5",
        "score": 65.0,
        "grade": "B",
        "canopy_cover": 0.992,
        "structural_diversity": 1.82,
        "loss_density": 0.0016
      },
      "geometry": {
        "type": "Polygon",
        "coordinates": [
          [
            [
              -81.9523955,
              29.6819684
            ],
            [
              -81.9523977,
              29.682194
            ],
            [
              -81.952656,
              29.6821921
            ],
            [
              -81.9526539,
              29.6819666
            ],
            [
              -81.9523955,
              29.6819684
            ]
          ]
        ]
      }
    },
    {
      "type": "Feature",
      "properties": {
        "cell_id": "2_6",
        "score": 72.3,
        "grade": "B",
        "canopy_cover": 0.978,
        "structural_diversity": 2.1,
        "loss_density": 0.0
      },
      "geometry": {
        "type": "Polygon",
        "coordinates": [
          [
            [
              -81.9521372,
              29.6819703
            ],
            [
              -81.9521393,
              29.6821959
            ],
            [
              -81.9523977,
              29.682194
            ],
            [
              -81.9523955,
              29.6819684
            ],
            [
              -81.9521372,
              29.6819703
            ]
          ]
        ]
      }
    },
    {
      "type": "Feature",
      "properties": {
        "cell_id": "2_7",
        "score": 73.3,
        "grade": "B",
        "canopy_cover": 0.974,
        "structural_diversity": 2.72,
        "loss_density": 0.0016
      },
      "geometry": {
        "type": "Polygon",
        "coordinates": [
          [
            [
              -81.9518788,
              29.6819721
            ],
            [
              -81.951881,
              29.6821977
            ],
            [
              -81.9521393,
              29.6821959
            ],
            [
              -81.9521372,
              29.6819703
            ],
            [
              -81.9518788,
              29.6819721
            ]
          ]
        ]
      }
    },
    {
      "type": "Feature",
      "properties": {
        "cell_id": "2_8",
        "score": 75.7,
        "grade": "B",
        "canopy_cover": 0.685,
        "structural_diversity": 3.81,
        "loss_density": 0.0
      },
      "geometry": {
        "type": "Polygon",
        "coordinates": [
          [
            [
              -81.9516205,
              29.681974
            ],
            [
              -81.9516226,
              29.6821996
            ],
            [
              -81.951881,
              29.6821977
            ],
            [
              -81.9518788,
              29.6819721
            ],
            [
              -81.9516205,
              29.681974
            ]
          ]
        ]
      }
    },
    {
      "type": "Feature",
      "properties": {
        "cell_id": "2_9",
        "score": 70.0,
        "grade": "B",
        "canopy_cover": 0.043,
        "structural_diversity": 5.06,
        "loss_density": 0.0
      },
      "geometry": {
        "type": "Polygon",
        "coordinates": [
          [
            [
              -81.9513621,
              29.6819758
            ],
            [
              -81.9513643,
              29.6822014
            ],
            [
              -81.9516226,
              29.6821996
            ],
            [
              -81.9516205,
              29.681974
            ],
            [
              -81.9513621,
              29.6819758
            ]
          ]
        ]
      }
    },
    {
      "type": "Feature",
      "properties": {
        "cell_id": "3_0",
        "score": 52.0,
        "grade": "C",
        "canopy_cover": 0.794,
        "structural_diversity": 3.44,
        "loss_density": 0.008
      },
      "geometry": {
        "type": "Polygon",
        "coordinates": [
          [
            [
              -81.9536852,
              29.6817335
            ],
            [
              -81.9536873,
              29.6819591
            ],
            [
              -81.9539457,
              29.6819573
            ],
            [
              -81.9539435,
              29.6817317
            ],
            [
              -81.9536852,
              29.6817335
            ]
          ]
        ]
      }
    },
    {
      "type": "Feature",
      "properties": {
        "cell_id": "3_1",
        "score": 69.9,
        "grade": "B",
        "canopy_cover": 0.784,
        "structural_diversity": 4.27,
        "loss_density": 0.0048
      },
      "geometry": {
        "type": "Polygon",
        "coordinates": [
          [
            [
              -81.9534268,
              29.6817354
            ],
            [
              -81.953429,
              29.681961
            ],
            [
              -81.9536873,
              29.6819591
            ],
            [
              -81.9536852,
              29.6817335
            ],
            [
              -81.9534268,
              29.6817354
            ]
          ]
        ]
      }
    },
    {
      "type": "Feature",
      "properties": {
        "cell_id": "3_2",
        "score": 72.2,
        "grade": "B",
        "canopy_cover": 0.933,
        "structural_diversity": 2.81,
        "loss_density": 0.0016
      },
      "geometry": {
        "type": "Polygon",
        "coordinates": [
          [
            [
              -81.9531685,
              29.6817372
            ],
            [
              -81.9531706,
              29.6819628
            ],
            [
              -81.953429,
              29.681961
            ],
            [
              -81.9534268,
              29.6817354
            ],
            [
              -81.9531685,
              29.6817372
            ]
          ]
        ]
      }
    },
    {
      "type": "Feature",
      "properties": {
        "cell_id": "3_3",
        "score": 72.6,
        "grade": "B",
        "canopy_cover": 0.662,
        "structural_diversity": 4.12,
        "loss_density": 0.0016
      },
      "geometry": {
        "type": "Polygon",
        "coordinates": [
          [
            [
              -81.9529101,
              29.6817391
            ],
            [
              -81.9529123,
              29.6819647
            ],
            [
              -81.9531706,
              29.6819628
            ],
            [
              -81.9531685,
              29.6817372
            ],
            [
              -81.9529101,
              29.6817391
            ]
          ]
        ]
      }
    },
    {
      "type": "Feature",
      "properties": {
        "cell_id": "3_4",
        "score": 61.8,
        "grade": "C",
        "canopy_cover": 0.728,
        "structural_diversity": 3.73,
        "loss_density": 0.0048
      },
      "geometry": {
        "type": "Polygon",
        "coordinates": [
          [
            [
              -81.9526518,
              29.681741
            ],
            [
              -81.9526539,
              29.6819666
            ],
            [
              -81.9529123,
              29.6819647
            ],
            [
              -81.9529101,
              29.6817391
            ],
            [
              -81.9526518,
              29.681741
            ]
          ]
        ]
      }
    },
    {
      "type": "Feature",
      "properties": {
        "cell_id": "3_5",
        "score": 36.6,
        "grade": "D",
        "canopy_cover": 0.894,
        "structural_diversity": 2.93,
        "loss_density": 0.0144
      },
      "geometry": {
        "type": "Polygon",
        "coordinates": [
          [
            [
              -81.9523934,
              29.6817428
            ],
            [
              -81.9523955,
              29.6819684
            ],
            [
              -81.9526539,
              29.6819666
            ],
            [
              -81.9526518,
              29.681741
            ],
            [
              -81.9523934,
              29.6817428
            ]
          ]
        ]
      }
    },
    {
      "type": "Feature",
      "properties": {
        "cell_id": "3_6",
        "score": 71.0,
        "grade": "B",
        "canopy_cover": 1.0,
        "structural_diversity": 1.91,
        "loss_density": 0.0
      },
      "geometry": {
        "type": "Polygon",
        "coordinates": [
          [
            [
              -81.9521351,
              29.6817447
            ],
            [
              -81.9521372,
              29.6819703
            ],
            [
              -81.9523955,
              29.6819684
            ],
            [
              -81.9523934,
              29.6817428
            ],
            [
              -81.9521351,
              29.6817447
            ]
          ]
        ]
      }
    },
    {
      "type": "Feature",
      "properties": {
        "cell_id": "3_7",
        "score": 65.8,
        "grade": "B",
        "canopy_cover": 0.997,
        "structural_diversity": 1.89,
        "loss_density": 0.0016
      },
      "geometry": {
        "type": "Polygon",
        "coordinates": [
          [
            [
              -81.9518767,
              29.6817465
            ],
            [
              -81.9518788,
              29.6819721
            ],
            [
              -81.9521372,
              29.6819703
            ],
            [
              -81.9521351,
              29.6817447
            ],
            [
              -81.9518767,
              29.6817465
            ]
          ]
        ]
      }
    },
    {
      "type": "Feature",
      "properties": {
        "cell_id": "3_8",
        "score": 76.0,
        "grade": "B",
        "canopy_cover": 0.834,
        "structural_diversity": 3.15,
        "loss_density": 0.0
      },
      "geometry": {
        "type": "Polygon",
        "coordinates": [
          [
            [
              -81.9516184,
              29.6817484
            ],
            [
              -81.9516205,
              29.681974
            ],
            [
              -81.9518788,
              29.6819721
            ],
            [
              -81.9518767,
              29.6817465
            ],
            [
              -81.9516184,
              29.6817484
            ]
          ]
        ]
      }
    },
    {
      "type": "Feature",
      "properties": {
        "cell_id": "3_9",
        "score": 59.9,
        "grade": "C",
        "canopy_cover": 0.106,
        "structural_diversity": 3.8,
        "loss_density": 0.0
      },
      "geometry": {
        "type": "Polygon",
        "coordinates": [
          [
            [
              -81.95136,
              29.6817502
            ],
            [
              -81.9513621,
              29.6819758
            ],
            [
              -81.9516205,
              29.681974
            ],
            [
              -81.9516184,
              29.6817484
            ],
            [
              -81.95136,
              29.6817502
            ]
          ]
        ]
      }
    },
    {
      "type": "Feature",
      "properties": {
        "cell_id": "4_0",
        "score": 36.3,
        "grade": "D",
        "canopy_cover": 0.75,
        "structural_diversity": 3.57,
        "loss_density": 0.0128
      },
      "geometry": {
        "type": "Polygon",
        "coordinates": [
          [
            [
              -81.953683,
              29.6815079
            ],
            [
              -81.9536852,
              29.6817335
            ],
            [
              -81.9539435,
              29.6817317
            ],
            [
              -81.9539414,
              29.6815061
            ],
            [
              -81.953683,
              29.6815079
            ]
          ]
        ]
      }
    },
    {
      "type": "Feature",
      "properties": {
        "cell_id": "4_1",
        "score": 59.7,
        "grade": "C",
        "canopy_cover": 0.867,
        "structural_diversity": 3.36,
        "loss_density": 0.0064
      },
      "geometry": {
        "type": "Polygon",
        "coordinates": [
          [
            [
              -81.9534247,
              29.6815098
            ],
            [
              -81.9534268,
              29.6817354
            ],
            [
              -81.9536852,
              29.6817335
            ],
            [
              -81.953683,
              29.6815079
            ],
            [
              -81.9534247,
              29.6815098
            ]
          ]
        ]
      }
    },
    {
      "type": "Feature",
      "properties": {
        "cell_id": "4_2",
        "score": 75.2,
        "grade": "B",
        "canopy_cover": 0.942,
        "structural_diversity": 3.06,
        "loss_density": 0.0016
      },
      "geometry": {
        "type": "Polygon",
        "coordinates": [
          [
            [
              -81.9531663,
              29.6815116
            ],
            [
              -81.9531685,
              29.6817372
            ],
            [
              -81.9534268,
              29.6817354
            ],
            [
              -81.9534247,
              29.6815098
            ],
            [
              -81.9531663,
              29.6815116
            ]
          ]
        ]
      }
    },
    {
      "type": "Feature",
      "properties": {
        "cell_id": "4_3",
        "score": 65.0,
        "grade": "B",
        "canopy_cover": 0.354,
        "structural_diversity": 6.6,
        "loss_density": 0.0016
      },
      "geometry": {
        "type": "Polygon",
        "coordinates": [
          [
            [
              -81.952908,
              29.6815135
            ],
            [
              -81.9529101,
              29.6817391
            ],
            [
              -81.9531685,
              29.6817372
            ],
            [
              -81.9531663,
              29.6815116
            ],
            [
              -81.952908,
              29.6815135
            ]
          ]
        ]
      }
    },
    {
      "type": "Feature",
      "properties": {
        "cell_id": "4_4",
        "score": 75.2,
        "grade": "B",
        "canopy_cover": 0.803,
        "structural_diversity": 4.21,
        "loss_density": 0.0032
      },
      "geometry": {
        "type": "Polygon",
        "coordinates": [
          [
            [
              -81.9526496,
              29.6815154
            ],
            [
              -81.9526518,
              29.681741
            ],
            [
              -81.9529101,
              29.6817391
            ],
            [
              -81.952908,
              29.6815135
            ],
            [
              -81.9526496,
              29.6815154
            ]
          ]
        ]
      }
    },
    {
      "type": "Feature",
      "properties": {
        "cell_id": "4_5",
        "score": 61.7,
        "grade": "C",
        "canopy_cover": 0.989,
        "structural_diversity": 2.49,
        "loss_density": 0.0048
      },
      "geometry": {
        "type": "Polygon",
        "coordinates": [
          [
            [
              -81.9523913,
              29.6815172
            ],
            [
              -81.9523934,
              29.6817428
            ],
            [
              -81.9526518,
              29.681741
            ],
            [
              -81.9526496,
              29.6815154
            ],
            [
              -81.9523913,
              29.6815172
            ]
          ]
        ]
      }
    },
    {
      "type": "Feature",
      "properties": {
        "cell_id": "4_6",
        "score": 71.2,
        "grade": "B",
        "canopy_cover": 0.973,
        "structural_diversity": 2.52,
        "loss_density": 0.0016
      },
      "geometry": {
        "type": "Polygon",
        "coordinates": [
          [
            [
              -81.9521329,
              29.6815191
            ],
            [
              -81.9521351,
              29.6817447
            ],
            [
              -81.9523934,
              29.6817428
            ],
            [
              -81.9523913,
              29.6815172
            ],
            [
              -81.9521329,
              29.6815191
            ]
          ]
        ]
      }
    },
    {
      "type": "Feature",
      "properties": {
        "cell_id": "4_7",
        "score": 80.2,
        "grade": "A",
        "canopy_cover": 0.958,
        "structural_diversity": 2.98,
        "loss_density": 0.0
      },
      "geometry": {
        "type": "Polygon",
        "coordinates": [
          [
            [
              -81.9518746,
              29.6815209
            ],
            [
              -81.9518767,
              29.6817465
            ],
            [
              -81.9521351,
              29.6817447
            ],
            [
              -81.9521329,
              29.6815191
            ],
            [
              -81.9518746,
              29.6815209
            ]
          ]
        ]
      }
    },
    {
      "type": "Feature",
      "properties": {
        "cell_id": "4_8",
        "score": 70.3,
        "grade": "B",
        "canopy_cover": 0.778,
        "structural_diversity": 2.84,
        "loss_density": 0.0
      },
      "geometry": {
        "type": "Polygon",
        "coordinates": [
          [
            [
              -81.9516162,
              29.6815228
            ],
            [
              -81.9516184,
              29.6817484
            ],
            [
              -81.9518767,
              29.6817465
            ],
            [
              -81.9518746,
              29.6815209
            ],
            [
              -81.9516162,
              29.6815228
            ]
          ]
        ]
      }
    },
    {
      "type": "Feature",
      "properties": {
        "cell_id": "4_9",
        "score": 51.8,
        "grade": "C",
        "canopy_cover": 0.354,
        "structural_diversity": 2.99,
        "loss_density": 0.0
      },
      "geometry": {
        "type": "Polygon",
        "coordinates": [
          [
            [
              -81.9513579,
              29.6815246
            ],
            [
              -81.95136,
              29.6817502
            ],
            [
              -81.9516184,
              29.6817484
            ],
            [
              -81.9516162,
              29.6815228
            ],
            [
              -81.9513579,
              29.6815246
            ]
          ]
        ]
      }
    },
    {
      "type": "Feature",
      "properties": {
        "cell_id": "5_0",
        "score": 68.5,
        "grade": "B",
        "canopy_cover": 0.581,
        "structural_diversity": 4.59,
        "loss_density": 0.0032
      },
      "geometry": {
        "type": "Polygon",
        "coordinates": [
          [
            [
              -81.9536809,
              29.6812823
            ],
            [
              -81.953683,
              29.6815079
            ],
            [
              -81.9539414,
              29.6815061
            ],
            [
              -81.9539393,
              29.6812805
            ],
            [
              -81.9536809,
              29.6812823
            ]
          ]
        ]
      }
    },
    {
      "type": "Feature",
      "properties": {
        "cell_id": "5_1",
        "score": 48.7,
        "grade": "D",
        "canopy_cover": 0.933,
        "structural_diversity": 2.46,
        "loss_density": 0.008
      },
      "geometry": {
        "type": "Polygon",
        "coordinates": [
          [
            [
              -81.9534226,
              29.6812842
            ],
            [
              -81.9534247,
              29.6815098
            ],
            [
              -81.953683,
              29.6815079
            ],
            [
              -81.9536809,
              29.6812823
            ],
            [
              -81.9534226,
              29.6812842
            ]
          ]
        ]
      }
    },
    {
      "type": "Feature",
      "properties": {
        "cell_id": "5_2",
        "score": 74.4,
        "grade": "B",
        "canopy_cover": 0.962,
        "structural_diversity": 2.89,
        "loss_density": 0.0016
      },
      "geometry": {
        "type": "Polygon",
        "coordinates": [
          [
            [
              -81.9531642,
              29.6812861
            ],
            [
              -81.9531663,
              29.6815116
            ],
            [
              -81.9534247,
              29.6815098
            ],
            [
              -81.9534226,
              29.6812842
            ],
            [
              -81.9531642,
              29.6812861
            ]
          ]
        ]
      }
    },
    {
      "type": "Feature",
      "properties": {
        "cell_id": "5_3",
        "score": 81.7,
        "grade": "A",
        "canopy_cover": 0.71,
        "structural_diversity": 4.79,
        "loss_density": 0.0016
      },
      "geometry": {
        "type": "Polygon",
        "coordinates": [
          [
            [
              -81.9529059,
              29.6812879
            ],
            [
              -81.952908,
              29.6815135
            ],
            [
              -81.9531663,
              29.6815116
            ],
            [
              -81.9531642,
              29.6812861
            ],
            [
              -81.9529059,
              29.6812879
            ]
          ]
        ]
      }
    },
    {
      "type": "Feature",
      "properties": {
        "cell_id": "5_4",
        "score": 47.9,
        "grade": "D",
        "canopy_cover": 0.627,
        "structural_diversity": 5.23,
        "loss_density": 0.0112
      },
      "geometry": {
        "type": "Polygon",
        "coordinates": [
          [
            [
              -81.9526475,
              29.6812898
            ],
            [
              -81.9526496,
              29.6815154
            ],
            [
              -81.952908,
              29.6815135
            ],
            [
              -81.9529059,
              29.6812879
            ],
            [
              -81.9526475,
              29.6812898
            ]
          ]
        ]
      }
    },
    {
      "type": "Feature",
      "properties": {
        "cell_id": "5_5",
        "score": 60.8,
        "grade": "C",
        "canopy_cover": 0.901,
        "structural_diversity": 5.67,
        "loss_density": 0.0112
      },
      "geometry": {
        "type": "Polygon",
        "coordinates": [
          [
            [
              -81.9523892,
              29.6812916
            ],
            [
              -81.9523913,
              29.6815172
            ],
            [
              -81.9526496,
              29.6815154
            ],
            [
              -81.9526475,
              29.6812898
            ],
            [
              -81.9523892,
              29.6812916
            ]
          ]
        ]
      }
    },
    {
      "type": "Feature",
      "properties": {
        "cell_id": "5_6",
        "score": 82.7,
        "grade": "A",
        "canopy_cover": 0.918,
        "structural_diversity": 4.42,
        "loss_density": 0.0032
      },
      "geometry": {
        "type": "Polygon",
        "coordinates": [
          [
            [
              -81.9521308,
              29.6812935
            ],
            [
              -81.9521329,
              29.6815191
            ],
            [
              -81.9523913,
              29.6815172
            ],
            [
              -81.9523892,
              29.6812916
            ],
            [
              -81.9521308,
              29.6812935
            ]
          ]
        ]
      }
    },
    {
      "type": "Feature",
      "properties": {
        "cell_id": "5_7",
        "score": 82.3,
        "grade": "A",
        "canopy_cover": 0.986,
        "structural_diversity": 3.07,
        "loss_density": 0.0
      },
      "geometry": {
        "type": "Polygon",
        "coordinates": [
          [
            [
              -81.9518725,
              29.6812953
            ],
            [
              -81.9518746,
              29.6815209
            ],
            [
              -81.9521329,
              29.6815191
            ],
            [
              -81.9521308,
              29.6812935
            ],
            [
              -81.9518725,
              29.6812953
            ]
          ]
        ]
      }
    },
    {
      "type": "Feature",
      "properties": {
        "cell_id": "5_8",
        "score": 68.0,
        "grade": "B",
        "canopy_cover": 0.922,
        "structural_diversity": 2.43,
        "loss_density": 0.0016
      },
      "geometry": {
        "type": "Polygon",
        "coordinates": [
          [
            [
              -81.9516141,
              29.6812972
            ],
            [
              -81.9516162,
              29.6815228
            ],
            [
              -81.9518746,
              29.6815209
            ],
            [
              -81.9518725,
              29.6812953
            ],
            [
              -81.9516141,
              29.6812972
            ]
          ]
        ]
      }
    },
    {
      "type": "Feature",
      "properties": {
        "cell_id": "5_9",
        "score": 53.8,
        "grade": "C",
        "canopy_cover": 0.531,
        "structural_diversity": 2.35,
        "loss_density": 0.0
      },
      "geometry": {
        "type": "Polygon",
        "coordinates": [
          [
            [
              -81.9513558,
              29.681299
            ],
            [
              -81.9513579,
              29.6815246
            ],
            [
              -81.9516162,
              29.6815228
            ],
            [
              -81.9516141,
              29.6812972
            ],
            [
              -81.9513558,
              29.681299
            ]
          ]
        ]
      }
    },
    {
      "type": "Feature",
      "properties": {
        "cell_id": "6_0",
        "score": 68.3,
        "grade": "B",
        "canopy_cover": 0.541,
        "structural_diversity": 4.75,
        "loss_density": 0.0032
      },
      "geometry": {
        "type": "Polygon",
        "coordinates": [
          [
            [
              -81.9536788,
              29.6810567
            ],
            [
              -81.9536809,
              29.6812823
            ],
            [
              -81.9539393,
              29.6812805
            ],
            [
              -81.9539371,
              29.6810549
            ],
            [
              -81.9536788,
              29.6810567
            ]
          ]
        ]
      }
    },
    {
      "type": "Feature",
      "properties": {
        "cell_id": "6_1",
        "score": 26.9,
        "grade": "D",
        "canopy_cover": 0.746,
        "structural_diversity": 2.66,
        "loss_density": 0.0256
      },
      "geometry": {
        "type": "Polygon",
        "coordinates": [
          [
            [
              -81.9534204,
              29.6810586
            ],
            [
              -81.9534226,
              29.6812842
            ],
            [
              -81.9536809,
              29.6812823
            ],
            [
              -81.9536788,
              29.6810567
            ],
            [
              -81.9534204,
              29.6810586
            ]
          ]
        ]
      }
    },
    {
      "type": "Feature",
      "properties": {
        "cell_id": "6_2",
        "score": 34.3,
        "grade": "D",
        "canopy_cover": 0.934,
        "structural_diversity": 2.01,
        "loss_density": 0.0112
      },
      "geometry": {
        "type": "Polygon",
        "coordinates": [
          [
            [
              -81.9531621,
              29.6810605
            ],
            [
              -81.9531642,
              29.6812861
            ],
            [
              -81.9534226,
              29.6812842
            ],
            [
              -81.9534204,
              29.6810586
            ],
            [
              -81.9531621,
              29.6810605
            ]
          ]
        ]
      }
    },
    {
      "type": "Feature",
      "properties": {
        "cell_id": "6_3",
        "score": 96.9,
        "grade": "A",
        "canopy_cover": 0.933,
        "structural_diversity": 4.76,
        "loss_density": 0.0
      },
      "geometry": {
        "type": "Polygon",
        "coordinates": [
          [
            [
              -81.9529037,
              29.6810623
            ],
            [
              -81.9529059,
              29.6812879
            ],
            [
              -81.9531642,
              29.6812861
            ],
            [
              -81.9531621,
              29.6810605
            ],
            [
              -81.9529037,
              29.6810623
            ]
          ]
        ]
      }
    },
    {
      "type": "Feature",
      "properties": {
        "cell_id": "6_4",
        "score": 84.1,
        "grade": "A",
        "canopy_cover": 0.653,
        "structural_diversity": 5.22,
        "loss_density": 0.0
      },
      "geometry": {
        "type": "Polygon",
        "coordinates": [
          [
            [
              -81.9526454,
              29.6810642
            ],
            [
              -81.9526475,
              29.6812898
            ],
            [
              -81.9529059,
              29.6812879
            ],
            [
              -81.9529037,
              29.6810623
            ],
            [
              -81.9526454,
              29.6810642
            ]
          ]
        ]
      }
    },
    {
      "type": "Feature",
      "properties": {
        "cell_id": "6_5",
        "score": 65.9,
        "grade": "B",
        "canopy_cover": 0.698,
        "structural_diversity": 4.28,
        "loss_density": 0.0048
      },
      "geometry": {
        "type": "Polygon",
        "coordinates": [
          [
            [
              -81.952387,
              29.681066
            ],
            [
              -81.9523892,
              29.6812916
            ],
            [
              -81.9526475,
              29.6812898
            ],
            [
              -81.9526454,
              29.6810642
            ],
            [
              -81.952387,
              29.681066
            ]
          ]
        ]
      }
    },
    {
      "type": "Feature",
      "properties": {
        "cell_id": "6_6",
        "score": 66.4,
        "grade": "B",
        "canopy_cover": 0.867,
        "structural_diversity": 3.53,
        "loss_density": 0.0048
      },
      "geometry": {
        "type": "Polygon",
        "coordinates": [
          [
            [
              -81.9521287,
              29.6810679
            ],
            [
              -81.9521308,
              29.6812935
            ],
            [
              -81.9523892,
              29.6812916
            ],
            [
              -81.952387,
              29.681066
            ],
            [
              -81.9521287,
              29.6810679
            ]
          ]
        ]
      }
    },
    {
      "type": "Feature",
      "properties": {
        "cell_id": "6_7",
        "score": 75.4,
        "grade": "B",
        "canopy_cover": 0.978,
        "structural_diversity": 2.41,
        "loss_density": 0.0
      },
      "geometry": {
        "type": "Polygon",
        "coordinates": [
          [
            [
              -81.9518703,
              29.6810697
            ],
            [
              -81.9518725,
              29.6812953
            ],
            [
              -81.9521308,
              29.6812935
            ],
            [
              -81.9521287,
              29.6810679
            ],
            [
              -81.9518703,
              29.6810697
            ]
          ]
        ]
      }
    },
    {
      "type": "Feature",
      "properties": {
        "cell_id": "6_8",
        "score": 70.0,
        "grade": "B",
        "canopy_cover": 1.0,
        "structural_diversity": 1.14,
        "loss_density": 0.0
      },
      "geometry": {
        "type": "Polygon",
        "coordinates": [
          [
            [
              -81.951612,
              29.6810716
            ],
            [
              -81.9516141,
              29.6812972
            ],
            [
              -81.9518725,
              29.6812953
            ],
            [
              -81.9518703,
              29.6810697
            ],
            [
              -81.951612,
              29.6810716
            ]
          ]
        ]
      }
    },
    {
      "type": "Feature",
      "properties": {
        "cell_id": "6_9",
        "score": 65.2,
        "grade": "B",
        "canopy_cover": 0.818,
        "structural_diversity": 2.15,
        "loss_density": 0.0
      },
      "geometry": {
        "type": "Polygon",
        "coordinates": [
          [
            [
              -81.9513536,
              29.6810735
            ],
            [
              -81.9513558,
              29.681299
            ],
            [
              -81.9516141,
              29.6812972
            ],
            [
              -81.951612,
              29.6810716
            ],
            [
              -81.9513536,
              29.6810735
            ]
          ]
        ]
      }
    },
    {
      "type": "Feature",
      "properties": {
        "cell_id": "7_0",
        "score": 43.8,
        "grade": "D",
        "canopy_cover": 0.576,
        "structural_diversity": 3.65,
        "loss_density": 0.008
      },
      "geometry": {
        "type": "Polygon",
        "coordinates": [
          [
            [
              -81.9536767,
              29.6808311
            ],
            [
              -81.9536788,
              29.6810567
            ],
            [
              -81.9539371,
              29.6810549
            ],
            [
              -81.953935,
              29.6808293
            ],
            [
              -81.9536767,
              29.6808311
            ]
          ]
        ]
      }
    },
    {
      "type": "Feature",
      "properties": {
        "cell_id": "7_1",
        "score": 61.0,
        "grade": "C",
        "canopy_cover": 0.573,
        "structural_diversity": 3.87,
        "loss_density": 0.0032
      },
      "geometry": {
        "type": "Polygon",
        "coordinates": [
          [
            [
              -81.9534183,
              29.680833
            ],
            [
              -81.9534204,
              29.6810586
            ],
            [
              -81.9536788,
              29.6810567
            ],
            [
              -81.9536767,
              29.6808311
            ],
            [
              -81.9534183,
              29.680833
            ]
          ]
        ]
      }
    },
    {
      "type": "Feature",
      "properties": {
        "cell_id": "7_2",
        "score": 50.8,
        "grade": "C",
        "canopy_cover": 0.454,
        "structural_diversity": 3.42,
        "loss_density": 0.0032
      },
      "geometry": {
        "type": "Polygon",
        "coordinates": [
          [
            [
              -81.95316,
              29.6808349
            ],
            [
              -81.9531621,
              29.6810605
            ],
            [
              -81.9534204,
              29.6810586
            ],
            [
              -81.9534183,
              29.680833
            ],
            [
              -81.95316,
              29.6808349
            ]
          ]
        ]
      }
    },
    {
      "type": "Feature",
      "properties": {
        "cell_id": "7_3",
        "score": 40.9,
        "grade": "D",
        "canopy_cover": 0.571,
        "structural_diversity": 2.38,
        "loss_density": 0.0048
      },
      "geometry": {
        "type": "Polygon",
        "coordinates": [
          [
            [
              -81.9529016,
              29.6808367
            ],
            [
              -81.9529037,
              29.6810623
            ],
            [
              -81.9531621,
              29.6810605
            ],
            [
              -81.95316,
              29.6808349
            ],
            [
              -81.9529016,
              29.6808367
            ]
          ]
        ]
      }
    },
    {
      "type": "Feature",
      "properties": {
        "cell_id": "7_4",
        "score": 43.3,
        "grade": "D",
        "canopy_cover": 0.606,
        "structural_diversity": 3.45,
        "loss_density": 0.008
      },
      "geometry": {
        "type": "Polygon",
        "coordinates": [
          [
            [
              -81.9526433,
              29.6808386
            ],
            [
              -81.9526454,
              29.6810642
            ],
            [
              -81.9529037,
              29.6810623
            ],
            [
              -81.9529016,
              29.6808367
            ],
            [
              -81.9526433,
              29.6808386
            ]
          ]
        ]
      }
    },
    {
      "type": "Feature",
      "properties": {
        "cell_id": "7_5",
        "score": 35.0,
        "grade": "D",
        "canopy_cover": 0.566,
        "structural_diversity": 3.31,
        "loss_density": 0.0096
      },
      "geometry": {
        "type": "Polygon",
        "coordinates": [
          [
            [
              -81.9523849,
              29.6808404
            ],
            [
              -81.952387,
              29.681066
            ],
            [
              -81.9526454,
              29.6810642
            ],
            [
              -81.9526433,
              29.6808386
            ],
            [
              -81.9523849,
              29.6808404
            ]
          ]
        ]
      }
    },
    {
      "type": "Feature",
      "properties": {
        "cell_id": "7_6",
        "score": 44.5,
        "grade": "D",
        "canopy_cover": 0.891,
        "structural_diversity": 2.73,
        "loss_density": 0.0096
      },
      "geometry": {
        "type": "Polygon",
        "coordinates": [
          [
            [
              -81.9521266,
              29.6808423
            ],
            [
              -81.9521287,
              29.6810679
            ],
            [
              -81.952387,
              29.681066
            ],
            [
              -81.9523849,
              29.6808404
            ],
            [
              -81.9521266,
              29.6808423
            ]
          ]
        ]
      }
    },
    {
      "type": "Feature",
      "properties": {
        "cell_id": "7_7",
        "score": 77.5,
        "grade": "B",
        "canopy_cover": 0.99,
        "structural_diversity": 2.57,
        "loss_density": 0.0
      },
      "geometry": {
        "type": "Polygon",
        "coordinates": [
          [
            [
              -81.9518682,
              29.6808441
            ],
            [
              -81.9518703,
              29.6810697
            ],
            [
              -81.9521287,
              29.6810679
            ],
            [
              -81.9521266,
              29.6808423
            ],
            [
              -81.9518682,
              29.6808441
            ]
          ]
        ]
      }
    },
    {
      "type": "Feature",
      "properties": {
        "cell_id": "7_8",
        "score": 72.1,
        "grade": "B",
        "canopy_cover": 0.93,
        "structural_diversity": 2.31,
        "loss_density": 0.0
      },
      "geometry": {
        "type": "Polygon",
        "coordinates": [
          [
            [
              -81.9516099,
              29.680846
            ],
            [
              -81.951612,
              29.6810716
            ],
            [
              -81.9518703,
              29.6810697
            ],
            [
              -81.9518682,
              29.6808441
            ],
            [
              -81.9516099,
              29.680846
            ]
          ]
        ]
      }
    },
    {
      "type": "Feature",
      "properties": {
        "cell_id": "7_9",
        "score": 52.0,
        "grade": "C",
        "canopy_cover": 0.675,
        "structural_diversity": 3.0,
        "loss_density": 0.0048
      },
      "geometry": {
        "type": "Polygon",
        "coordinates": [
          [
            [
              -81.9513515,
              29.6808479
            ],
            [
              -81.9513536,
              29.6810735
            ],
            [
              -81.951612,
              29.6810716
            ],
            [
              -81.9516099,
              29.680846
            ],
            [
              -81.9513515,
              29.6808479
            ]
          ]
        ]
      }
    },
    {
      "type": "Feature",
      "properties": {
        "cell_id": "8_0",
        "score": 49.5,
        "grade": "D",
        "canopy_cover": 0.395,
        "structural_diversity": 3.06,
        "loss_density": 0.0016
      },
      "geometry": {
        "type": "Polygon",
        "coordinates": [
          [
            [
              -81.9536745,
              29.6806055
            ],
            [
              -81.9536767,
              29.6808311
            ],
            [
              -81.953935,
              29.6808293
            ],
            [
              -81.9539329,
              29.6806037
            ],
            [
              -81.9536745,
              29.6806055
            ]
          ]
        ]
      }
    },
    {
      "type": "Feature",
      "properties": {
        "cell_id": "8_1",
        "score": 62.2,
        "grade": "C",
        "canopy_cover": 0.485,
        "structural_diversity": 3.91,
        "loss_density": 0.0016
      },
      "geometry": {
        "type": "Polygon",
        "coordinates": [
          [
            [
              -81.9534162,
              29.6806074
            ],
            [
              -81.9534183,
              29.680833
            ],
            [
              -81.9536767,
              29.6808311
            ],
            [
              -81.9536745,
              29.6806055
            ],
            [
              -81.9534162,
              29.6806074
            ]
          ]
        ]
      }
    },
    {
      "type": "Feature",
      "properties": {
        "cell_id": "8_2",
        "score": 65.1,
        "grade": "B",
        "canopy_cover": 0.418,
        "structural_diversity": 4.02,
        "loss_density": 0.0
      },
      "geometry": {
        "type": "Polygon",
        "coordinates": [
          [
            [
              -81.9531578,
              29.6806093
            ],
            [
              -81.95316,
              29.6808349
            ],
            [
              -81.9534183,
              29.680833
            ],
            [
              -81.9534162,
              29.6806074
            ],
            [
              -81.9531578,
              29.6806093
            ]
          ]
        ]
      }
    },
    {
      "type": "Feature",
      "properties": {
        "cell_id": "8_3",
        "score": 48.9,
        "grade": "D",
        "canopy_cover": 0.44,
        "structural_diversity": 3.29,
        "loss_density": 0.0032
      },
      "geometry": {
        "type": "Polygon",
        "coordinates": [
          [
            [
              -81.9528995,
              29.6806111
            ],
            [
              -81.9529016,
              29.6808367
            ],
            [
              -81.95316,
              29.6808349
            ],
            [
              -81.9531578,
              29.6806093
            ],
            [
              -81.9528995,
              29.6806111
            ]
          ]
        ]
      }
    },
    {
      "type": "Feature",
      "properties": {
        "cell_id": "8_4",
        "score": 62.5,
        "grade": "C",
        "canopy_cover": 0.499,
        "structural_diversity": 3.88,
        "loss_density": 0.0016
      },
      "geometry": {
        "type": "Polygon",
        "coordinates": [
          [
            [
              -81.9526411,
              29.680613
            ],
            [
              -81.9526433,
              29.6808386
            ],
            [
              -81.9529016,
              29.6808367
            ],
            [
              -81.9528995,
              29.6806111
            ],
            [
              -81.9526411,
              29.680613
            ]
          ]
        ]
      }
    },
    {
      "type": "Feature",
      "properties": {
        "cell_id": "8_5",
        "score": 60.1,
        "grade": "C",
        "canopy_cover": 0.414,
        "structural_diversity": 4.03,
        "loss_density": 0.0016
      },
      "geometry": {
        "type": "Polygon",
        "coordinates": [
          [
            [
              -81.9523828,
              29.6806148
            ],
            [
              -81.9523849,
              29.6808404
            ],
            [
              -81.9526433,
              29.6808386
            ],
            [
              -81.9526411,
              29.680613
            ],
            [
              -81.9523828,
              29.6806148
            ]
          ]
        ]
      }
    },
    {
      "type": "Feature",
      "properties": {
        "cell_id": "8_6",
        "score": 53.6,
        "grade": "C",
        "canopy_cover": 0.622,
        "structural_diversity": 2.91,
        "loss_density": 0.0032
      },
      "geometry": {
        "type": "Polygon",
        "coordinates": [
          [
            [
              -81.9521244,
              29.6806167
            ],
            [
              -81.9521266,
              29.6808423
            ],
            [
              -81.9523849,
              29.6808404
            ],
            [
              -81.9523828,
              29.6806148
            ],
            [
              -81.9521244,
              29.6806167
            ]
          ]
        ]
      }
    },
    {
      "type": "Feature",
      "properties": {
        "cell_id": "8_7",
        "score": 56.3,
        "grade": "C",
        "canopy_cover": 0.779,
        "structural_diversity": 3.44,
        "loss_density": 0.0064
      },
      "geometry": {
        "type": "Polygon",
        "coordinates": [
          [
            [
              -81.9518661,
              29.6806186
            ],
            [
              -81.9518682,
              29.6808441
            ],
            [
              -81.9521266,
              29.6808423
            ],
            [
              -81.9521244,
              29.6806167
            ],
            [
              -81.9518661,
              29.6806186
            ]
          ]
        ]
      }
    },
    {
      "type": "Feature",
      "properties": {
        "cell_id": "8_8",
        "score": 59.2,
        "grade": "C",
        "canopy_cover": 0.838,
        "structural_diversity": 1.95,
        "loss_density": 0.0016
      },
      "geometry": {
        "type": "Polygon",
        "coordinates": [
          [
            [
              -81.9516077,
              29.6806204
            ],
            [
              -81.9516099,
              29.680846
            ],
            [
              -81.9518682,
              29.6808441
            ],
            [
              -81.9518661,
              29.6806186
            ],
            [
              -81.9516077,
              29.6806204
            ]
          ]
        ]
      }
    },
    {
      "type": "Feature",
      "properties": {
        "cell_id": "8_9",
        "score": 74.3,
        "grade": "B",
        "canopy_cover": 0.819,
        "structural_diversity": 3.04,
        "loss_density": 0.0
      },
      "geometry": {
        "type": "Polygon",
        "coordinates": [
          [
            [
              -81.9513494,
              29.6806223
            ],
            [
              -81.9513515,
              29.6808479
            ],
            [
              -81.9516099,
              29.680846
            ],
            [
              -81.9516077,
              29.6806204
            ],
            [
              -81.9513494,
              29.6806223
            ]
          ]
        ]
      }
    },
    {
      "type": "Feature",
      "properties": {
        "cell_id": "9_0",
        "score": 19.1,
        "grade": "D",
        "canopy_cover": 0.55,
        "structural_diversity": 2.29,
        "loss_density": 0.0112
      },
      "geometry": {
        "type": "Polygon",
        "coordinates": [
          [
            [
              -81.9536724,
              29.68038
            ],
            [
              -81.9536745,
              29.6806055
            ],
            [
              -81.9539329,
              29.6806037
            ],
            [
              -81.9539307,
              29.6803781
            ],
            [
              -81.9536724,
              29.68038
            ]
          ]
        ]
      }
    },
    {
      "type": "Feature",
      "properties": {
        "cell_id": "9_1",
        "score": 36.9,
        "grade": "D",
        "canopy_cover": 0.437,
        "structural_diversity": 3.61,
        "loss_density": 0.008
      },
      "geometry": {
        "type": "Polygon",
        "coordinates": [
          [
            [
              -81.9534141,
              29.6803818
            ],
            [
              -81.9534162,
              29.6806074
            ],
            [
              -81.9536745,
              29.6806055
            ],
            [
              -81.9536724,
              29.68038
            ],
            [
              -81.9534141,
              29.6803818
            ]
          ]
        ]
      }
    },
    {
      "type": "Feature",
      "properties": {
        "cell_id": "9_2",
        "score": 58.7,
        "grade": "C",
        "canopy_cover": 0.469,
        "structural_diversity": 3.64,
        "loss_density": 0.0016
      },
      "geometry": {
        "type": "Polygon",
        "coordinates": [
          [
            [
              -81.9531557,
              29.6803837
            ],
            [
              -81.9531578,
              29.6806093
            ],
            [
              -81.9534162,
              29.6806074
            ],
            [
              -81.9534141,
              29.6803818
            ],
            [
              -81.9531557,
              29.6803837
            ]
          ]
        ]
      }
    },
    {
      "type": "Feature",
      "properties": {
        "cell_id": "9_3",
        "score": 63.9,
        "grade": "C",
        "canopy_cover": 0.36,
        "structural_diversity": 4.66,
        "loss_density": 0.0016
      },
      "geometry": {
        "type": "Polygon",
        "coordinates": [
          [
            [
              -81.9528974,
              29.6803855
            ],
            [
              -81.9528995,
              29.6806111
            ],
            [
              -81.9531578,
              29.6806093
            ],
            [
              -81.9531557,
              29.6803837
            ],
            [
              -81.9528974,
              29.6803855
            ]
          ]
        ]
      }
    },
    {
      "type": "Feature",
      "properties": {
        "cell_id": "9_4",
        "score": 69.8,
        "grade": "B",
        "canopy_cover": 0.504,
        "structural_diversity": 4.08,
        "loss_density": 0.0
      },
      "geometry": {
        "type": "Polygon",
        "coordinates": [
          [
            [
              -81.952639,
              29.6803874
            ],
            [
              -81.9526411,
              29.680613
            ],
            [
              -81.9528995,
              29.6806111
            ],
            [
              -81.9528974,
              29.6803855
            ],
            [
              -81.952639,
              29.6803874
            ]
          ]
        ]
      }
    },
    {
      "type": "Feature",
      "properties": {
        "cell_id": "9_5",
        "score": 62.8,
        "grade": "C",
        "canopy_cover": 0.674,
        "structural_diversity": 3.58,
        "loss_density": 0.0032
      },
      "geometry": {
        "type": "Polygon",
        "coordinates": [
          [
            [
              -81.9523807,
              29.6803892
            ],
            [
              -81.9523828,
              29.6806148
            ],
            [
              -81.9526411,
              29.680613
            ],
            [
              -81.952639,
              29.6803874
            ],
            [
              -81.9523807,
              29.6803892
            ]
          ]
        ]
      }
    },
    {
      "type": "Feature",
      "properties": {
        "cell_id": "9_6",
        "score": 20.4,
        "grade": "D",
        "canopy_cover": 0.491,
        "structural_diversity": 3.2,
        "loss_density": 0.0224
      },
      "geometry": {
        "type": "Polygon",
        "coordinates": [
          [
            [
              -81.9521223,
              29.6803911
            ],
            [
              -81.9521244,
              29.6806167
            ],
            [
              -81.9523828,
              29.6806148
            ],
            [
              -81.9523807,
              29.6803892
            ],
            [
              -81.9521223,
              29.6803911
            ]
          ]
        ]
      }
    },
    {
      "type": "Feature",
      "properties": {
        "cell_id": "9_7",
        "score": 53.2,
        "grade": "C",
        "canopy_cover": 0.77,
        "structural_diversity": 3.17,
        "loss_density": 0.0064
      },
      "geometry": {
        "type": "Polygon",
        "coordinates": [
          [
            [
              -81.951864,
              29.680393
            ],
            [
              -81.9518661,
              29.6806186
            ],
            [
              -81.9521244,
              29.6806167
            ],
            [
              -81.9521223,
              29.6803911
            ],
            [
              -81.951864,
              29.680393
            ]
          ]
        ]
      }
    },
    {
      "type": "Feature",
      "properties": {
        "cell_id": "9_8",
        "score": 35.0,
        "grade": "D",
        "canopy_cover": 0.779,
        "structural_diversity": 1.77,
        "loss_density": 0.008
      },
      "geometry": {
        "type": "Polygon",
        "coordinates": [
          [
            [
              -81.9516056,
              29.6803948
            ],
            [
              -81.9516077,
              29.6806204
            ],
            [
              -81.9518661,
              29.6806186
            ],
            [
              -81.951864,
              29.680393
            ],
            [
              -81.9516056,
              29.6803948
            ]
          ]
        ]
      }
    },
    {
      "type": "Feature",
      "properties": {
        "cell_id": "9_9",
        "score": 70.7,
        "grade": "B",
        "canopy_cover": 0.448,
        "structural_diversity": 4.44,
        "loss_density": 0.0
      },
      "geometry": {
        "type": "Polygon",
        "coordinates": [
          [
            [
              -81.9513473,
              29.6803967
            ],
            [
              -81.9513494,
              29.6806223
            ],
            [
              -81.9516077,
              29.6806204
            ],
            [
              -81.9516056,
              29.6803948
            ],
            [
              -81.9513473,
              29.6803967
            ]
          ]
        ]
      }
    }
  ]
}