{
  "type": "FeatureCollection",
  "name": "OSBS_022_2019_verification_priority",
  "crs": {
    "type": "name",
    "properties": {
      "name": "urn:ogc:def:crs:OGC:1.3:CRS84"
    }
  },
  "features": [
    {
      "type": "Feature",
      "properties": {
        "tree_id": 1,
        "label": "Tree",
        "confidence": 0.794,
        "pixel_xmin": 198.66,
        "pixel_ymin": 163.17,
        "pixel_xmax": 234.36,
        "pixel_ymax": 204.12,
        "pixel_center_x": 216.51,
        "pixel_center_y": 183.65,
        "geo_easting": 407055.801,
        "geo_northing": 3284765.785,
        "inside_boundary": true,
        "verification_priority": "HIGH",
        "priority_reason": "Inside project corridor (corridor impact, statutory check) [Base: LOW]",
        "priority_rank": 1
      },
      "geometry": {
        "type": "Point",
        "coordinates": [
          -81.960675,
          29.6894962
        ]
      }
    },
    {
      "type": "Feature",
      "properties": {
        "tree_id": 2,
        "label": "Tree",
        "confidence": 0.6995,
        "pixel_xmin": 363.01,
        "pixel_ymin": 110.72,
        "pixel_xmax": 398.65,
        "pixel_ymax": 151.34,
        "pixel_center_x": 380.83,
        "pixel_center_y": 131.03,
        "geo_easting": 407072.233,
        "geo_northing": 3284771.047,
        "inside_boundary": false,
        "verification_priority": "LOW",
        "priority_reason": "High detection confidence (> 0.65)",
        "priority_rank": 3
      },
      "geometry": {
        "type": "Point",
        "coordinates": [
          -81.9605056,
          29.6895449
        ]
      }
    },
    {
      "type": "Feature",
      "properties": {
        "tree_id": 3,
        "label": "Tree",
        "confidence": 0.5583,
        "pixel_xmin": 348.2,
        "pixel_ymin": 283.15,
        "pixel_xmax": 393.9,
        "pixel_ymax": 332.37,
        "pixel_center_x": 371.05,
        "pixel_center_y": 307.76,
        "geo_easting": 407071.255,
        "geo_northing": 3284753.374,
        "inside_boundary": false,
        "verification_priority": "MEDIUM",
        "priority_reason": "Moderate detection confidence (0.50 - 0.65)",
        "priority_rank": 2
      },
      "geometry": {
        "type": "Point",
        "coordinates": [
          -81.9605142,
          29.6893854
        ]
      }
    },
    {
      "type": "Feature",
      "properties": {
        "tree_id": 4,
        "label": "Tree",
        "confidence": 0.4539,
        "pixel_xmin": 306.34,
        "pixel_ymin": 286.46,
        "pixel_xmax": 347.84,
        "pixel_ymax": 335.8,
        "pixel_center_x": 327.09,
        "pixel_center_y": 311.13,
        "geo_easting": 407066.859,
        "geo_northing": 3284753.037,
        "inside_boundary": false,
        "verification_priority": "HIGH",
        "priority_reason": "Low detection confidence (< 0.50)",
        "priority_rank": 1
      },
      "geometry": {
        "type": "Point",
        "coordinates": [
          -81.9605596,
          29.689382
        ]
      }
    },
    {
      "type": "Feature",
      "properties": {
        "tree_id": 5,
        "label": "Tree",
        "confidence": 0.4199,
        "pixel_xmin": 279.04,
        "pixel_ymin": 140.67,
        "pixel_xmax": 304.63,
        "pixel_ymax": 167.46,
        "pixel_center_x": 291.84,
        "pixel_center_y": 154.07,
        "geo_easting": 407063.334,
        "geo_northing": 3284768.743,
        "inside_boundary": true,
        "verification_priority": "HIGH",
        "priority_reason": "Inside project corridor (corridor impact) & Low confidence",
        "priority_rank": 1
      },
      "geometry": {
        "type": "Point",
        "coordinates": [
          -81.9605974,
          29.6895235
        ]
      }
    }
  ]
}