{
  "type": "FeatureCollection",
  "name": "OSBS_large_2019_boundary",
  "crs": {
    "type": "name",
    "properties": {
      "name": "urn:ogc:def:crs:OGC:1.3:CRS84"
    }
  },
  "features": [
    {
      "type": "Feature",
      "properties": {
        "name": "OSBS Large 2019 Infrastructure Corridor",
        "area_sq_m": 15000.0,
        "tile_coverage_pct": 24.0
      },
      "geometry": {
        "type": "Polygon",
        "coordinates": [
          [
            [
              -81.953935,
              29.6808293
            ],
            [
              -81.9539401,
              29.6813707
            ],
            [
              -81.9513651,
              29.6822917
            ],
            [
              -81.95136,
              29.6817502
            ],
            [
              -81.953935,
              29.6808293
            ]
          ]
        ]
      }
    }
  ]
}