{
"type": "FeatureCollection",
"name": "OSBS_022_2019_field_route_lcp",
"crs": { "type": "name", "properties": { "name": "urn:ogc:def:crs:OGC:1.3:CRS84" } },
"features": [
{ "type": "Feature", "properties": { "route_name": "OSBS_022 Terrain-Aware Dijkstra Least-Cost Path", "total_physical_distance_meters": 59.39, "total_least_cost_score": 111.35, "straight_line_baseline_distance_meters": 54.8, "detour_increase_pct": 8.38, "stops_count": 3, "visiting_sequence": "Ranger Base / Entry Point -> Tree #1 -> Tree #5 -> Tree #4", "cost_surface_model": "Excess Green Index (ExG = 2G - R - B) scaled to [1.0, 5.0]", "grid_resolution_meters": 0.2, "grid_dimensions": "200x200", "methodology_notes": "8-connected grid graph over 200x200 ExG vegetation impedance surface. Calculates least-cost path avoiding high-density canopy barriers." }, "geometry": { "type": "LineString", "coordinates": [ [ -81.960896409007333, 29.689300713204464 ], [ -81.960894359216198, 29.689302532949441 ], [ -81.960892292254172, 29.689302547942027 ], [ -81.960890242462924, 29.689304367686947 ], [ -81.960888175500841, 29.689304382679484 ], [ -81.960886108538773, 29.689304397671972 ], [ -81.960884058747382, 29.689306217416799 ], [ -81.960881991785257, 29.689306232409233 ], [ -81.960879924823146, 29.689306247401625 ], [ -81.960877875031599, 29.689308067146346 ], [ -81.960875825239981, 29.68930988689106 ], [ -81.960873775448277, 29.689311706635724 ], [ -81.960871725656503, 29.689313526380374 ], [ -81.960869675864657, 29.689315346124982 ], [ -81.960867608902348, 29.689315361117202 ], [ -81.960865559110388, 29.689317180861739 ], [ -81.960863492148036, 29.689317195853878 ], [ -81.960861442355977, 29.689319015598379 ], [ -81.960859392563819, 29.689320835342834 ], [ -81.960857342771604, 29.68932265508726 ], [ -81.960855275809138, 29.689322670079282 ], [ -81.960853226016809, 29.689324489823655 ], [ -81.960851176224409, 29.689326309567985 ], [ -81.960849109261858, 29.689326324559904 ], [ -81.960847059469344, 29.689328144304188 ], [ -81.96084499250675, 29.689328159296046 ], [ -81.960842925544171, 29.689328174287869 ], [ -81.960840875751501, 29.689329994032054 ], [ -81.96083882595876, 29.689331813776203 ], [ -81.960836776165948, 29.689333633520317 ], [ -81.960836793335787, 29.689335438272707 ], [ -81.960836810505654, 29.689337243025093 ], [ -81.960836827675493, 29.689339047777477 ], [ -81.960834777882496, 29.689340867521572 ], [ -81.960832728089429, 29.689342687265633 ], [ -81.96083067829629, 29.689344507009658 ], [ -81.960830695466029, 29.689346311762041 ], [ -81.960828645672791, 29.689348131506033 ], [ -81.960826595879453, 29.689349951250009 ], [ -81.960824528916419, 29.689349966241558 ], [ -81.960822479122982, 29.689351785985476 ], [ -81.96082041215989, 29.689351800976954 ], [ -81.960818362366339, 29.689353620720802 ], [ -81.96081629540322, 29.689353635712227 ], [ -81.960814245609555, 29.689355455456013 ], [ -81.960812195815819, 29.689357275199772 ], [ -81.960810128852614, 29.689357290191101 ], [ -81.960808079058779, 29.689359109934792 ], [ -81.960806029264845, 29.689360929678461 ], [ -81.960803979470839, 29.689362749422077 ], [ -81.960801929676776, 29.68936456916569 ], [ -81.960799862713415, 29.689364584156863 ], [ -81.960797812919225, 29.689366403900394 ], [ -81.960795763124977, 29.6893682236439 ], [ -81.96079578029412, 29.689370028396304 ], [ -81.960793730499759, 29.689371848139775 ], [ -81.960793747668859, 29.689373652892179 ], [ -81.960791697874384, 29.689375472635625 ], [ -81.960791715043456, 29.689377277388022 ], [ -81.960789665248868, 29.68937909713144 ], [ -81.960787615454208, 29.689380916874835 ], [ -81.960787632623209, 29.689382721627226 ], [ -81.960785582828436, 29.689384541370583 ], [ -81.960783533033606, 29.689386361113907 ], [ -81.960781483238691, 29.689388180857204 ], [ -81.960779433443705, 29.689390000600465 ], [ -81.960777366479803, 29.689390015591304 ], [ -81.960775316684717, 29.689391835334508 ], [ -81.960773249720773, 29.689391850325283 ], [ -81.960771199925574, 29.689393670068423 ], [ -81.960769150130275, 29.689395489811538 ], [ -81.96076710033492, 29.689397309554629 ], [ -81.960765050539479, 29.689399129297676 ], [ -81.960765067708095, 29.689400934050074 ], [ -81.960763017912541, 29.689402753793093 ], [ -81.960760968116915, 29.689404573536088 ], [ -81.960758918321233, 29.689406393279043 ], [ -81.960758935489736, 29.689408198031447 ], [ -81.960756885693939, 29.689410017774382 ], [ -81.960756902862414, 29.689411822526793 ], [ -81.960754853066504, 29.689413642269699 ], [ -81.960752803270523, 29.689415462012565 ], [ -81.960752820438927, 29.689417266764963 ], [ -81.96075283760733, 29.689419071517378 ], [ -81.960750787811193, 29.689420891260205 ], [ -81.960748738014999, 29.689422711003015 ], [ -81.960746688218734, 29.689424530745793 ], [ -81.960746705387038, 29.689426335498194 ], [ -81.960746722555342, 29.689428140250619 ], [ -81.960746739723632, 29.68942994500301 ], [ -81.960746756891936, 29.689431749755425 ], [ -81.960744707095458, 29.689433569498178 ], [ -81.96074265729888, 29.689435389240895 ], [ -81.960740607502245, 29.689437208983584 ], [ -81.960738557705525, 29.689439028726241 ], [ -81.960736507908749, 29.689440848468873 ], [ -81.960734458111887, 29.689442668211473 ], [ -81.960732408314954, 29.689444487954038 ], [ -81.960732425483016, 29.689446292706457 ], [ -81.960730375685969, 29.689448112448986 ], [ -81.960730392853989, 29.689449917201394 ], [ -81.960728343056829, 29.689451736943905 ], [ -81.960726293259611, 29.689453556686377 ], [ -81.960724243462309, 29.689455376428825 ], [ -81.960722193664935, 29.689457196171233 ], [ -81.960722210832827, 29.689459000923655 ], [ -81.96072016103534, 29.689460820666039 ], [ -81.960718111237782, 29.689462640408394 ], [ -81.960716061440152, 29.689464460150727 ], [ -81.960714011642438, 29.689466279893008 ], [ -81.960711961844666, 29.68946809963527 ], [ -81.960709912046795, 29.689469919377519 ], [ -81.960707862248867, 29.689471739119714 ], [ -81.96070579528326, 29.689471754109462 ], [ -81.960703728317654, 29.689471769099189 ], [ -81.960701661352047, 29.68947178408888 ], [ -81.960699611553935, 29.689473603830965 ], [ -81.960697561755737, 29.689475423573004 ], [ -81.960695511957482, 29.689477243315025 ], [ -81.960693462159142, 29.689479063057007 ], [ -81.960691412360717, 29.689480882798971 ], [ -81.960689362562235, 29.689482702540904 ], [ -81.960687312763682, 29.68948452228279 ], [ -81.960685262965043, 29.689486342024658 ], [ -81.960683213166348, 29.689488161766494 ], [ -81.960681163367568, 29.689489981508292 ], [ -81.960679113568702, 29.689491801250071 ], [ -81.960677063769779, 29.689493620991811 ], [ -81.960675013970771, 29.68949544073352 ], [ -81.960672947004667, 29.689495455722767 ], [ -81.960670880038549, 29.689495470711989 ], [ -81.960668813072431, 29.689495485701176 ], [ -81.960666763273224, 29.689497305442774 ], [ -81.960664713473975, 29.689499125184327 ], [ -81.960662663674626, 29.689500944925854 ], [ -81.96066061387522, 29.689502764667353 ], [ -81.960658546908945, 29.689502779656387 ], [ -81.960656497109412, 29.689504599397807 ], [ -81.960654447309821, 29.689506419139214 ], [ -81.960652397510145, 29.689508238880592 ], [ -81.960650347710384, 29.689510058621938 ], [ -81.960648280743968, 29.689510073610808 ], [ -81.960646230944107, 29.689511893352098 ], [ -81.960644163977648, 29.689511908340908 ], [ -81.960642097011174, 29.689511923329686 ], [ -81.960640047211157, 29.689513743070865 ], [ -81.960637980244655, 29.689513758059579 ], [ -81.960635913278153, 29.689513773048269 ], [ -81.960633846311637, 29.689513788036919 ], [ -81.960631796511436, 29.689515607777995 ], [ -81.960629746711163, 29.689517427519025 ], [ -81.960627679744576, 29.689517442507587 ], [ -81.960625612777989, 29.689517457496109 ], [ -81.960623545811387, 29.689517472484599 ], [ -81.9606214788448, 29.689517487473058 ], [ -81.960619411878199, 29.689517502461495 ], [ -81.960617344911597, 29.689517517449882 ], [ -81.960615277944996, 29.689517532438245 ], [ -81.960613210978408, 29.689517547426586 ], [ -81.960611144011807, 29.689517562414878 ], [ -81.960609094211122, 29.689519382155602 ], [ -81.960607027244464, 29.689519397143833 ], [ -81.960604977443666, 29.689521216884504 ], [ -81.960602910476993, 29.689521231872678 ], [ -81.960600860676053, 29.689523051613271 ], [ -81.960598793709337, 29.689523066601371 ], [ -81.960596726742622, 29.689523081589446 ], [ -81.960598776543605, 29.68952126184892 ], [ -81.960600826344546, 29.689519442108345 ], [ -81.960602876145387, 29.689517622367756 ], [ -81.960602858979584, 29.689515817615295 ], [ -81.960602841813795, 29.68951401286283 ], [ -81.960602824648007, 29.689512208110376 ], [ -81.960602807482204, 29.689510403357914 ], [ -81.960602790316415, 29.689508598605446 ], [ -81.960602773150626, 29.689506793852992 ], [ -81.960602755984837, 29.689504989100531 ], [ -81.960602738819048, 29.689503184348069 ], [ -81.960602721653274, 29.689501379595605 ], [ -81.960602704487485, 29.689499574843136 ], [ -81.96060268732171, 29.689497770090671 ], [ -81.960602670155936, 29.689495965338203 ], [ -81.960602652990161, 29.689494160585749 ], [ -81.960602635824372, 29.689492355833277 ], [ -81.960602618658598, 29.689490551080816 ], [ -81.960602601492823, 29.689488746328347 ], [ -81.960602584327063, 29.689486941575886 ], [ -81.960602567161288, 29.689485136823407 ], [ -81.960600483029609, 29.68948334705907 ], [ -81.960600465863877, 29.689481542306588 ], [ -81.960600448698145, 29.689479737554123 ], [ -81.960600431532427, 29.689477932801644 ], [ -81.960598347400932, 29.689476143037254 ], [ -81.960596263269537, 29.689474353272832 ], [ -81.960596246103876, 29.68947254852036 ], [ -81.960596228938229, 29.689470743767892 ], [ -81.960596211772582, 29.689468939015413 ], [ -81.960596194606936, 29.689467134262927 ], [ -81.960596177441289, 29.689465329510465 ], [ -81.960596160275657, 29.689463524757986 ], [ -81.960596143110024, 29.689461720005507 ], [ -81.960594058978955, 29.689459930241028 ], [ -81.960594041813351, 29.689458125488549 ], [ -81.960594024647762, 29.689456320736074 ], [ -81.960591940516835, 29.689454530971563 ], [ -81.960591923351288, 29.689452726219091 ], [ -81.960591906185726, 29.689450921466598 ], [ -81.960591889020165, 29.689449116714119 ], [ -81.960591871854618, 29.68944731196164 ], [ -81.960589787723919, 29.689445522197079 ], [ -81.960587703593305, 29.689443732432498 ], [ -81.960587686427829, 29.689441927680004 ], [ -81.960587669262367, 29.689440122927518 ], [ -81.960587652096891, 29.689438318175032 ], [ -81.960585567966461, 29.689436528410408 ], [ -81.960585550801028, 29.689434723657918 ], [ -81.960585533635609, 29.689432918905425 ], [ -81.960585516470175, 29.689431114152931 ], [ -81.960585499304742, 29.689429309400452 ], [ -81.960585482139336, 29.689427504647952 ], [ -81.960585464973903, 29.689425699895455 ], [ -81.960585447808484, 29.689423895142962 ], [ -81.960585430643064, 29.689422090390469 ], [ -81.960585413477645, 29.689420285637976 ], [ -81.960585396312226, 29.689418480885486 ], [ -81.960585379146806, 29.689416676132986 ], [ -81.960585361981401, 29.689414871380492 ], [ -81.960583277851512, 29.689413081615811 ], [ -81.96058119372168, 29.689411291851105 ], [ -81.960579109591947, 29.689409502086338 ], [ -81.960577042627534, 29.689409517074061 ], [ -81.960574958497901, 29.689407727309252 ], [ -81.960572891533516, 29.689407742296904 ], [ -81.960570807403982, 29.689405952532017 ], [ -81.960568723274548, 29.689404162767087 ], [ -81.960566639145156, 29.689402373002139 ], [ -81.960564555015864, 29.689400583237152 ], [ -81.960562470886629, 29.689398793472133 ], [ -81.960560386757464, 29.689397003707064 ], [ -81.960560369592514, 29.68939519895455 ], [ -81.960560352427564, 29.689393394202032 ], [ -81.960560335262613, 29.689391589449517 ], [ -81.960560318097663, 29.689389784696999 ], [ -81.960560300932713, 29.689387979944485 ], [ -81.960560283767776, 29.689386175191967 ], [ -81.960560266602826, 29.689384370439452 ], [ -81.960560249437876, 29.689382565686937 ] ] } }
]
}
