{
  "type": "FeatureCollection",
  "name": "OSBS_large_2019_field_route_lcp",
  "crs": {
    "type": "name",
    "properties": {
      "name": "urn:ogc:def:crs:OGC:1.3:CRS84"
    }
  },
  "features": [
    {
      "type": "Feature",
      "properties": {
        "route_name": "OSBS_large_2019 Dijkstra Least-Cost Path",
        "study_area": "250m x 250m (6.25 ha)",
        "total_physical_distance_meters": 449.58,
        "total_least_cost_score": 1051.7,
        "stops_count": 13,
        "visiting_sequence": "Ranger Base / Entry Point -> Tree #666 -> Tree #646 -> Tree #625 -> Tree #627 -> Tree #634 -> Tree #643 -> Tree #661 -> Tree #683 -> Tree #624 -> Tree #668 -> Tree #645 -> Tree #682 -> Tree #644",
        "grid_resolution_meters": 1.0,
        "grid_dimensions": "250x250",
        "cost_surface_model": "ExG canopy impedance scaled to [1.0, 5.0]"
      },
      "geometry": {
        "type": "LineString",
        "coordinates": [
          [
            -81.9539256,
            29.6803826
          ],
          [
            -81.9539257,
            29.6803917
          ],
          [
            -81.9539258,
            29.6804007
          ],
          [
            -81.9539259,
            29.6804097
          ],
          [
            -81.953926,
            29.6804187
          ],
          [
            -81.9539157,
            29.6804278
          ],
          [
            -81.9539158,
            29.6804369
          ],
          [
            -81.9539056,
            29.680446
          ],
          [
            -81.9538953,
            29.6804551
          ],
          [
            -81.9538954,
            29.6804641
          ],
          [
            -81.9538955,
            29.6804731
          ],
          [
            -81.9538956,
            29.6804821
          ],
          [
            -81.9538956,
            29.6804912
          ],
          [
            -81.9538957,
            29.6805002
          ],
          [
            -81.9538855,
            29.6805093
          ],
          [
            -81.9538752,
            29.6805184
          ],
          [
            -81.9538753,
            29.6805274
          ],
          [
            -81.9538754,
            29.6805364
          ],
          [
            -81.9538755,
            29.6805454
          ],
          [
            -81.9538756,
            29.6805545
          ],
          [
            -81.9538757,
            29.6805635
          ],
          [
            -81.9538757,
            29.6805725
          ],
          [
            -81.9538758,
            29.6805815
          ],
          [
            -81.9538759,
            29.6805906
          ],
          [
            -81.953876,
            29.6805996
          ],
          [
            -81.9538761,
            29.6806086
          ],
          [
            -81.9538762,
            29.6806176
          ],
          [
            -81.9538763,
            29.6806267
          ],
          [
            -81.9538763,
            29.6806357
          ],
          [
            -81.9538661,
            29.6806448
          ],
          [
            -81.9538558,
            29.6806539
          ],
          [
            -81.9538559,
            29.6806629
          ],
          [
            -81.953856,
            29.6806719
          ],
          [
            -81.9538561,
            29.6806809
          ],
          [
            -81.9538562,
            29.68069
          ],
          [
            -81.9538563,
            29.680699
          ],
          [
            -81.9538564,
            29.680708
          ],
          [
            -81.9538564,
            29.680717
          ],
          [
            -81.9538669,
            29.680726
          ],
          [
            -81.9538669,
            29.680735
          ],
          [
            -81.953867,
            29.680744
          ],
          [
            -81.9538671,
            29.6807531
          ],
          [
            -81.9538569,
            29.6807622
          ],
          [
            -81.953857,
            29.6807712
          ],
          [
            -81.9538467,
            29.6807803
          ],
          [
            -81.9538365,
            29.6807894
          ],
          [
            -81.9538262,
            29.6807985
          ],
          [
            -81.953816,
            29.6808076
          ],
          [
            -81.9538057,
            29.6808167
          ],
          [
            -81.9538058,
            29.6808257
          ],
          [
            -81.9538059,
            29.6808347
          ],
          [
            -81.953806,
            29.6808437
          ],
          [
            -81.953806,
            29.6808528
          ],
          [
            -81.9538061,
            29.6808618
          ],
          [
            -81.9538062,
            29.6808708
          ],
          [
            -81.9538063,
            29.6808798
          ],
          [
            -81.9538064,
            29.6808889
          ],
          [
            -81.9538065,
            29.6808979
          ],
          [
            -81.9538066,
            29.6809069
          ],
          [
            -81.9538066,
            29.6809159
          ],
          [
            -81.9537964,
            29.680925
          ],
          [
            -81.9537965,
            29.6809341
          ],
          [
            -81.9537966,
            29.6809431
          ],
          [
            -81.9537967,
            29.6809521
          ],
          [
            -81.9537864,
            29.6809612
          ],
          [
            -81.9537865,
            29.6809702
          ],
          [
            -81.9537866,
            29.6809793
          ],
          [
            -81.9537867,
            29.6809883
          ],
          [
            -81.9537764,
            29.6809974
          ],
          [
            -81.9537765,
            29.6810064
          ],
          [
            -81.9537766,
            29.6810154
          ],
          [
            -81.9537663,
            29.6810245
          ],
          [
            -81.9537561,
            29.6810336
          ],
          [
            -81.9537457,
            29.6810337
          ],
          [
            -81.9537355,
            29.6810428
          ],
          [
            -81.9537252,
            29.6810429
          ],
          [
            -81.9537148,
            29.6810429
          ],
          [
            -81.9537045,
            29.681043
          ],
          [
            -81.9536942,
            29.6810431
          ],
          [
            -81.9536942,
            29.6810521
          ],
          [
            -81.9536943,
            29.6810611
          ],
          [
            -81.9536841,
            29.6810702
          ],
          [
            -81.9536842,
            29.6810793
          ],
          [
            -81.9536843,
            29.6810883
          ],
          [
            -81.9536843,
            29.6810973
          ],
          [
            -81.9536844,
            29.6811063
          ],
          [
            -81.9536742,
            29.6811154
          ],
          [
            -81.9536639,
            29.6811245
          ],
          [
            -81.9536537,
            29.6811336
          ],
          [
            -81.9536433,
            29.6811337
          ],
          [
            -81.953633,
            29.6811338
          ],
          [
            -81.9536227,
            29.6811338
          ],
          [
            -81.9536124,
            29.6811429
          ],
          [
            -81.9536021,
            29.681143
          ],
          [
            -81.9535918,
            29.6811431
          ],
          [
            -81.9535815,
            29.6811522
          ],
          [
            -81.9535712,
            29.6811523
          ],
          [
            -81.9535609,
            29.6811614
          ],
          [
            -81.9535507,
            29.6811705
          ],
          [
            -81.9535508,
            29.6811795
          ],
          [
            -81.9535508,
            29.6811885
          ],
          [
            -81.9535406,
            29.6811976
          ],
          [
            -81.9535304,
            29.6812067
          ],
          [
            -81.9535201,
            29.6812158
          ],
          [
            -81.9535099,
            29.6812249
          ],
          [
            -81.9535099,
            29.6812339
          ],
          [
            -81.95351,
            29.681243
          ],
          [
            -81.9535101,
            29.681252
          ],
          [
            -81.9535102,
            29.681261
          ],
          [
            -81.9535103,
            29.68127
          ],
          [
            -81.9535104,
            29.681279
          ],
          [
            -81.9535001,
            29.6812881
          ],
          [
            -81.9535002,
            29.6812972
          ],
          [
            -81.9535003,
            29.6813062
          ],
          [
            -81.9535004,
            29.6813152
          ],
          [
            -81.9535005,
            29.6813242
          ],
          [
            -81.9534902,
            29.6813333
          ],
          [
            -81.9534903,
            29.6813424
          ],
          [
            -81.9534904,
            29.6813514
          ],
          [
            -81.9534905,
            29.6813604
          ],
          [
            -81.9535009,
            29.6813694
          ],
          [
            -81.9535113,
            29.6813783
          ],
          [
            -81.9535217,
            29.6813873
          ],
          [
            -81.9535321,
            29.6813962
          ],
          [
            -81.9535426,
            29.6814052
          ],
          [
            -81.9535426,
            29.6814142
          ],
          [
            -81.9535427,
            29.6814232
          ],
          [
            -81.9535428,
            29.6814322
          ],
          [
            -81.9535429,
            29.6814413
          ],
          [
            -81.953543,
            29.6814503
          ],
          [
            -81.9535534,
            29.6814592
          ],
          [
            -81.9535431,
            29.6814593
          ],
          [
            -81.9535327,
            29.6814504
          ],
          [
            -81.9535222,
            29.6814414
          ],
          [
            -81.9535119,
            29.6814415
          ],
          [
            -81.9535015,
            29.6814325
          ],
          [
            -81.9534911,
            29.6814326
          ],
          [
            -81.9534808,
            29.6814327
          ],
          [
            -81.9534704,
            29.6814237
          ],
          [
            -81.9534601,
            29.6814238
          ],
          [
            -81.9534497,
            29.6814239
          ],
          [
            -81.9534394,
            29.6814239
          ],
          [
            -81.9534291,
            29.681424
          ],
          [
            -81.9534187,
            29.6814241
          ],
          [
            -81.9534084,
            29.6814242
          ],
          [
            -81.9533981,
            29.6814242
          ],
          [
            -81.9533877,
            29.6814243
          ],
          [
            -81.9533774,
            29.6814244
          ],
          [
            -81.9533671,
            29.6814245
          ],
          [
            -81.9533567,
            29.6814245
          ],
          [
            -81.9533464,
            29.6814246
          ],
          [
            -81.953336,
            29.6814247
          ],
          [
            -81.9533257,
            29.6814248
          ],
          [
            -81.9533154,
            29.6814248
          ],
          [
            -81.953305,
            29.6814249
          ],
          [
            -81.9532946,
            29.681416
          ],
          [
            -81.9532842,
            29.681407
          ],
          [
            -81.9532841,
            29.681398
          ],
          [
            -81.953284,
            29.681389
          ],
          [
            -81.953284,
            29.6813799
          ],
          [
            -81.9532735,
            29.681371
          ],
          [
            -81.9532734,
            29.681362
          ],
          [
            -81.9532734,
            29.6813529
          ],
          [
            -81.9532733,
            29.6813439
          ],
          [
            -81.9532732,
            29.6813349
          ],
          [
            -81.9532731,
            29.6813259
          ],
          [
            -81.9532834,
            29.6813168
          ],
          [
            -81.9532936,
            29.6813077
          ],
          [
            -81.9532832,
            29.6812987
          ],
          [
            -81.9532728,
            29.6812898
          ],
          [
            -81.9532624,
            29.6812899
          ],
          [
            -81.9532521,
            29.6812899
          ],
          [
            -81.9532418,
            29.68129
          ],
          [
            -81.9532314,
            29.6812901
          ],
          [
            -81.9532211,
            29.6812902
          ],
          [
            -81.9532108,
            29.6812902
          ],
          [
            -81.9532005,
            29.6812993
          ],
          [
            -81.9531902,
            29.6812994
          ],
          [
            -81.9531798,
            29.6812995
          ],
          [
            -81.9531695,
            29.6812996
          ],
          [
            -81.9531592,
            29.6812996
          ],
          [
            -81.9531488,
            29.6812997
          ],
          [
            -81.9531385,
            29.6812998
          ],
          [
            -81.9531282,
            29.6812998
          ],
          [
            -81.9531178,
            29.6812999
          ],
          [
            -81.9531075,
            29.6813
          ],
          [
            -81.9530973,
            29.6813091
          ],
          [
            -81.953087,
            29.6813182
          ],
          [
            -81.9530768,
            29.6813273
          ],
          [
            -81.9530665,
            29.6813364
          ],
          [
            -81.9530563,
            29.6813455
          ],
          [
            -81.9530459,
            29.6813456
          ],
          [
            -81.9530356,
            29.6813456
          ],
          [
            -81.9530253,
            29.6813457
          ],
          [
            -81.9530149,
            29.6813458
          ],
          [
            -81.9530046,
            29.6813459
          ],
          [
            -81.9529943,
            29.6813459
          ],
          [
            -81.9529839,
            29.681346
          ],
          [
            -81.9529736,
            29.6813461
          ],
          [
            -81.9529633,
            29.6813462
          ],
          [
            -81.9529529,
            29.6813462
          ],
          [
            -81.9529426,
            29.6813463
          ],
          [
            -81.9529323,
            29.6813464
          ],
          [
            -81.9529219,
            29.6813465
          ],
          [
            -81.9529117,
            29.6813556
          ],
          [
            -81.9529014,
            29.6813646
          ],
          [
            -81.9528912,
            29.6813737
          ],
          [
            -81.9528809,
            29.6813828
          ],
          [
            -81.9528707,
            29.6813919
          ],
          [
            -81.9528604,
            29.681401
          ],
          [
            -81.9528605,
            29.6814101
          ],
          [
            -81.9528503,
            29.6814192
          ],
          [
            -81.95284,
            29.6814283
          ],
          [
            -81.9528298,
            29.6814374
          ],
          [
            -81.9528194,
            29.6814374
          ],
          [
            -81.9528091,
            29.6814375
          ],
          [
            -81.9527988,
            29.6814376
          ],
          [
            -81.9527884,
            29.6814377
          ],
          [
            -81.9527781,
            29.6814377
          ],
          [
            -81.9527678,
            29.6814468
          ],
          [
            -81.9527576,
            29.6814559
          ],
          [
            -81.9527473,
            29.681456
          ],
          [
            -81.952737,
            29.6814651
          ],
          [
            -81.9527267,
            29.6814652
          ],
          [
            -81.9527163,
            29.6814652
          ],
          [
            -81.9527061,
            29.6814743
          ],
          [
            -81.9526959,
            29.6814834
          ],
          [
            -81.9526855,
            29.6814835
          ],
          [
            -81.9526752,
            29.6814836
          ],
          [
            -81.9526648,
            29.6814837
          ],
          [
            -81.9526545,
            29.6814837
          ],
          [
            -81.9526442,
            29.6814838
          ],
          [
            -81.9526339,
            29.6814929
          ],
          [
            -81.9526236,
            29.681493
          ],
          [
            -81.9526133,
            29.6814931
          ],
          [
            -81.952603,
            29.6815022
          ],
          [
            -81.9525927,
            29.6815022
          ],
          [
            -81.9525824,
            29.6815113
          ],
          [
            -81.9525721,
            29.6815114
          ],
          [
            -81.9525618,
            29.6815205
          ],
          [
            -81.9525516,
            29.6815296
          ],
          [
            -81.9525413,
            29.6815297
          ],
          [
            -81.9525309,
            29.6815298
          ],
          [
            -81.9525206,
            29.6815298
          ],
          [
            -81.9525103,
            29.6815299
          ],
          [
            -81.9524999,
            29.68153
          ],
          [
            -81.9524896,
            29.68153
          ],
          [
            -81.9524793,
            29.6815301
          ],
          [
            -81.9524689,
            29.6815302
          ],
          [
            -81.9524586,
            29.6815303
          ],
          [
            -81.9524483,
            29.6815394
          ],
          [
            -81.9524483,
            29.6815303
          ],
          [
            -81.9524378,
            29.6815214
          ],
          [
            -81.9524274,
            29.6815124
          ],
          [
            -81.952417,
            29.6815035
          ],
          [
            -81.9524066,
            29.6814945
          ],
          [
            -81.9523962,
            29.6814946
          ],
          [
            -81.9523858,
            29.6814857
          ],
          [
            -81.9523755,
            29.6814857
          ],
          [
            -81.9523652,
            29.6814858
          ],
          [
            -81.9523548,
            29.6814859
          ],
          [
            -81.9523445,
            29.681486
          ],
          [
            -81.9523342,
            29.681486
          ],
          [
            -81.9523238,
            29.6814861
          ],
          [
            -81.9523134,
            29.6814772
          ],
          [
            -81.952303,
            29.6814682
          ],
          [
            -81.9522926,
            29.6814593
          ],
          [
            -81.9522822,
            29.6814593
          ],
          [
            -81.9522719,
            29.6814594
          ],
          [
            -81.9522616,
            29.6814595
          ],
          [
            -81.9522513,
            29.6814686
          ],
          [
            -81.952241,
            29.6814687
          ],
          [
            -81.9522307,
            29.6814778
          ],
          [
            -81.9522205,
            29.6814869
          ],
          [
            -81.9522206,
            29.6814959
          ],
          [
            -81.9522207,
            29.6815049
          ],
          [
            -81.9522104,
            29.681514
          ],
          [
            -81.9522002,
            29.6815231
          ],
          [
            -81.9521899,
            29.6815322
          ],
          [
            -81.9521797,
            29.6815413
          ],
          [
            -81.9521694,
            29.6815504
          ],
          [
            -81.9521592,
            29.6815595
          ],
          [
            -81.9521489,
            29.6815686
          ],
          [
            -81.9521387,
            29.6815777
          ],
          [
            -81.9521284,
            29.6815868
          ],
          [
            -81.9521182,
            29.6815959
          ],
          [
            -81.9521182,
            29.6816049
          ],
          [
            -81.9521183,
            29.6816139
          ],
          [
            -81.9521184,
            29.681623
          ],
          [
            -81.9521185,
            29.681632
          ],
          [
            -81.9521186,
            29.681641
          ],
          [
            -81.9521187,
            29.68165
          ],
          [
            -81.9521188,
            29.6816591
          ],
          [
            -81.9521188,
            29.6816681
          ],
          [
            -81.9521189,
            29.6816771
          ],
          [
            -81.9521087,
            29.6816862
          ],
          [
            -81.9521088,
            29.6816952
          ],
          [
            -81.9521089,
            29.6817043
          ],
          [
            -81.9521089,
            29.6817133
          ],
          [
            -81.952109,
            29.6817223
          ],
          [
            -81.9521091,
            29.6817313
          ],
          [
            -81.9521092,
            29.6817403
          ],
          [
            -81.9521093,
            29.6817494
          ],
          [
            -81.9521094,
            29.6817584
          ],
          [
            -81.9521094,
            29.6817674
          ],
          [
            -81.9521199,
            29.6817764
          ],
          [
            -81.95212,
            29.6817854
          ],
          [
            -81.95212,
            29.6817944
          ],
          [
            -81.9521098,
            29.6818035
          ],
          [
            -81.9520995,
            29.6818126
          ],
          [
            -81.9520996,
            29.6818216
          ],
          [
            -81.9520997,
            29.6818307
          ],
          [
            -81.9520893,
            29.6818217
          ],
          [
            -81.9520789,
            29.6818128
          ],
          [
            -81.9520685,
            29.6818128
          ],
          [
            -81.9520582,
            29.6818129
          ],
          [
            -81.9520478,
            29.681804
          ],
          [
            -81.9520374,
            29.681795
          ],
          [
            -81.9520269,
            29.6817861
          ],
          [
            -81.9520269,
            29.681777
          ],
          [
            -81.9520164,
            29.6817681
          ],
          [
            -81.952006,
            29.6817591
          ],
          [
            -81.9519956,
            29.6817502
          ],
          [
            -81.9519852,
            29.6817412
          ],
          [
            -81.9519748,
            29.6817323
          ],
          [
            -81.9519643,
            29.6817233
          ],
          [
            -81.951954,
            29.6817234
          ],
          [
            -81.9519437,
            29.6817235
          ],
          [
            -81.9519333,
            29.6817145
          ],
          [
            -81.9519228,
            29.6817056
          ],
          [
            -81.9519333,
            29.6817145
          ],
          [
            -81.9519437,
            29.6817235
          ],
          [
            -81.951954,
            29.6817234
          ],
          [
            -81.9519643,
            29.6817233
          ],
          [
            -81.9519748,
            29.6817323
          ],
          [
            -81.9519851,
            29.6817322
          ],
          [
            -81.9519954,
            29.6817321
          ],
          [
            -81.9520058,
            29.6817321
          ],
          [
            -81.9520161,
            29.681732
          ],
          [
            -81.9520264,
            29.6817319
          ],
          [
            -81.9520368,
            29.6817318
          ],
          [
            -81.952047,
            29.6817227
          ],
          [
            -81.9520574,
            29.6817227
          ],
          [
            -81.9520677,
            29.6817226
          ],
          [
            -81.9520779,
            29.6817135
          ],
          [
            -81.9520882,
            29.6817044
          ],
          [
            -81.9520984,
            29.6816953
          ],
          [
            -81.9521088,
            29.6816952
          ],
          [
            -81.9521191,
            29.6816952
          ],
          [
            -81.9521294,
            29.6816951
          ],
          [
            -81.9521398,
            29.681695
          ],
          [
            -81.9521501,
            29.6816949
          ],
          [
            -81.9521604,
            29.6816949
          ],
          [
            -81.9521708,
            29.6816948
          ],
          [
            -81.9521811,
            29.6816947
          ],
          [
            -81.9521914,
            29.6816946
          ],
          [
            -81.9522019,
            29.6817036
          ],
          [
            -81.9522122,
            29.6817035
          ],
          [
            -81.9522225,
            29.6817034
          ],
          [
            -81.9522329,
            29.6817034
          ],
          [
            -81.9522432,
            29.6817033
          ],
          [
            -81.9522535,
            29.6817032
          ],
          [
            -81.9522639,
            29.6817031
          ],
          [
            -81.9522742,
            29.6817031
          ],
          [
            -81.9522845,
            29.681703
          ],
          [
            -81.9522949,
            29.6817119
          ],
          [
            -81.9523053,
            29.6817119
          ],
          [
            -81.9523156,
            29.6817118
          ],
          [
            -81.952326,
            29.6817117
          ],
          [
            -81.9523364,
            29.6817207
          ],
          [
            -81.9523468,
            29.6817296
          ],
          [
            -81.9523571,
            29.6817295
          ],
          [
            -81.9523675,
            29.6817295
          ],
          [
            -81.9523778,
            29.6817294
          ],
          [
            -81.9523881,
            29.6817293
          ],
          [
            -81.9523985,
            29.6817292
          ],
          [
            -81.9524088,
            29.6817292
          ],
          [
            -81.9524191,
            29.6817291
          ],
          [
            -81.9524295,
            29.681729
          ],
          [
            -81.9524399,
            29.681738
          ],
          [
            -81.9524503,
            29.6817469
          ],
          [
            -81.9524607,
            29.6817559
          ],
          [
            -81.9524711,
            29.6817648
          ],
          [
            -81.9524816,
            29.6817738
          ],
          [
            -81.952492,
            29.6817827
          ],
          [
            -81.9524921,
            29.6817917
          ],
          [
            -81.9525025,
            29.6818007
          ],
          [
            -81.9525129,
            29.6818096
          ],
          [
            -81.9525233,
            29.6818186
          ],
          [
            -81.9525337,
            29.6818275
          ],
          [
            -81.9525442,
            29.6818365
          ],
          [
            -81.9525546,
            29.6818454
          ],
          [
            -81.952565,
            29.6818544
          ]
        ]
      }
    }
  ]
}