{
"type": "FeatureCollection",
"name": "project_boundary_OSBS_022",
"crs": { "type": "name", "properties": { "name": "urn:ogc:def:crs:OGC:1.3:CRS84" } },
"features": [
{ "type": "Feature", "properties": { "name": "Proposed Center-Right Project Corridor", "area_sq_m": 396.0, "tile_coverage_pct": 24.75 }, "geometry": { "type": "Polygon", "coordinates": [ [ [ -81.960547251873095, 29.68942868429377 ], [ -81.96054914000409, 29.689627207067122 ], [ -81.960735167197313, 29.689625858073594 ], [ -81.960733278700772, 29.689427335311048 ], [ -81.960547251873095, 29.68942868429377 ] ] ] } }
]
}
