{
  "type": "FeatureCollection",
  "name": "route_terrain",
  "crs": {
    "type": "name",
    "properties": {
      "name": "urn:ogc:def:crs:OGC:1.3:CRS84"
    }
  },
  "features": [
    {
      "type": "Feature",
      "properties": {
        "route_name": "OSBS_large_2019 Terrain-Aware TSP-Optimized Field Route",
        "cost_model": "Tobler's Hiking Function (DTM Slope) + Normalized Canopy Height Model (CHM p95)",
        "optimization_metric": "Travel Time Minimization (minutes)",
        "study_area": "250m x 250m (6.25 ha)",
        "total_physical_distance_meters": 488.9,
        "total_travel_time_minutes": 14.96,
        "nn_baseline_distance_meters": 480.2,
        "nn_baseline_time_minutes": 15.81,
        "time_saved_minutes": 0.85,
        "time_improvement_pct": 5.36,
        "stops_count": 13,
        "visiting_sequence": "Ranger Base / Entry Point -> Tree #666 -> Tree #646 -> Tree #625 -> Tree #627 -> Tree #634 -> Tree #643 -> Tree #644 -> Tree #661 -> Tree #683 -> Tree #624 -> Tree #668 -> Tree #645 -> Tree #682",
        "grid_resolution_meters": 1.0,
        "grid_dimensions": "250x250"
      },
      "geometry": {
        "type": "LineString",
        "coordinates": [
          [
            -81.9539256,
            29.6803826
          ],
          [
            -81.9539257,
            29.6803917
          ],
          [
            -81.9539258,
            29.6804007
          ],
          [
            -81.9539259,
            29.6804097
          ],
          [
            -81.953926,
            29.6804187
          ],
          [
            -81.9539261,
            29.6804278
          ],
          [
            -81.9539261,
            29.6804368
          ],
          [
            -81.9539262,
            29.6804458
          ],
          [
            -81.9539263,
            29.6804548
          ],
          [
            -81.9539161,
            29.6804639
          ],
          [
            -81.9539161,
            29.680473
          ],
          [
            -81.9539059,
            29.6804821
          ],
          [
            -81.9538956,
            29.6804912
          ],
          [
            -81.9538957,
            29.6805002
          ],
          [
            -81.9538855,
            29.6805093
          ],
          [
            -81.9538856,
            29.6805183
          ],
          [
            -81.9538857,
            29.6805273
          ],
          [
            -81.9538857,
            29.6805363
          ],
          [
            -81.9538858,
            29.6805454
          ],
          [
            -81.9538859,
            29.6805544
          ],
          [
            -81.953886,
            29.6805634
          ],
          [
            -81.9538861,
            29.6805724
          ],
          [
            -81.9538862,
            29.6805815
          ],
          [
            -81.9538862,
            29.6805905
          ],
          [
            -81.9538863,
            29.6805995
          ],
          [
            -81.9538864,
            29.6806085
          ],
          [
            -81.9538865,
            29.6806176
          ],
          [
            -81.9538866,
            29.6806266
          ],
          [
            -81.9538867,
            29.6806356
          ],
          [
            -81.9538868,
            29.6806446
          ],
          [
            -81.9538868,
            29.6806537
          ],
          [
            -81.9538869,
            29.6806627
          ],
          [
            -81.953887,
            29.6806717
          ],
          [
            -81.9538871,
            29.6806807
          ],
          [
            -81.9538872,
            29.6806898
          ],
          [
            -81.9538873,
            29.6806988
          ],
          [
            -81.953877,
            29.6807079
          ],
          [
            -81.9538771,
            29.6807169
          ],
          [
            -81.9538772,
            29.6807259
          ],
          [
            -81.9538773,
            29.6807349
          ],
          [
            -81.9538774,
            29.680744
          ],
          [
            -81.9538774,
            29.680753
          ],
          [
            -81.9538672,
            29.6807621
          ],
          [
            -81.953857,
            29.6807712
          ],
          [
            -81.953857,
            29.6807802
          ],
          [
            -81.9538468,
            29.6807893
          ],
          [
            -81.9538365,
            29.6807984
          ],
          [
            -81.9538263,
            29.6808075
          ],
          [
            -81.953816,
            29.6808166
          ],
          [
            -81.9538058,
            29.6808257
          ],
          [
            -81.9537955,
            29.6808348
          ],
          [
            -81.9537853,
            29.6808439
          ],
          [
            -81.953775,
            29.680853
          ],
          [
            -81.9537648,
            29.6808621
          ],
          [
            -81.9537545,
            29.6808712
          ],
          [
            -81.9537443,
            29.6808803
          ],
          [
            -81.9537341,
            29.6808894
          ],
          [
            -81.9537238,
            29.6808985
          ],
          [
            -81.9537136,
            29.6809076
          ],
          [
            -81.9537032,
            29.6809077
          ],
          [
            -81.953693,
            29.6809168
          ],
          [
            -81.9536827,
            29.6809259
          ],
          [
            -81.9536828,
            29.6809349
          ],
          [
            -81.9536829,
            29.6809439
          ],
          [
            -81.953683,
            29.6809529
          ],
          [
            -81.9536831,
            29.680962
          ],
          [
            -81.9536935,
            29.6809709
          ],
          [
            -81.9536936,
            29.6809799
          ],
          [
            -81.9536937,
            29.6809889
          ],
          [
            -81.9536937,
            29.680998
          ],
          [
            -81.9536835,
            29.6810071
          ],
          [
            -81.9536836,
            29.6810161
          ],
          [
            -81.953694,
            29.681025
          ],
          [
            -81.9536941,
            29.6810341
          ],
          [
            -81.9536942,
            29.6810431
          ],
          [
            -81.9536942,
            29.6810521
          ],
          [
            -81.9536943,
            29.6810611
          ],
          [
            -81.9536944,
            29.6810702
          ],
          [
            -81.9536945,
            29.6810792
          ],
          [
            -81.9536946,
            29.6810882
          ],
          [
            -81.9536947,
            29.6810972
          ],
          [
            -81.9536948,
            29.6811063
          ],
          [
            -81.9536845,
            29.6811154
          ],
          [
            -81.9536743,
            29.6811245
          ],
          [
            -81.9536743,
            29.6811335
          ],
          [
            -81.9536641,
            29.6811426
          ],
          [
            -81.9536642,
            29.6811516
          ],
          [
            -81.9536539,
            29.6811607
          ],
          [
            -81.9536436,
            29.6811608
          ],
          [
            -81.9536333,
            29.6811608
          ],
          [
            -81.9536229,
            29.6811609
          ],
          [
            -81.9536125,
            29.681152
          ],
          [
            -81.9536022,
            29.681152
          ],
          [
            -81.9535918,
            29.6811521
          ],
          [
            -81.9535815,
            29.6811522
          ],
          [
            -81.9535712,
            29.6811523
          ],
          [
            -81.9535609,
            29.6811614
          ],
          [
            -81.953561,
            29.6811704
          ],
          [
            -81.9535611,
            29.6811794
          ],
          [
            -81.9535612,
            29.6811884
          ],
          [
            -81.9535613,
            29.6811975
          ],
          [
            -81.953551,
            29.6812066
          ],
          [
            -81.9535511,
            29.6812156
          ],
          [
            -81.9535409,
            29.6812247
          ],
          [
            -81.9535306,
            29.6812338
          ],
          [
            -81.9535203,
            29.6812339
          ],
          [
            -81.9535099,
            29.6812249
          ],
          [
            -81.9535203,
            29.6812339
          ],
          [
            -81.9535204,
            29.6812429
          ],
          [
            -81.9535204,
            29.6812519
          ],
          [
            -81.9535205,
            29.6812609
          ],
          [
            -81.9535206,
            29.68127
          ],
          [
            -81.9535104,
            29.681279
          ],
          [
            -81.9535001,
            29.6812881
          ],
          [
            -81.9535002,
            29.6812972
          ],
          [
            -81.9535003,
            29.6813062
          ],
          [
            -81.9535004,
            29.6813152
          ],
          [
            -81.9535005,
            29.6813242
          ],
          [
            -81.9535005,
            29.6813333
          ],
          [
            -81.9535006,
            29.6813423
          ],
          [
            -81.9535007,
            29.6813513
          ],
          [
            -81.9535008,
            29.6813603
          ],
          [
            -81.9535112,
            29.6813693
          ],
          [
            -81.9535216,
            29.6813782
          ],
          [
            -81.9535217,
            29.6813873
          ],
          [
            -81.9535321,
            29.6813962
          ],
          [
            -81.9535322,
            29.6814052
          ],
          [
            -81.9535426,
            29.6814142
          ],
          [
            -81.9535531,
            29.6814231
          ],
          [
            -81.9535531,
            29.6814322
          ],
          [
            -81.9535532,
            29.6814412
          ],
          [
            -81.9535533,
            29.6814502
          ],
          [
            -81.9535534,
            29.6814592
          ],
          [
            -81.9535638,
            29.6814682
          ],
          [
            -81.9535639,
            29.6814772
          ],
          [
            -81.953564,
            29.6814862
          ],
          [
            -81.9535641,
            29.6814952
          ],
          [
            -81.9535642,
            29.6815043
          ],
          [
            -81.9535539,
            29.6815134
          ],
          [
            -81.953554,
            29.6815224
          ],
          [
            -81.9535438,
            29.6815315
          ],
          [
            -81.9535335,
            29.6815406
          ],
          [
            -81.9535233,
            29.6815497
          ],
          [
            -81.953513,
            29.6815588
          ],
          [
            -81.9535028,
            29.6815679
          ],
          [
            -81.9534925,
            29.681577
          ],
          [
            -81.9534822,
            29.6815771
          ],
          [
            -81.9534718,
            29.6815771
          ],
          [
            -81.9534615,
            29.6815772
          ],
          [
            -81.9534512,
            29.6815773
          ],
          [
            -81.9534408,
            29.6815774
          ],
          [
            -81.9534305,
            29.6815774
          ],
          [
            -81.9534202,
            29.6815775
          ],
          [
            -81.9534098,
            29.6815776
          ],
          [
            -81.9533994,
            29.6815686
          ],
          [
            -81.953389,
            29.6815597
          ],
          [
            -81.9533786,
            29.6815507
          ],
          [
            -81.9533682,
            29.6815418
          ],
          [
            -81.9533577,
            29.6815328
          ],
          [
            -81.9533577,
            29.6815238
          ],
          [
            -81.9533472,
            29.6815149
          ],
          [
            -81.9533471,
            29.6815058
          ],
          [
            -81.9533471,
            29.6814968
          ],
          [
            -81.953347,
            29.6814878
          ],
          [
            -81.9533469,
            29.6814788
          ],
          [
            -81.9533365,
            29.6814698
          ],
          [
            -81.9533364,
            29.6814608
          ],
          [
            -81.9533363,
            29.6814518
          ],
          [
            -81.9533362,
            29.6814427
          ],
          [
            -81.9533361,
            29.6814337
          ],
          [
            -81.9533464,
            29.6814246
          ],
          [
            -81.9533567,
            29.6814245
          ],
          [
            -81.9533464,
            29.6814246
          ],
          [
            -81.9533361,
            29.6814337
          ],
          [
            -81.9533258,
            29.6814338
          ],
          [
            -81.9533154,
            29.6814248
          ],
          [
            -81.953305,
            29.6814159
          ],
          [
            -81.9532945,
            29.6814069
          ],
          [
            -81.9532841,
            29.681398
          ],
          [
            -81.953284,
            29.681389
          ],
          [
            -81.953284,
            29.6813799
          ],
          [
            -81.9532839,
            29.6813709
          ],
          [
            -81.9532941,
            29.6813618
          ],
          [
            -81.9533044,
            29.6813527
          ],
          [
            -81.9533146,
            29.6813436
          ],
          [
            -81.9533145,
            29.6813346
          ],
          [
            -81.9533144,
            29.6813256
          ],
          [
            -81.953304,
            29.6813166
          ],
          [
            -81.9532936,
            29.6813077
          ],
          [
            -81.9532833,
            29.6813078
          ],
          [
            -81.9532729,
            29.6813078
          ],
          [
            -81.9532626,
            29.6813079
          ],
          [
            -81.9532524,
            29.681317
          ],
          [
            -81.953242,
            29.6813171
          ],
          [
            -81.9532317,
            29.6813172
          ],
          [
            -81.9532213,
            29.6813082
          ],
          [
            -81.9532109,
            29.6813083
          ],
          [
            -81.9532005,
            29.6812993
          ],
          [
            -81.9531902,
            29.6812994
          ],
          [
            -81.9531798,
            29.6812995
          ],
          [
            -81.9531696,
            29.6813086
          ],
          [
            -81.9531697,
            29.6813176
          ],
          [
            -81.9531698,
            29.6813266
          ],
          [
            -81.9531595,
            29.6813357
          ],
          [
            -81.9531493,
            29.6813448
          ],
          [
            -81.953139,
            29.6813539
          ],
          [
            -81.9531288,
            29.681363
          ],
          [
            -81.9531184,
            29.6813631
          ],
          [
            -81.9531082,
            29.6813722
          ],
          [
            -81.9530979,
            29.6813813
          ],
          [
            -81.953098,
            29.6813903
          ],
          [
            -81.9530981,
            29.6813993
          ],
          [
            -81.9530982,
            29.6814084
          ],
          [
            -81.9530983,
            29.6814174
          ],
          [
            -81.9530984,
            29.6814264
          ],
          [
            -81.9530985,
            29.6814354
          ],
          [
            -81.9530985,
            29.6814445
          ],
          [
            -81.9530986,
            29.6814535
          ],
          [
            -81.9530987,
            29.6814625
          ],
          [
            -81.9530988,
            29.6814715
          ],
          [
            -81.9530989,
            29.6814805
          ],
          [
            -81.953099,
            29.6814896
          ],
          [
            -81.9531094,
            29.6814985
          ],
          [
            -81.9531095,
            29.6815075
          ],
          [
            -81.9530992,
            29.6815166
          ],
          [
            -81.953089,
            29.6815257
          ],
          [
            -81.9530786,
            29.6815258
          ],
          [
            -81.9530684,
            29.6815349
          ],
          [
            -81.9530581,
            29.681544
          ],
          [
            -81.9530582,
            29.681553
          ],
          [
            -81.9530583,
            29.6815621
          ],
          [
            -81.9530481,
            29.6815712
          ],
          [
            -81.9530378,
            29.6815803
          ],
          [
            -81.9530379,
            29.6815893
          ],
          [
            -81.953038,
            29.6815983
          ],
          [
            -81.9530277,
            29.6816074
          ],
          [
            -81.9530175,
            29.6816165
          ],
          [
            -81.9530072,
            29.6816256
          ],
          [
            -81.9530073,
            29.6816346
          ],
          [
            -81.9530074,
            29.6816436
          ],
          [
            -81.9530075,
            29.6816527
          ],
          [
            -81.9530076,
            29.6816617
          ],
          [
            -81.9530077,
            29.6816707
          ],
          [
            -81.9530077,
            29.6816797
          ],
          [
            -81.9529975,
            29.6816888
          ],
          [
            -81.9529872,
            29.6816979
          ],
          [
            -81.952977,
            29.681707
          ],
          [
            -81.9529667,
            29.6817161
          ],
          [
            -81.9529565,
            29.6817252
          ],
          [
            -81.9529463,
            29.6817343
          ],
          [
            -81.9529463,
            29.6817434
          ],
          [
            -81.9529464,
            29.6817524
          ],
          [
            -81.9529465,
            29.6817614
          ],
          [
            -81.9529569,
            29.6817703
          ],
          [
            -81.9529673,
            29.6817793
          ],
          [
            -81.9529674,
            29.6817883
          ],
          [
            -81.9529778,
            29.6817973
          ],
          [
            -81.9529779,
            29.6818063
          ],
          [
            -81.952978,
            29.6818153
          ],
          [
            -81.9529678,
            29.6818244
          ],
          [
            -81.9529575,
            29.6818335
          ],
          [
            -81.9529473,
            29.6818426
          ],
          [
            -81.952937,
            29.6818517
          ],
          [
            -81.9529268,
            29.6818608
          ],
          [
            -81.9529165,
            29.6818699
          ],
          [
            -81.9529063,
            29.681879
          ],
          [
            -81.952896,
            29.6818881
          ],
          [
            -81.9528858,
            29.6818972
          ],
          [
            -81.9528755,
            29.6819063
          ],
          [
            -81.9528652,
            29.6819064
          ],
          [
            -81.9528549,
            29.6819064
          ],
          [
            -81.9528445,
            29.6819065
          ],
          [
            -81.9528343,
            29.6819156
          ],
          [
            -81.9528239,
            29.6819157
          ],
          [
            -81.9528137,
            29.6819248
          ],
          [
            -81.9528034,
            29.6819249
          ],
          [
            -81.952793,
            29.6819249
          ],
          [
            -81.9527827,
            29.681925
          ],
          [
            -81.9527723,
            29.6819161
          ],
          [
            -81.9527619,
            29.6819071
          ],
          [
            -81.9527515,
            29.6819072
          ],
          [
            -81.9527411,
            29.6818982
          ],
          [
            -81.9527308,
            29.6818983
          ],
          [
            -81.9527204,
            29.6818984
          ],
          [
            -81.9527101,
            29.6818985
          ],
          [
            -81.9526998,
            29.6818985
          ],
          [
            -81.9526893,
            29.6818896
          ],
          [
            -81.9526791,
            29.6818987
          ],
          [
            -81.9526688,
            29.6818988
          ],
          [
            -81.9526583,
            29.6818898
          ],
          [
            -81.9526479,
            29.6818809
          ],
          [
            -81.9526376,
            29.6818809
          ],
          [
            -81.9526273,
            29.681881
          ],
          [
            -81.9526169,
            29.6818811
          ],
          [
            -81.9526066,
            29.6818812
          ],
          [
            -81.9525962,
            29.6818722
          ],
          [
            -81.9525857,
            29.6818633
          ],
          [
            -81.9525753,
            29.6818543
          ],
          [
            -81.952565,
            29.6818544
          ],
          [
            -81.9525547,
            29.6818545
          ],
          [
            -81.9525442,
            29.6818455
          ],
          [
            -81.9525338,
            29.6818366
          ],
          [
            -81.9525234,
            29.6818276
          ],
          [
            -81.952513,
            29.6818187
          ],
          [
            -81.9525026,
            29.6818097
          ],
          [
            -81.9525025,
            29.6818007
          ],
          [
            -81.9525024,
            29.6817917
          ],
          [
            -81.952492,
            29.6817827
          ],
          [
            -81.9524919,
            29.6817737
          ],
          [
            -81.9524815,
            29.6817647
          ],
          [
            -81.9524711,
            29.6817558
          ],
          [
            -81.9524606,
            29.6817468
          ],
          [
            -81.9524605,
            29.6817378
          ],
          [
            -81.9524501,
            29.6817289
          ],
          [
            -81.9524397,
            29.6817199
          ],
          [
            -81.9524293,
            29.681711
          ],
          [
            -81.9524189,
            29.681702
          ],
          [
            -81.9524188,
            29.681693
          ],
          [
            -81.9524084,
            29.681684
          ],
          [
            -81.9523979,
            29.6816751
          ],
          [
            -81.9523979,
            29.6816661
          ],
          [
            -81.9523978,
            29.6816571
          ],
          [
            -81.9523874,
            29.6816481
          ],
          [
            -81.9523873,
            29.6816391
          ],
          [
            -81.9523872,
            29.6816301
          ],
          [
            -81.9523871,
            29.681621
          ],
          [
            -81.952387,
            29.681612
          ],
          [
            -81.9523869,
            29.681603
          ],
          [
            -81.9523869,
            29.681594
          ],
          [
            -81.9523868,
            29.6815849
          ],
          [
            -81.952397,
            29.6815758
          ],
          [
            -81.9524073,
            29.6815667
          ],
          [
            -81.9524175,
            29.6815576
          ],
          [
            -81.9524278,
            29.6815485
          ],
          [
            -81.9524381,
            29.6815485
          ],
          [
            -81.9524483,
            29.6815394
          ],
          [
            -81.952438,
            29.6815394
          ],
          [
            -81.9524277,
            29.6815395
          ],
          [
            -81.9524173,
            29.6815396
          ],
          [
            -81.9524069,
            29.6815306
          ],
          [
            -81.9523965,
            29.6815217
          ],
          [
            -81.9523862,
            29.6815218
          ],
          [
            -81.9523758,
            29.6815218
          ],
          [
            -81.9523655,
            29.6815219
          ],
          [
            -81.9523551,
            29.681513
          ],
          [
            -81.9523447,
            29.681504
          ],
          [
            -81.9523342,
            29.6814951
          ],
          [
            -81.9523238,
            29.6814861
          ],
          [
            -81.9523134,
            29.6814772
          ],
          [
            -81.952303,
            29.6814682
          ],
          [
            -81.9522926,
            29.6814593
          ],
          [
            -81.9522822,
            29.6814593
          ],
          [
            -81.9522719,
            29.6814594
          ],
          [
            -81.9522616,
            29.6814595
          ],
          [
            -81.9522513,
            29.6814686
          ],
          [
            -81.952241,
            29.6814687
          ],
          [
            -81.9522411,
            29.6814777
          ],
          [
            -81.9522412,
            29.6814867
          ],
          [
            -81.9522412,
            29.6814957
          ],
          [
            -81.9522413,
            29.6815048
          ],
          [
            -81.9522414,
            29.6815138
          ],
          [
            -81.9522415,
            29.6815228
          ],
          [
            -81.9522416,
            29.6815318
          ],
          [
            -81.9522417,
            29.6815409
          ],
          [
            -81.9522417,
            29.6815499
          ],
          [
            -81.9522418,
            29.6815589
          ],
          [
            -81.9522316,
            29.681568
          ],
          [
            -81.9522317,
            29.681577
          ],
          [
            -81.9522318,
            29.681586
          ],
          [
            -81.9522318,
            29.6815951
          ],
          [
            -81.9522216,
            29.6816042
          ],
          [
            -81.9522113,
            29.6816133
          ],
          [
            -81.9522011,
            29.6816224
          ],
          [
            -81.9521908,
            29.6816315
          ],
          [
            -81.9521909,
            29.6816405
          ],
          [
            -81.952191,
            29.6816495
          ],
          [
            -81.9521911,
            29.6816585
          ],
          [
            -81.9521912,
            29.6816676
          ],
          [
            -81.9521809,
            29.6816767
          ],
          [
            -81.9521707,
            29.6816858
          ],
          [
            -81.9521604,
            29.6816949
          ],
          [
            -81.9521502,
            29.681704
          ],
          [
            -81.9521503,
            29.681713
          ],
          [
            -81.95214,
            29.6817221
          ],
          [
            -81.9521298,
            29.6817312
          ],
          [
            -81.9521195,
            29.6817403
          ],
          [
            -81.9521196,
            29.6817493
          ],
          [
            -81.9521197,
            29.6817583
          ],
          [
            -81.9521198,
            29.6817673
          ],
          [
            -81.9521199,
            29.6817764
          ],
          [
            -81.9521096,
            29.6817855
          ],
          [
            -81.9521097,
            29.6817945
          ],
          [
            -81.9521098,
            29.6818035
          ],
          [
            -81.9521099,
            29.6818125
          ],
          [
            -81.9520996,
            29.6818216
          ],
          [
            -81.9520997,
            29.6818307
          ],
          [
            -81.9520996,
            29.6818216
          ],
          [
            -81.9520892,
            29.6818127
          ],
          [
            -81.9520788,
            29.6818037
          ],
          [
            -81.9520787,
            29.6817947
          ],
          [
            -81.9520683,
            29.6817858
          ],
          [
            -81.9520579,
            29.6817768
          ],
          [
            -81.9520474,
            29.6817679
          ],
          [
            -81.9520474,
            29.6817588
          ],
          [
            -81.9520369,
            29.6817499
          ],
          [
            -81.9520369,
            29.6817409
          ],
          [
            -81.9520264,
            29.6817319
          ],
          [
            -81.9520161,
            29.681732
          ],
          [
            -81.9520058,
            29.6817321
          ],
          [
            -81.9519954,
            29.6817321
          ],
          [
            -81.9519851,
            29.6817322
          ],
          [
            -81.9519748,
            29.6817323
          ],
          [
            -81.9519644,
            29.6817324
          ],
          [
            -81.9519541,
            29.6817324
          ],
          [
            -81.9519437,
            29.6817235
          ],
          [
            -81.9519333,
            29.6817145
          ],
          [
            -81.9519228,
            29.6817056
          ]
        ]
      }
    }
  ]
}