{
  "type": "FeatureCollection",
  "name": "TEAK_043_2018_field_route_lcp",
  "crs": {
    "type": "name",
    "properties": {
      "name": "urn:ogc:def:crs:OGC:1.3:CRS84"
    }
  },
  "features": [
    {
      "type": "Feature",
      "properties": {
        "route_name": "TEAK_043_2018 Dijkstra Least-Cost Path",
        "study_area": "40m x 40m (0.16 ha)",
        "total_physical_distance_meters": 62.84,
        "total_least_cost_score": 140.67,
        "stops_count": 7,
        "visiting_sequence": "Ranger Base / Entry Point -> Tree #7 -> Tree #18 -> Tree #2 -> Tree #11 -> Tree #24 -> Tree #16 -> Tree #5",
        "grid_resolution_meters": 1.0,
        "grid_dimensions": "40x40",
        "cost_surface_model": "ExG (2G-R-B) canopy impedance scaled to [1.0, 5.0]"
      },
      "geometry": {
        "type": "LineString",
        "coordinates": [
          [
            -119.0112564,
            36.9995352
          ],
          [
            -119.0112454,
            36.9995444
          ],
          [
            -119.0112342,
            36.9995446
          ],
          [
            -119.0112229,
            36.9995448
          ],
          [
            -119.0112117,
            36.999545
          ],
          [
            -119.0112007,
            36.9995542
          ],
          [
            -119.0112009,
            36.9995632
          ],
          [
            -119.01119,
            36.9995724
          ],
          [
            -119.011179,
            36.9995816
          ],
          [
            -119.011168,
            36.9995908
          ],
          [
            -119.011157,
            36.9996
          ],
          [
            -119.0111572,
            36.999609
          ],
          [
            -119.0111574,
            36.999618
          ],
          [
            -119.0111464,
            36.9996272
          ],
          [
            -119.0111467,
            36.9996362
          ],
          [
            -119.0111357,
            36.9996454
          ],
          [
            -119.0111245,
            36.9996456
          ],
          [
            -119.011113,
            36.9996368
          ],
          [
            -119.0111015,
            36.999628
          ],
          [
            -119.0110901,
            36.9996191
          ],
          [
            -119.0110786,
            36.9996103
          ],
          [
            -119.0110788,
            36.9996193
          ],
          [
            -119.0110791,
            36.9996283
          ],
          [
            -119.0110793,
            36.9996373
          ],
          [
            -119.0110683,
            36.9996465
          ],
          [
            -119.0110573,
            36.9996557
          ],
          [
            -119.0110463,
            36.9996649
          ],
          [
            -119.0110353,
            36.9996741
          ],
          [
            -119.0110243,
            36.9996833
          ],
          [
            -119.0110133,
            36.9996925
          ],
          [
            -119.0110023,
            36.9997017
          ],
          [
            -119.0110026,
            36.9997107
          ],
          [
            -119.0110028,
            36.9997198
          ],
          [
            -119.0109918,
            36.999729
          ],
          [
            -119.0109808,
            36.9997382
          ],
          [
            -119.0109698,
            36.9997474
          ],
          [
            -119.0109701,
            36.9997564
          ],
          [
            -119.0109591,
            36.9997656
          ],
          [
            -119.0109593,
            36.9997746
          ],
          [
            -119.0109483,
            36.9997838
          ],
          [
            -119.0109485,
            36.9997928
          ],
          [
            -119.0109488,
            36.9998018
          ],
          [
            -119.0109378,
            36.999811
          ],
          [
            -119.0109268,
            36.9998202
          ],
          [
            -119.0109158,
            36.9998294
          ],
          [
            -119.0109048,
            36.9998386
          ],
          [
            -119.0108936,
            36.9998388
          ],
          [
            -119.0108823,
            36.999839
          ],
          [
            -119.0108713,
            36.9998482
          ],
          [
            -119.0108603,
            36.9998574
          ],
          [
            -119.0108494,
            36.9998666
          ]
        ]
      }
    }
  ]
}